,key,datetime,author,caption,hashtags,location,address,x,y
0,https://www.instagram.com/p/CHxA8G5gJKP/,2020-11-19T08:36:13.000Z,jun_in_luv,"ì œì£¼,ì…‹ì§¸ë‚ ðŸ¤ŸðŸ»
ì•„ì¹¨ë¶€í„° ë‚ ì”¨ê°€ ë„ˆë¬´ ì¢‹ê³ ,ì•„ì¹¨ë·°ì— í–‰ë³µí•˜ê³ ðŸ’™
ì‚¼ì¼ì§¸ ê°™ì€ ìˆ™ì†Œë¡œ ê°™ì€ ì¡°ì‹...ì´ì§€ë§Œ ì¢‹ë‹¤!
ì•„ì ì„ ìœ„í•´ ìˆ™ì†Œ ì£¼ìœ„ë¥¼ ê±¸ì–´ë³´ìž ê±·ë‹¤ë³´ë‹ˆ ë§›ì§‘ë“í…œ!
ë¨¹ì–´ë³¸ ì „ë³µì£½ì¤‘ì— ì¸ìƒì£½!!ì˜¤ì§•ì–´ ì “ê°ˆê³¼ì¼€ë¯¸ ë‚œë¦¬ë‚¨!!
ì „ë³µ ì¹¼êµ­ìˆ˜ëŠ” ë˜ ì´ì„±ì„ ìžƒì–´ì„œ..ì‚¬ì§„ì€ íŒ¨ìŠ¤~
ë¨¹ê³  íž˜ë‚´ì„œ ê°ê·¤ì²´í—˜ì†¨ ë¯¸ë‹ˆë™ë¬¼ì›~ðŸ–ê¹Œì§€ ì°ê³ ~
.
.
.
.
#ì œì£¼#ì œì£¼ì—¬í–‰#ê°€ì¡±ì—¬í–‰#ì„œê·€í¬#ë§›ì§‘#ì„ ì±„í–¥#ì „ë³µì¹¼êµ­ìˆ˜#ì „ë³µì£½#ì¸ìƒì£½#ê°ê·¤ì²´í—˜#ì–´ë¦°ì™•ìžê°ê·¤ë°­#ê°ê·¤ì²´í—˜#ì—¬í–‰ìŠ¤íƒ€ê·¸ëž¨","['ì œì£¼', 'ì œì£¼ì—¬í–‰', 'ê°€ì¡±ì—¬í–‰', 'ì„œê·€í¬', 'ë§›ì§‘', 'ì„ ì±„í–¥', 'ì „ë³µì¹¼êµ­ìˆ˜', 'ì „ë³µì£½', 'ì¸ìƒì£½', 'ê°ê·¤ì²´í—˜', 'ì–´ë¦°ì™•ìžê°ê·¤ë°­', 'ê°ê·¤ì²´í—˜', 'ì—¬í–‰ìŠ¤íƒ€ê·¸ëž¨']",ì„œê·€í¬ì‹œ ì•ˆë•ë©´,ì œì£¼íŠ¹ë³„ìžì¹˜ë„ ì„œê·€í¬ì‹œ ì•ˆë•ë©´ ê°ì‚°ë¦¬,126.34893103178686,33.24195298266035
8,https://www.instagram.com/p/CHxAdPDFGmY/,2020-11-19T08:32:00.000Z,food.man86,"ì• ì›”ì˜¤ì…˜ë·°ì—
íŠ¹ë³„í•œ ì¹´ë ˆê°€ ìž”ëœ©ì¸ê³³!^^
ë§›ë„ ì§±ì§±
ðŸ˜œ
.
#jeju #ì œì£¼ë„ #ì œì£¼ #ì• ì›”ë§›ì§‘ #ì• ì›”ì¹´ë ˆ #ì¹´ë ˆë§›ì§‘ #ì œì£¼í•«í”Œ #ì œì£¼ë„ë¯¼ë§›ì§‘#ì§¬ë½•ì¹´ë ˆ #ì œì£¼ë§›ì§‘#ì œì£¼í˜¼ë°¥ë§›ì§‘ #ì œì£¼ë§›ì§‘ì¶”ì²œ #ì œì£¼ì˜¤ì…˜ë·°ë§›ì§‘ #ì• ì›”ë°¥ì§‘ì¶”ì²œ#ì œì£¼ë„ì¹´ë ˆ #ì œì£¼ì €ë…ì‹ì‚¬#ì‚¬ì´ì¹´ë ˆ#ì œì£¼ë§›ì§‘ì¶”ì²œ #ì œì£¼ë„ë§›ì§‘#ì• ì›”ì €ë…ì‹ì‚¬ #ì œì£¼ë§›ì§‘ì¶”ì²œ#ì• ì›”ì ì‹¬ì¶”ì²œ#ì œì£¼í˜¼ë°¥ì¶”ì²œ#ì œì£¼ì‹œë§›ì§‘#ì• ì›”í•´ì•ˆë„ë¡œë§›ì§‘#ì œì£¼ì• ì›”ë§›ì§‘#í•œë¦¼ë§›ì§‘#í•œë‹´ë§›ì§‘#ì œì£¼ê³µí•­ë§›ì§‘#ì œì£¼í˜¼ë°¥í•˜ê¸°ì¢‹ì€ê³³#ì• ì›”í˜¼ë°¥#ì œì£¼ì ì‹¬ì¶”ì²œ","['jeju', 'ì œì£¼ë„', 'ì œì£¼', 'ì• ì›”ë§›ì§‘', 'ì• ì›”ì¹´ë ˆ', 'ì¹´ë ˆë§›ì§‘', 'ì œì£¼í•«í”Œ', 'ì œì£¼ë„ë¯¼ë§›ì§‘', 'ì§¬ë½•ì¹´ë ˆ', 'ì œì£¼ë§›ì§‘', 'ì œì£¼í˜¼ë°¥ë§›ì§‘', 'ì œì£¼ë§›ì§‘ì¶”ì²œ', 'ì œì£¼ì˜¤ì…˜ë·°ë§›ì§‘', 'ì• ì›”ë°¥ì§‘ì¶”ì²œ', 'ì œì£¼ë„ì¹´ë ˆ', 'ì œì£¼ì €ë…ì‹ì‚¬', 'ì‚¬ì´ì¹´ë ˆ', 'ì œì£¼ë§›ì§‘ì¶”ì²œ', 'ì œì£¼ë„ë§›ì§‘', 'ì• ì›”ì €ë…ì‹ì‚¬', 'ì œì£¼ë§›ì§‘ì¶”ì²œ', 'ì• ì›”ì ì‹¬ì¶”ì²œ', 'ì œì£¼í˜¼ë°¥ì¶”ì²œ', 'ì œì£¼ì‹œë§›ì§‘', 'ì• ì›”í•´ì•ˆë„ë¡œë§›ì§‘', 'ì œì£¼ì• ì›”ë§›ì§‘', 'í•œë¦¼ë§›ì§‘', 'í•œë‹´ë§›ì§‘', 'ì œì£¼ê³µí•­ë§›ì§‘', 'ì œì£¼í˜¼ë°¥í•˜ê¸°ì¢‹ì€ê³³', 'ì• ì›”í˜¼ë°¥', 'ì œì£¼ì ì‹¬ì¶”ì²œ']",ì‚¬ì´ì¹´ë ˆ,ì œì£¼íŠ¹ë³„ìžì¹˜ë„ ì œì£¼ì‹œ ì• ì›”ì êµ¬ì—„ë¦¬ 509,126.381106668339,33.4842446359284
9,https://www.instagram.com/p/CHxAb17l0Sr/,2020-11-19T08:31:49.000Z,food.man86,"ì• ì›”ì˜¤ì…˜ë·°ì—
íŠ¹ë³„í•œ ì¹´ë ˆê°€ ìž”ëœ©ì¸ê³³!^^
ë§›ë„ ì§±ì§±
ðŸ˜œ
.
#jeju #ì œì£¼ë„ #ì œì£¼ #ì• ì›”ë§›ì§‘ #ì• ì›”ì¹´ë ˆ #ì¹´ë ˆë§›ì§‘ #ì œì£¼í•«í”Œ #ì œì£¼ë„ë¯¼ë§›ì§‘#ì§¬ë½•ì¹´ë ˆ #ì œì£¼ë§›ì§‘#ì œì£¼í˜¼ë°¥ë§›ì§‘ #ì œì£¼ë§›ì§‘ì¶”ì²œ #ì œì£¼ì˜¤ì…˜ë·°ë§›ì§‘ #ì• ì›”ë°¥ì§‘ì¶”ì²œ#ì œì£¼ë„ì¹´ë ˆ #ì œì£¼ì €ë…ì‹ì‚¬#ì‚¬ì´ì¹´ë ˆ#ì œì£¼ë§›ì§‘ì¶”ì²œ #ì œì£¼ë„ë§›ì§‘#ì• ì›”ì €ë…ì‹ì‚¬ #ì œì£¼ë§›ì§‘ì¶”ì²œ#ì• ì›”ì ì‹¬ì¶”ì²œ#ì œì£¼í˜¼ë°¥ì¶”ì²œ#ì œì£¼ì‹œë§›ì§‘#ì• ì›”í•´ì•ˆë„ë¡œë§›ì§‘#ì œì£¼ì• ì›”ë§›ì§‘#í•œë¦¼ë§›ì§‘#í•œë‹´ë§›ì§‘#ì œì£¼ê³µí•­ë§›ì§‘#ì œì£¼í˜¼ë°¥í•˜ê¸°ì¢‹ì€ê³³#ì• ì›”í˜¼ë°¥#ì œì£¼ì ì‹¬ì¶”ì²œ","['jeju', 'ì œì£¼ë„', 'ì œì£¼', 'ì• ì›”ë§›ì§‘', 'ì• ì›”ì¹´ë ˆ', 'ì¹´ë ˆë§›ì§‘', 'ì œì£¼í•«í”Œ', 'ì œì£¼ë„ë¯¼ë§›ì§‘', 'ì§¬ë½•ì¹´ë ˆ', 'ì œì£¼ë§›ì§‘', 'ì œì£¼í˜¼ë°¥ë§›ì§‘', 'ì œì£¼ë§›ì§‘ì¶”ì²œ', 'ì œì£¼ì˜¤ì…˜ë·°ë§›ì§‘', 'ì• ì›”ë°¥ì§‘ì¶”ì²œ', 'ì œì£¼ë„ì¹´ë ˆ', 'ì œì£¼ì €ë…ì‹ì‚¬', 'ì‚¬ì´ì¹´ë ˆ', 'ì œì£¼ë§›ì§‘ì¶”ì²œ', 'ì œì£¼ë„ë§›ì§‘', 'ì• ì›”ì €ë…ì‹ì‚¬', 'ì œì£¼ë§›ì§‘ì¶”ì²œ', 'ì• ì›”ì ì‹¬ì¶”ì²œ', 'ì œì£¼í˜¼ë°¥ì¶”ì²œ', 'ì œì£¼ì‹œë§›ì§‘', 'ì• ì›”í•´ì•ˆë„ë¡œë§›ì§‘', 'ì œì£¼ì• ì›”ë§›ì§‘', 'í•œë¦¼ë§›ì§‘', 'í•œë‹´ë§›ì§‘', 'ì œì£¼ê³µí•­ë§›ì§‘', 'ì œì£¼í˜¼ë°¥í•˜ê¸°ì¢‹ì€ê³³', 'ì• ì›”í˜¼ë°¥', 'ì œì£¼ì ì‹¬ì¶”ì²œ']",ì œì£¼ë„ ì• ì›”ì,ì œì£¼íŠ¹ë³„ìžì¹˜ë„ ì œì£¼ì‹œ ì• ì›”ì ê´‘ë ¹ë¦¬,126.439341083568,33.4608856490895
10,https://www.instagram.com/p/CHxAYGmFDw-/,2020-11-19T08:31:18.000Z,food.man86,"ì• ì›”ì˜¤ì…˜ë·°ì—
íŠ¹ë³„í•œ ì¹´ë ˆê°€ ìž”ëœ©ì¸ê³³!^^
ë§›ë„ ì§±ì§±
ðŸ˜œ
.
#jeju #ì œì£¼ë„ #ì œì£¼ #ì• ì›”ë§›ì§‘ #ì• ì›”ì¹´ë ˆ #ì¹´ë ˆë§›ì§‘ #ì œì£¼í•«í”Œ #ì œì£¼ë„ë¯¼ë§›ì§‘#ì§¬ë½•ì¹´ë ˆ #ì œì£¼ë§›ì§‘#ì œì£¼í˜¼ë°¥ë§›ì§‘ #ì œì£¼ë§›ì§‘ì¶”ì²œ #ì œì£¼ì˜¤ì…˜ë·°ë§›ì§‘ #ì• ì›”ë°¥ì§‘ì¶”ì²œ#ì œì£¼ë„ì¹´ë ˆ #ì œì£¼ì €ë…ì‹ì‚¬#ì‚¬ì´ì¹´ë ˆ#ì œì£¼ë§›ì§‘ì¶”ì²œ #ì œì£¼ë„ë§›ì§‘#ì• ì›”ì €ë…ì‹ì‚¬ #ì œì£¼ë§›ì§‘ì¶”ì²œ#ì• ì›”ì ì‹¬ì¶”ì²œ#ì œì£¼í˜¼ë°¥ì¶”ì²œ#ì œì£¼ì‹œë§›ì§‘#ì• ì›”í•´ì•ˆë„ë¡œë§›ì§‘#ì œì£¼ì• ì›”ë§›ì§‘#í•œë¦¼ë§›ì§‘#í•œë‹´ë§›ì§‘#ì œì£¼ê³µí•­ë§›ì§‘#ì œì£¼í˜¼ë°¥í•˜ê¸°ì¢‹ì€ê³³#ì• ì›”í˜¼ë°¥#ì œì£¼ì ì‹¬ì¶”ì²œ","['jeju', 'ì œì£¼ë„', 'ì œì£¼', 'ì• ì›”ë§›ì§‘', 'ì• ì›”ì¹´ë ˆ', 'ì¹´ë ˆë§›ì§‘', 'ì œì£¼í•«í”Œ', 'ì œì£¼ë„ë¯¼ë§›ì§‘', 'ì§¬ë½•ì¹´ë ˆ', 'ì œì£¼ë§›ì§‘', 'ì œì£¼í˜¼ë°¥ë§›ì§‘', 'ì œì£¼ë§›ì§‘ì¶”ì²œ', 'ì œì£¼ì˜¤ì…˜ë·°ë§›ì§‘', 'ì• ì›”ë°¥ì§‘ì¶”ì²œ', 'ì œì£¼ë„ì¹´ë ˆ', 'ì œì£¼ì €ë…ì‹ì‚¬', 'ì‚¬ì´ì¹´ë ˆ', 'ì œì£¼ë§›ì§‘ì¶”ì²œ', 'ì œì£¼ë„ë§›ì§‘', 'ì• ì›”ì €ë…ì‹ì‚¬', 'ì œì£¼ë§›ì§‘ì¶”ì²œ', 'ì• ì›”ì ì‹¬ì¶”ì²œ', 'ì œì£¼í˜¼ë°¥ì¶”ì²œ', 'ì œì£¼ì‹œë§›ì§‘', 'ì• ì›”í•´ì•ˆë„ë¡œë§›ì§‘', 'ì œì£¼ì• ì›”ë§›ì§‘', 'í•œë¦¼ë§›ì§‘', 'í•œë‹´ë§›ì§‘', 'ì œì£¼ê³µí•­ë§›ì§‘', 'ì œì£¼í˜¼ë°¥í•˜ê¸°ì¢‹ì€ê³³', 'ì• ì›”í˜¼ë°¥', 'ì œì£¼ì ì‹¬ì¶”ì²œ']",êµ¬ì—„í¬êµ¬,ì œì£¼íŠ¹ë³„ìžì¹˜ë„ ì œì£¼ì‹œ ì• ì›”ì êµ¬ì—„ë¦¬,126.376509129041,33.4843983019781
42,https://www.instagram.com/p/CH9rtXxgfR9/,2020-11-24T06:40:50.000Z,dailydose_gwen,"Lucky to have missed my flight which spared me some time to enjoy the lovely weather at an ocean view cafe
.
.
1:30 ë±…ê¸° ë†“ì¹¨
3:50 ë±…ê¸° ë³€ê²½
.
ê¸°ë‹¤ë¦¬ëŠ” ë™ì•ˆ
ë‚ ì”¨ ì¢‹ì€ ì œì£¼
ê°€ì„ í•˜ëŠ˜ ì¦ê¸°ê¸°
.
BTSê°€ ì™”ë‹¤ê³¤ ì•™ëšœì•„ë„¤íŠ¸ ì¹´íŽ˜
.
í˜¼ìž í›Œì© ë– ë‚˜ì˜¨ ì‚¬ëžŒë“¤ì´ ìœ ë… ë§Žì€ 11ì›” ë§ˆì§€ë§‰ ì£¼ ì œì£¼
.
.
#ì œì£¼
#ì œì£¼ë„
#ì œì£¼ë§›ì§‘
#ì œì£¼ì—¬í–‰
#ì œì£¼ë„ì—¬í–‰
#ì•™ëšœì•„ë„¤íŠ¸
#ë·°ê¹¡íŽ˜
.
#jeju
#jejuisland
#southkorea","['ì œì£¼', 'ì œì£¼ë„', 'ì œì£¼ë§›ì§‘', 'ì œì£¼ì—¬í–‰', 'ì œì£¼ë„ì—¬í–‰', 'ì•™ëšœì•„ë„¤íŠ¸', 'ë·°ê¹¡íŽ˜', 'jeju', 'jejuisland', 'southkorea']",ì•™ëšœì•„ë„¤íŠ¸ìš©ë‹´ì ,ì œì£¼íŠ¹ë³„ìžì¹˜ë„ ì œì£¼ì‹œ ìš©ë‹´ì‚¼ë™ 503-5,126.508835277337,33.5161848354525
46,https://www.instagram.com/p/CH9rdzslzA1/,2020-11-24T06:38:43.000Z,foodgram_bapdoduk,"#ì œì£¼ë„ #ì¸ê·¸ë¦¬ë“œ ðŸ 
ë¹¨ê°„ ì§€ë¶•ì´ ë„˜ ì˜ˆë»¤ë˜ ì¹´íŽ˜ â¤ï¸ ì¹´íŽ˜ ë‚´ë¶€ë„ ì•„ëŠ‘í•˜ê³  íŽ¸ì•ˆí•œ ëŠë‚Œ! ë¹„ê°€ ë‚´ë ¤ ì•„ìˆ˜ì› ì§€ë§Œ ë‚˜ë¦„ ìš´ì¹˜ìžˆì–´ë”° >_< #ì²­ê·¤ì—ì´ë“œ ë„ ë§›ë‚¬ê³  #ì–¼ê·¸ë ˆì´í¬ë¦¼ë¼ë–¼ ë„ ì¡´ë§›! í¬ë¦¼ ì§±ë¶€ë“œëŸ½! (â•¹à±ªâ•¹*à¹‘)
.
.
.
.
.
.
.
#ì œì£¼ë„ì—¬í–‰ #ì œì£¼ #ì œì£¼ì—¬í–‰ #ì œì£¼ë„ë§›ì§‘ #ì œì£¼ë§›ì§‘ #ì œì£¼ë„ì¹´íŽ˜ #ì œì£¼ì¹´íŽ˜ #ì¹´íŽ˜íˆ¬ì–´ #ì¹´íŽ˜ìŠ¤íƒ€ê·¸ëž¨ #ì—¬í–‰ #ì—¬í–‰ìŠ¤íƒ€ê·¸ëž¨ #ë¨¹ìŠ¤íƒ€ê·¸ëž¨ #ë¨¹ìŠ¤íƒ€ #ë§›ìŠ¤íƒ€ê·¸ëž¨ #ë§›ìŠ¤íƒ€ #í‘¸ë“œìŠ¤íƒ€ê·¸ëž¨ #ë§›ìžˆë‹¤ê·¸ëž¨ #ì¼ìƒ #ì œì£¼í•«í”Œ #ì¢‹ì•„ìš”ë°˜ì‚¬ #ì²«ì¤„ë°˜ì‚¬ #ì†Œí†µ #ë§žíŒ” #ë¨¹ìŠ¤íƒ€ì†Œí†µ #ë¨¹ìŠ¤íƒ€ë§žíŒ” #ë°¥ë„ë‘‘ðŸ°_ì œì£¼","['ì œì£¼ë„', 'ì¸ê·¸ë¦¬ë“œ', 'ì²­ê·¤ì—ì´ë“œ', 'ì–¼ê·¸ë ˆì´í¬ë¦¼ë¼ë–¼', 'ì œì£¼ë„ì—¬í–‰', 'ì œì£¼', 'ì œì£¼ì—¬í–‰', 'ì œì£¼ë„ë§›ì§‘', 'ì œì£¼ë§›ì§‘', 'ì œì£¼ë„ì¹´íŽ˜', 'ì œì£¼ì¹´íŽ˜', 'ì¹´íŽ˜íˆ¬ì–´', 'ì¹´íŽ˜ìŠ¤íƒ€ê·¸ëž¨', 'ì—¬í–‰', 'ì—¬í–‰ìŠ¤íƒ€ê·¸ëž¨', 'ë¨¹ìŠ¤íƒ€ê·¸ëž¨', 'ë¨¹ìŠ¤íƒ€', 'ë§›ìŠ¤íƒ€ê·¸ëž¨', 'ë§›ìŠ¤íƒ€', 'í‘¸ë“œìŠ¤íƒ€ê·¸ëž¨', 'ë§›ìžˆë‹¤ê·¸ëž¨', 'ì¼ìƒ', 'ì œì£¼í•«í”Œ', 'ì¢‹ì•„ìš”ë°˜ì‚¬', 'ì²«ì¤„ë°˜ì‚¬', 'ì†Œí†µ', 'ë§žíŒ”', 'ë¨¹ìŠ¤íƒ€ì†Œí†µ', 'ë¨¹ìŠ¤íƒ€ë§žíŒ”', 'ë°¥ë„ë‘‘']",Ingrid,ì œì£¼íŠ¹ë³„ìžì¹˜ë„ ì œì£¼ì‹œ ì´í˜¸ì¼ë™ 371-1,126.45668314517829,33.50255325983955
51,https://www.instagram.com/p/CH9rP-0LxEU/,2020-11-24T06:36:49.000Z,rirarulagram._.foto,"-

ìš°ë¦¬ê°€ì¡± ížë§ í•œ ë‚ 

#190504
#ì œì£¼#ì œì£¼ì‚´ì´#ì œì£¼ì—¬í–‰#ê°€ì¡±ì—¬í–‰#ì œì£¼ë°”ë‹¤#ì¡°ì²œ#ë‹­ë¨¸ë¥´í•´ì•ˆê¸¸#ë·°ë§›ì§‘#ë…¸ì„ëª…ì†Œ","['190504', 'ì œì£¼', 'ì œì£¼ì‚´ì´', 'ì œì£¼ì—¬í–‰', 'ê°€ì¡±ì—¬í–‰', 'ì œì£¼ë°”ë‹¤', 'ì¡°ì²œ', 'ë‹­ë¨¸ë¥´í•´ì•ˆê¸¸', 'ë·°ë§›ì§‘', 'ë…¸ì„ëª…ì†Œ']",ë‹­ë¨¸ë¥´,ì œì£¼íŠ¹ë³„ìžì¹˜ë„ ì œì£¼ì‹œ ì¡°ì²œì ì‹ ì´Œë¦¬,126.612087338359,33.5355459503005
62,https://www.instagram.com/p/CH9qZvBlMce/,2020-11-24T06:29:25.000Z,hyeobjaedongaseu,#ì œì£¼ì—¬í–‰ #í˜‘ìž¬í•´ìˆ˜ìš•ìž¥ #í˜‘ìž¬í•´ìˆ˜ìš•ìž¥ë§›ì§‘ #ìˆ˜ì œí˜‘ì œëˆê¹ŒìŠ¤ #ì œì£¼ë§›ì§‘ #í˜‘ìž¬ë§›ì§‘ #í•œë¦¼ë§›ì§‘ #ì œì£¼í˜‘ìž¬ë§›ì§‘ #ì œì£¼ì„œìª½ë§›ì§‘ #ì œì£¼ëˆê¹ŒìŠ¤ #ì¢‹ë°˜ #ì¢‹í…Œ #ë·°ë§›ì§‘ #ëˆê°€ìŠ¤ #ì œì£¼ #ì œì£¼ë„ #jeju #í˜‘ìž¬ #ë‚˜ë§Œì•„ëŠ” #ì° #ë°”ë‹¤ë³´ë©° #niceviewì œì£¼ë„ë¯¼ë§›ì§‘,"['ì œì£¼ì—¬í–‰', 'í˜‘ìž¬í•´ìˆ˜ìš•ìž¥', 'í˜‘ìž¬í•´ìˆ˜ìš•ìž¥ë§›ì§‘', 'ìˆ˜ì œí˜‘ì œëˆê¹ŒìŠ¤', 'ì œì£¼ë§›ì§‘', 'í˜‘ìž¬ë§›ì§‘', 'í•œë¦¼ë§›ì§‘', 'ì œì£¼í˜‘ìž¬ë§›ì§‘', 'ì œì£¼ì„œìª½ë§›ì§‘', 'ì œì£¼ëˆê¹ŒìŠ¤', 'ì¢‹ë°˜', 'ì¢‹í…Œ', 'ë·°ë§›ì§‘', 'ëˆê°€ìŠ¤', 'ì œì£¼', 'ì œì£¼ë„', 'jeju', 'í˜‘ìž¬', 'ë‚˜ë§Œì•„ëŠ”', 'ì°', 'ë°”ë‹¤ë³´ë©°', 'niceviewì œì£¼ë„ë¯¼ë§›ì§‘']",í˜‘ìž¬ëˆê¹ŒìŠ¤,ì œì£¼íŠ¹ë³„ìžì¹˜ë„ ì œì£¼ì‹œ í•œë¦¼ì í˜‘ìž¬ë¦¬ 1706-1,126.242439755379,33.3966233802686
73,https://www.instagram.com/p/CH9th5ynMyT/,2020-11-24T06:56:45.000Z,_pure_a,"#ìš°ë¦¬ì§‘ì•„ì 

ë°°ë„ ëœ ê³ íŒ ê³  ì‹œê°„ë„ ì´‰ë°•í–ˆê³ ðŸ˜­ ì°¨ë¶„ížˆ ë¨¹ê³  ì”¹ê³  ë§›ë³´ê³  ì¦ê¸°ì§€ ëª»í•´ì„œ ì•„ì‰¬ì› ë˜ ê³³.

ê¸ˆëŠ¥í•´ë³€ì—ì„œ ë„ë³´ë¡œ ê°€ëŠ¥

#ê°„ìž¥í‘ë¼ì§€ë®ë°¥ ë…¸ë¥¸ìžê°€ ìžˆì–´ì„œ ë­”ê°€ ë¹„ë¦´ê±°ê°™ì•˜ì§€ë§Œ ì „í˜€! ë§‰ ë¹„ë²¼ê°€ì§€ê³  ë°¥+ê³ ê¸°+ì™€ì‚¬ë¹„ ì˜¬ë ¤ ë¨¹ìœ¼ë©´ ê¿€ë§›

#ë”±ìƒˆìš°ìž¥ì •ì‹ ê·¸ëƒ¥ ë‹¤ ë§›ìžˆìŒ!!!!!!! ì™„ì €ë‹ˆ!!!!!!!!!!!!! ë¹„ë¦°ë§› 1ë„ ì—†ê³  ê± ìƒˆìš° ì•„ë‹ˆê³  ë”±ìƒˆìš°ë¼ ë­”ê°€ ë” ë‹¬ë‹¬(?)í•˜ê³  ë°˜ì°¬ìœ¼ë¡œ ë‚˜ì˜¤ëŠ” ì–‘ë…ë”±ìƒˆìš°ìž¥ë„ ë§›ìžˆê³  í˜¼ìž 20ë§ˆë¦¬ëŠ” ë¨¹ì„ ìˆ˜ ìžˆì„ë“¯

ì•”íŠ¼ ë˜ ë¨¹ê³  ì‹¶ë‹¤,,, ê°€ê³ ì‹¶ë‹¤ ì œì£¼ë„,,,ðŸŒŠ

#ì œì£¼ë„ #ì œì£¼ #ì œì£¼ë§›ì§‘ #í•œë¦¼ë§›ì§‘ #ê¸ˆëŠ¥ë§›ì§‘","['ìš°ë¦¬ì§‘ì•„ì ', 'ê°„ìž¥í‘ë¼ì§€ë®ë°¥', 'ë”±ìƒˆìš°ìž¥ì •ì‹', 'ì œì£¼ë„', 'ì œì£¼', 'ì œì£¼ë§›ì§‘', 'í•œë¦¼ë§›ì§‘', 'ê¸ˆëŠ¥ë§›ì§‘']",ìš°ë¦¬ì§‘ì•„ì ,ì œì£¼íŠ¹ë³„ìžì¹˜ë„ ì œì£¼ì‹œ í•œë¦¼ì ê¸ˆëŠ¥ë¦¬ 1474-11,126.23323472600012,33.387810619550386
96,https://www.instagram.com/p/CH9vu8mFAX6/,2020-11-24T07:16:00.000Z,hyeobjaedongaseu,#ì œì£¼ì—¬í–‰ #í˜‘ìž¬í•´ìˆ˜ìš•ìž¥ #í˜‘ìž¬í•´ìˆ˜ìš•ìž¥ë§›ì§‘ #ìˆ˜ì œí˜‘ì œëˆê¹ŒìŠ¤ #ì œì£¼ë§›ì§‘ #í˜‘ìž¬ë§›ì§‘ #í•œë¦¼ë§›ì§‘ #ì œì£¼í˜‘ìž¬ë§›ì§‘ #ì œì£¼ì„œìª½ë§›ì§‘ #ì œì£¼ëˆê¹ŒìŠ¤ #ì¢‹ë°˜ #ì¢‹í…Œ #ë·°ë§›ì§‘ #ëˆê°€ìŠ¤ #ì œì£¼ #ì œì£¼ë„ #jeju #í˜‘ìž¬ #ë‚˜ë§Œì•„ëŠ” #ì° #ë°”ë‹¤ë³´ë©° #niceviewì œì£¼ë„ë¯¼ë§›ì§‘,"['ì œì£¼ì—¬í–‰', 'í˜‘ìž¬í•´ìˆ˜ìš•ìž¥', 'í˜‘ìž¬í•´ìˆ˜ìš•ìž¥ë§›ì§‘', 'ìˆ˜ì œí˜‘ì œëˆê¹ŒìŠ¤', 'ì œì£¼ë§›ì§‘', 'í˜‘ìž¬ë§›ì§‘', 'í•œë¦¼ë§›ì§‘', 'ì œì£¼í˜‘ìž¬ë§›ì§‘', 'ì œì£¼ì„œìª½ë§›ì§‘', 'ì œì£¼ëˆê¹ŒìŠ¤', 'ì¢‹ë°˜', 'ì¢‹í…Œ', 'ë·°ë§›ì§‘', 'ëˆê°€ìŠ¤', 'ì œì£¼', 'ì œì£¼ë„', 'jeju', 'í˜‘ìž¬', 'ë‚˜ë§Œì•„ëŠ”', 'ì°', 'ë°”ë‹¤ë³´ë©°', 'niceviewì œì£¼ë„ë¯¼ë§›ì§‘']",í˜‘ìž¬ëˆê¹ŒìŠ¤,ì œì£¼íŠ¹ë³„ìžì¹˜ë„ ì œì£¼ì‹œ í•œë¦¼ì í˜‘ìž¬ë¦¬ 1706-1,126.242439755379,33.3966233802686
112,https://www.instagram.com/p/CH9uhDID8o_/,2020-11-24T07:05:22.000Z,communitable_15,"â €â €â €â €â €â €â €â €â €â €â €â €â €â €â €â €
ì˜¤ëŠ˜ ì¤€ë¹„í•œ ìž¬ë£Œ ì†Œì§„ìœ¼ë¡œ
ì¡°ê¸ˆ ì¼ì° ë§ˆê°í•©ë‹ˆë‹¤.
ì˜¤ëŠ˜ë„ ê°ì‚¬í•©ë‹ˆë‹¤!!ðŸ™‡ðŸ½â€â™‚ï¸
.
#ì œì£¼#ì„œê·€í¬ #ì„œê·€í¬ë§›ì§‘ #ì›”í‰ë§ˆì„ #ìž‘ì€ì‹ë‹¹ #Bistro #ì„œê·€í¬íŒŒìŠ¤íƒ€ #ë¬´êµ­ì ì‹ë‹¹ #ì»¤ë®¤ë‹ˆí…Œì´ë¸” #littleforest_jeju #playworks_jeju #ì˜¬ë ˆ7ì½”ìŠ¤ #ì˜¬ë ˆ8ì½”ìŠ¤ #ì•½ì²œì‚¬ #ë²•í™˜í¬êµ¬ #ì›”í‰í¬êµ¬ #ì¼„ì‹±í„´ë¦¬ì¡°íŠ¸ì„œê·€í¬ #ì¤‘ë¬¸ìƒ‰ë‹¬í•´ë³€ #í™©ìš°ì§€í•´ì•ˆ #ê°•ì •ì²œ #ë²•í™˜í¬êµ¬","['ì œì£¼', 'ì„œê·€í¬', 'ì„œê·€í¬ë§›ì§‘', 'ì›”í‰ë§ˆì„', 'ìž‘ì€ì‹ë‹¹', 'Bistro', 'ì„œê·€í¬íŒŒìŠ¤íƒ€', 'ë¬´êµ­ì ì‹ë‹¹', 'ì»¤ë®¤ë‹ˆí…Œì´ë¸”', 'littleforest_jeju', 'playworks_jeju', 'ì˜¬ë ˆ7ì½”ìŠ¤', 'ì˜¬ë ˆ8ì½”ìŠ¤', 'ì•½ì²œì‚¬', 'ë²•í™˜í¬êµ¬', 'ì›”í‰í¬êµ¬', 'ì¼„ì‹±í„´ë¦¬ì¡°íŠ¸ì„œê·€í¬', 'ì¤‘ë¬¸ìƒ‰ë‹¬í•´ë³€', 'í™©ìš°ì§€í•´ì•ˆ', 'ê°•ì •ì²œ', 'ë²•í™˜í¬êµ¬']",ì»¤ë®¤ë‹ˆí…Œì´ë¸”,ì œì£¼íŠ¹ë³„ìžì¹˜ë„ ì„œê·€í¬ì‹œ ì›”í‰ë™ 471-1,126.45921813367563,33.244941024668485
138,https://www.instagram.com/p/CH9wxvTj92b/,2020-11-24T07:25:07.000Z,jeju_sasimi,"#ì œì£¼ì•žë°”ë‹¤íšŸì§‘
í‘¸ì§í•œ íšŒí¬ìž¥ì„ ì›í•˜ì‹ ë‹¤ë©´?!
ì‹ ì„ ë„ëŠ” ë¬¼ë¡ ì´ê³  ì œì£¼ì•žë°”ë‹¤íšŸì§‘ë§Œì˜ í‘¸ì§í•¨ì„!!
ì˜¤ì…”ì„œ ì‹ì‚¬ë¥¼ í•˜ì‹œê²Œëœë‹¤ë©´ ë”ìš± ì¢‹ì€ í€„ë¦¬í‹°ë¡œ~!
ì˜ˆì•½ ë¬¸ì˜ë„ ë°›ê³ ìžˆìœ¼ë‹ˆ ì—°ë½ì£¼ì‹œë©´ ì¹œì ˆížˆ ë‹µë³€í•´ë“œë¦¬ê² ìŠµë‹ˆë‹¤.

ì˜ì—…ì‹œê°„ (10 :30 ~ 23 : 00)

ì œì£¼ë„íšŸì§‘ì¤‘ ë…¸ì„ì´ ìµœê³  ì¢‹ì€ íšŸì§‘!

ì œì£¼ë„ì— ì˜¨ë‹¤ë©´ ë“¤ë ¤ë´ë„ í›„íšŒì—†ëŠ” ê³³!

ê°€ì„±ë¹„ ëë‚´ì£¼ëŠ” íšŸì§‘~!

ìŠ¤ë¼ë‹¤ì‹œê°€ í•œìƒì— ~~~

#ì œì£¼ë„ #ì œì£¼ #ìš©ë‘ì•” #ì œì£¼ë„ë§›ì§‘ #ì œì£¼ë§›ì§‘ #ìš©ë‘ì•”ë§›ì§‘ #íƒ‘ë™ë§›ì§‘ #ì œì£¼íƒ‘ë™ë§›ì§‘ #ì œì£¼ë„ë§›ì§‘ì¶”ì²œ #ì œì£¼ë§›ì§‘ì¶”ì²œ #ì œì£¼ë„íšŸì§‘ #ì œì£¼ë„íšŸì§‘ì¶”ì²œ #ì œì£¼íšŸì§‘ #ì œì£¼íšŸì§‘ì¶”ì²œ #ì œì£¼ê³µí•­ê·¼ì²˜ë§›ì§‘ #ì œì£¼ê³µí•­ê·¼ì²˜íšŸì§‘
#ì œì£¼ë„ëŒ€ë°©ì–´ #ì œì£¼ë„ë¼ë§ˆë‹¤í˜¸í…”ë§›ì§‘ #ì œì£¼ë„ë·°ë§›ì§‘ #ì œì£¼ë·°ë§›ì§‘ #ìš©ë‹´ë§›ì§‘ #ìš©ë‹´í•´ì•ˆë„ë¡œë§›ì§‘ #ìš©ë‹´í•´ì•ˆë„ë¡œ #ì œì£¼ìš©ë‘ì•”í•´ì•ˆë„ë¡œë§›ì§‘ #ì œì£¼ìš©ë‹´í•´ì•ˆë„ë¡œë§›ì§‘ #ì œì£¼ë„íšŒí¬ìž¥ #ì œì£¼íšŒí¬ìž¥ #ì œì£¼ë„ë°©ì–´ë§›ì§‘ #ì œì£¼ë°©ì–´ë§›ì§‘","['ì œì£¼ì•žë°”ë‹¤íšŸì§‘', 'ì œì£¼ë„', 'ì œì£¼', 'ìš©ë‘ì•”', 'ì œì£¼ë„ë§›ì§‘', 'ì œì£¼ë§›ì§‘', 'ìš©ë‘ì•”ë§›ì§‘', 'íƒ‘ë™ë§›ì§‘', 'ì œì£¼íƒ‘ë™ë§›ì§‘', 'ì œì£¼ë„ë§›ì§‘ì¶”ì²œ', 'ì œì£¼ë§›ì§‘ì¶”ì²œ', 'ì œì£¼ë„íšŸì§‘', 'ì œì£¼ë„íšŸì§‘ì¶”ì²œ', 'ì œì£¼íšŸì§‘', 'ì œì£¼íšŸì§‘ì¶”ì²œ', 'ì œì£¼ê³µí•­ê·¼ì²˜ë§›ì§‘', 'ì œì£¼ê³µí•­ê·¼ì²˜íšŸì§‘', 'ì œì£¼ë„ëŒ€ë°©ì–´', 'ì œì£¼ë„ë¼ë§ˆë‹¤í˜¸í…”ë§›ì§‘', 'ì œì£¼ë„ë·°ë§›ì§‘', 'ì œì£¼ë·°ë§›ì§‘', 'ìš©ë‹´ë§›ì§‘', 'ìš©ë‹´í•´ì•ˆë„ë¡œë§›ì§‘', 'ìš©ë‹´í•´ì•ˆë„ë¡œ', 'ì œì£¼ìš©ë‘ì•”í•´ì•ˆë„ë¡œë§›ì§‘', 'ì œì£¼ìš©ë‹´í•´ì•ˆë„ë¡œë§›ì§‘', 'ì œì£¼ë„íšŒí¬ìž¥', 'ì œì£¼íšŒí¬ìž¥', 'ì œì£¼ë„ë°©ì–´ë§›ì§‘', 'ì œì£¼ë°©ì–´ë§›ì§‘']",ì œì£¼ì•žë°”ë‹¤í•´ë¬¼íƒ•,ì œì£¼íŠ¹ë³„ìžì¹˜ë„ ì œì£¼ì‹œ ìš©ë‹´1ë™ 431,126.515405578685,33.516910345877
147,https://www.instagram.com/p/CH90HjoJZWR/,2020-11-24T07:54:19.000Z,hjsss1020,"#í˜‘ìž¬#ì œì£¼ë„#ë°”ë‹¤
#ì œì£¼#í˜‘ìž¬ê²ŒìŠ¤íŠ¸í•˜ìš°ìŠ¤#ê°ì„±í¬ì°¨
#í˜‘ìž¬1ë²ˆê°€#ì œì£¼ë„ìˆ ì§‘#í˜‘ìž¬ë§›ì§‘
#ì œì£¼ìˆ ì§‘#ì œì£¼ì—¬í–‰#ì œì£¼ë„ì—¬í–‰
#jeju#ì¹´íŽ˜#ì œì£¼ì¹´íŽ˜#ì œì£¼ë§›ì§‘
#ì œì£¼ë„ë©‹ì§‘#ì œì£¼#ë·°#ì¤‘ë¬¸
#ì„œê·€í¬#ì„±ì‚°#ì œì£¼ì„œìª½
#í˜‘ìž¬ìˆ ì§‘#í˜‘ìž¬ìˆ ì§‘ì¶”ì²œ
#í˜‘ìž¬ìˆ ì§‘â¤ #í˜‘ìž¬ìž…ë‹ˆë‹¤","['í˜‘ìž¬', 'ì œì£¼ë„', 'ë°”ë‹¤', 'ì œì£¼', 'í˜‘ìž¬ê²ŒìŠ¤íŠ¸í•˜ìš°ìŠ¤', 'ê°ì„±í¬ì°¨', 'í˜‘ìž¬1ë²ˆê°€', 'ì œì£¼ë„ìˆ ì§‘', 'í˜‘ìž¬ë§›ì§‘', 'ì œì£¼ìˆ ì§‘', 'ì œì£¼ì—¬í–‰', 'ì œì£¼ë„ì—¬í–‰', 'jeju', 'ì¹´íŽ˜', 'ì œì£¼ì¹´íŽ˜', 'ì œì£¼ë§›ì§‘', 'ì œì£¼ë„ë©‹ì§‘', 'ì œì£¼', 'ë·°', 'ì¤‘ë¬¸', 'ì„œê·€í¬', 'ì„±ì‚°', 'ì œì£¼ì„œìª½', 'í˜‘ìž¬ìˆ ì§‘', 'í˜‘ìž¬ìˆ ì§‘ì¶”ì²œ', 'í˜‘ìž¬ìˆ ì§‘', 'í˜‘ìž¬ìž…ë‹ˆë‹¤']",í˜‘ìž¬1ë²ˆê°€ìˆ ì§‘ë°¥ì§‘,ì œì£¼íŠ¹ë³„ìžì¹˜ë„ ì œì£¼ì‹œ í•œë¦¼ì í˜‘ìž¬ë¦¬ 1728,126.24216053732899,33.395604683838634
148,https://www.instagram.com/p/CH90D8MpZ7H/,2020-11-24T07:53:49.000Z,hjsss1020,"#í˜‘ìž¬#ì œì£¼ë„#ë°”ë‹¤
#ì œì£¼#í˜‘ìž¬ê²ŒìŠ¤íŠ¸í•˜ìš°ìŠ¤#ê°ì„±í¬ì°¨
#í˜‘ìž¬1ë²ˆê°€#ì œì£¼ë„ìˆ ì§‘#í˜‘ìž¬ë§›ì§‘
#ì œì£¼ìˆ ì§‘#ì œì£¼ì—¬í–‰#ì œì£¼ë„ì—¬í–‰
#jeju#ì¹´íŽ˜#ì œì£¼ì¹´íŽ˜#ì œì£¼ë§›ì§‘
#ì œì£¼ë„ë©‹ì§‘#ì œì£¼#ë·°#ì¤‘ë¬¸
#ì„œê·€í¬#ì„±ì‚°#ì œì£¼ì„œìª½
#í˜‘ìž¬ìˆ ì§‘#í˜‘ìž¬ìˆ ì§‘ì¶”ì²œ
#í˜‘ìž¬ìˆ ì§‘â¤ #í˜‘ìž¬ìž…ë‹ˆë‹¤","['í˜‘ìž¬', 'ì œì£¼ë„', 'ë°”ë‹¤', 'ì œì£¼', 'í˜‘ìž¬ê²ŒìŠ¤íŠ¸í•˜ìš°ìŠ¤', 'ê°ì„±í¬ì°¨', 'í˜‘ìž¬1ë²ˆê°€', 'ì œì£¼ë„ìˆ ì§‘', 'í˜‘ìž¬ë§›ì§‘', 'ì œì£¼ìˆ ì§‘', 'ì œì£¼ì—¬í–‰', 'ì œì£¼ë„ì—¬í–‰', 'jeju', 'ì¹´íŽ˜', 'ì œì£¼ì¹´íŽ˜', 'ì œì£¼ë§›ì§‘', 'ì œì£¼ë„ë©‹ì§‘', 'ì œì£¼', 'ë·°', 'ì¤‘ë¬¸', 'ì„œê·€í¬', 'ì„±ì‚°', 'ì œì£¼ì„œìª½', 'í˜‘ìž¬ìˆ ì§‘', 'í˜‘ìž¬ìˆ ì§‘ì¶”ì²œ', 'í˜‘ìž¬ìˆ ì§‘', 'í˜‘ìž¬ìž…ë‹ˆë‹¤']",í˜‘ìž¬1ë²ˆê°€ìˆ ì§‘ë°¥ì§‘,ì œì£¼íŠ¹ë³„ìžì¹˜ë„ ì œì£¼ì‹œ í•œë¦¼ì í˜‘ìž¬ë¦¬ 1728,126.24216053732899,33.395604683838634
151,https://www.instagram.com/p/CH90AsZJbjs/,2020-11-24T07:53:23.000Z,hjsss1020,"#í˜‘ìž¬#ì œì£¼ë„#ë°”ë‹¤
#ì œì£¼#í˜‘ìž¬ê²ŒìŠ¤íŠ¸í•˜ìš°ìŠ¤#ê°ì„±í¬ì°¨
#í˜‘ìž¬1ë²ˆê°€#ì œì£¼ë„ìˆ ì§‘#í˜‘ìž¬ë§›ì§‘
#ì œì£¼ìˆ ì§‘#ì œì£¼ì—¬í–‰#ì œì£¼ë„ì—¬í–‰
#jeju#ì¹´íŽ˜#ì œì£¼ì¹´íŽ˜#ì œì£¼ë§›ì§‘
#ì œì£¼ë„ë©‹ì§‘#ì œì£¼#ë·°#ì¤‘ë¬¸
#ì„œê·€í¬#ì„±ì‚°#ì œì£¼ì„œìª½
#í˜‘ìž¬ìˆ ì§‘#í˜‘ìž¬ìˆ ì§‘ì¶”ì²œ
#í˜‘ìž¬ìˆ ì§‘â¤ #í˜‘ìž¬ìž…ë‹ˆë‹¤","['í˜‘ìž¬', 'ì œì£¼ë„', 'ë°”ë‹¤', 'ì œì£¼', 'í˜‘ìž¬ê²ŒìŠ¤íŠ¸í•˜ìš°ìŠ¤', 'ê°ì„±í¬ì°¨', 'í˜‘ìž¬1ë²ˆê°€', 'ì œì£¼ë„ìˆ ì§‘', 'í˜‘ìž¬ë§›ì§‘', 'ì œì£¼ìˆ ì§‘', 'ì œì£¼ì—¬í–‰', 'ì œì£¼ë„ì—¬í–‰', 'jeju', 'ì¹´íŽ˜', 'ì œì£¼ì¹´íŽ˜', 'ì œì£¼ë§›ì§‘', 'ì œì£¼ë„ë©‹ì§‘', 'ì œì£¼', 'ë·°', 'ì¤‘ë¬¸', 'ì„œê·€í¬', 'ì„±ì‚°', 'ì œì£¼ì„œìª½', 'í˜‘ìž¬ìˆ ì§‘', 'í˜‘ìž¬ìˆ ì§‘ì¶”ì²œ', 'í˜‘ìž¬ìˆ ì§‘', 'í˜‘ìž¬ìž…ë‹ˆë‹¤']",í˜‘ìž¬1ë²ˆê°€ìˆ ì§‘ë°¥ì§‘,ì œì£¼íŠ¹ë³„ìžì¹˜ë„ ì œì£¼ì‹œ í•œë¦¼ì í˜‘ìž¬ë¦¬ 1728,126.24216053732899,33.395604683838634
153,https://www.instagram.com/p/CH9z89YJjsL/,2020-11-24T07:52:52.000Z,hjsss1020,"#í˜‘ìž¬#ì œì£¼ë„#ë°”ë‹¤
#ì œì£¼#í˜‘ìž¬ê²ŒìŠ¤íŠ¸í•˜ìš°ìŠ¤#ê°ì„±í¬ì°¨
#í˜‘ìž¬1ë²ˆê°€#ì œì£¼ë„ìˆ ì§‘#í˜‘ìž¬ë§›ì§‘
#ì œì£¼ìˆ ì§‘#ì œì£¼ì—¬í–‰#ì œì£¼ë„ì—¬í–‰
#jeju#ì¹´íŽ˜#ì œì£¼ì¹´íŽ˜#ì œì£¼ë§›ì§‘
#ì œì£¼ë„ë©‹ì§‘#ì œì£¼#ë·°#ì¤‘ë¬¸
#ì„œê·€í¬#ì„±ì‚°#ì œì£¼ì„œìª½
#í˜‘ìž¬ìˆ ì§‘#í˜‘ìž¬ìˆ ì§‘ì¶”ì²œ
#í˜‘ìž¬ìˆ ì§‘â¤ #í˜‘ìž¬ìž…ë‹ˆë‹¤","['í˜‘ìž¬', 'ì œì£¼ë„', 'ë°”ë‹¤', 'ì œì£¼', 'í˜‘ìž¬ê²ŒìŠ¤íŠ¸í•˜ìš°ìŠ¤', 'ê°ì„±í¬ì°¨', 'í˜‘ìž¬1ë²ˆê°€', 'ì œì£¼ë„ìˆ ì§‘', 'í˜‘ìž¬ë§›ì§‘', 'ì œì£¼ìˆ ì§‘', 'ì œì£¼ì—¬í–‰', 'ì œì£¼ë„ì—¬í–‰', 'jeju', 'ì¹´íŽ˜', 'ì œì£¼ì¹´íŽ˜', 'ì œì£¼ë§›ì§‘', 'ì œì£¼ë„ë©‹ì§‘', 'ì œì£¼', 'ë·°', 'ì¤‘ë¬¸', 'ì„œê·€í¬', 'ì„±ì‚°', 'ì œì£¼ì„œìª½', 'í˜‘ìž¬ìˆ ì§‘', 'í˜‘ìž¬ìˆ ì§‘ì¶”ì²œ', 'í˜‘ìž¬ìˆ ì§‘', 'í˜‘ìž¬ìž…ë‹ˆë‹¤']",í˜‘ìž¬1ë²ˆê°€ìˆ ì§‘ë°¥ì§‘,ì œì£¼íŠ¹ë³„ìžì¹˜ë„ ì œì£¼ì‹œ í•œë¦¼ì í˜‘ìž¬ë¦¬ 1728,126.24216053732899,33.395604683838634
155,https://www.instagram.com/p/CH9z6ZUpUTe/,2020-11-24T07:52:31.000Z,hjsss1020,"#í˜‘ìž¬#ì œì£¼ë„#ë°”ë‹¤
#ì œì£¼#í˜‘ìž¬ê²ŒìŠ¤íŠ¸í•˜ìš°ìŠ¤#ê°ì„±í¬ì°¨
#í˜‘ìž¬1ë²ˆê°€#ì œì£¼ë„ìˆ ì§‘#í˜‘ìž¬ë§›ì§‘
#ì œì£¼ìˆ ì§‘#ì œì£¼ì—¬í–‰#ì œì£¼ë„ì—¬í–‰
#jeju#ì¹´íŽ˜#ì œì£¼ì¹´íŽ˜#ì œì£¼ë§›ì§‘
#ì œì£¼ë„ë©‹ì§‘#ì œì£¼#ë·°#ì¤‘ë¬¸
#ì„œê·€í¬#ì„±ì‚°#ì œì£¼ì„œìª½
#í˜‘ìž¬ìˆ ì§‘#í˜‘ìž¬ìˆ ì§‘ì¶”ì²œ
#í˜‘ìž¬ìˆ ì§‘â¤ #í˜‘ìž¬ìž…ë‹ˆë‹¤","['í˜‘ìž¬', 'ì œì£¼ë„', 'ë°”ë‹¤', 'ì œì£¼', 'í˜‘ìž¬ê²ŒìŠ¤íŠ¸í•˜ìš°ìŠ¤', 'ê°ì„±í¬ì°¨', 'í˜‘ìž¬1ë²ˆê°€', 'ì œì£¼ë„ìˆ ì§‘', 'í˜‘ìž¬ë§›ì§‘', 'ì œì£¼ìˆ ì§‘', 'ì œì£¼ì—¬í–‰', 'ì œì£¼ë„ì—¬í–‰', 'jeju', 'ì¹´íŽ˜', 'ì œì£¼ì¹´íŽ˜', 'ì œì£¼ë§›ì§‘', 'ì œì£¼ë„ë©‹ì§‘', 'ì œì£¼', 'ë·°', 'ì¤‘ë¬¸', 'ì„œê·€í¬', 'ì„±ì‚°', 'ì œì£¼ì„œìª½', 'í˜‘ìž¬ìˆ ì§‘', 'í˜‘ìž¬ìˆ ì§‘ì¶”ì²œ', 'í˜‘ìž¬ìˆ ì§‘', 'í˜‘ìž¬ìž…ë‹ˆë‹¤']",í˜‘ìž¬1ë²ˆê°€ìˆ ì§‘ë°¥ì§‘,ì œì£¼íŠ¹ë³„ìžì¹˜ë„ ì œì£¼ì‹œ í•œë¦¼ì í˜‘ìž¬ë¦¬ 1728,126.24216053732899,33.395604683838634
156,https://www.instagram.com/p/CH9z3ZsJQIE/,2020-11-24T07:52:07.000Z,hjsss1020,"#í˜‘ìž¬#ì œì£¼ë„#ë°”ë‹¤
#ì œì£¼#í˜‘ìž¬ê²ŒìŠ¤íŠ¸í•˜ìš°ìŠ¤#ê°ì„±í¬ì°¨
#í˜‘ìž¬1ë²ˆê°€#ì œì£¼ë„ìˆ ì§‘#í˜‘ìž¬ë§›ì§‘
#ì œì£¼ìˆ ì§‘#ì œì£¼ì—¬í–‰#ì œì£¼ë„ì—¬í–‰
#jeju#ì¹´íŽ˜#ì œì£¼ì¹´íŽ˜#ì œì£¼ë§›ì§‘
#ì œì£¼ë„ë©‹ì§‘#ì œì£¼#ë·°#ì¤‘ë¬¸
#ì„œê·€í¬#ì„±ì‚°#ì œì£¼ì„œìª½
#í˜‘ìž¬ìˆ ì§‘#í˜‘ìž¬ìˆ ì§‘ì¶”ì²œ
#í˜‘ìž¬ìˆ ì§‘â¤ #í˜‘ìž¬ìž…ë‹ˆë‹¤","['í˜‘ìž¬', 'ì œì£¼ë„', 'ë°”ë‹¤', 'ì œì£¼', 'í˜‘ìž¬ê²ŒìŠ¤íŠ¸í•˜ìš°ìŠ¤', 'ê°ì„±í¬ì°¨', 'í˜‘ìž¬1ë²ˆê°€', 'ì œì£¼ë„ìˆ ì§‘', 'í˜‘ìž¬ë§›ì§‘', 'ì œì£¼ìˆ ì§‘', 'ì œì£¼ì—¬í–‰', 'ì œì£¼ë„ì—¬í–‰', 'jeju', 'ì¹´íŽ˜', 'ì œì£¼ì¹´íŽ˜', 'ì œì£¼ë§›ì§‘', 'ì œì£¼ë„ë©‹ì§‘', 'ì œì£¼', 'ë·°', 'ì¤‘ë¬¸', 'ì„œê·€í¬', 'ì„±ì‚°', 'ì œì£¼ì„œìª½', 'í˜‘ìž¬ìˆ ì§‘', 'í˜‘ìž¬ìˆ ì§‘ì¶”ì²œ', 'í˜‘ìž¬ìˆ ì§‘', 'í˜‘ìž¬ìž…ë‹ˆë‹¤']",í˜‘ìž¬1ë²ˆê°€ìˆ ì§‘ë°¥ì§‘,ì œì£¼íŠ¹ë³„ìžì¹˜ë„ ì œì£¼ì‹œ í•œë¦¼ì í˜‘ìž¬ë¦¬ 1728,126.24216053732899,33.395604683838634
157,https://www.instagram.com/p/CH9zzi5ptnG/,2020-11-24T07:51:35.000Z,hjsss1020,"#í˜‘ìž¬#ì œì£¼ë„#ë°”ë‹¤
#ì œì£¼#í˜‘ìž¬ê²ŒìŠ¤íŠ¸í•˜ìš°ìŠ¤#ê°ì„±í¬ì°¨
#í˜‘ìž¬1ë²ˆê°€#ì œì£¼ë„ìˆ ì§‘#í˜‘ìž¬ë§›ì§‘
#ì œì£¼ìˆ ì§‘#ì œì£¼ì—¬í–‰#ì œì£¼ë„ì—¬í–‰
#jeju#ì¹´íŽ˜#ì œì£¼ì¹´íŽ˜#ì œì£¼ë§›ì§‘
#ì œì£¼ë„ë©‹ì§‘#ì œì£¼#ë·°#ì¤‘ë¬¸
#ì„œê·€í¬#ì„±ì‚°#ì œì£¼ì„œìª½
#í˜‘ìž¬ìˆ ì§‘#í˜‘ìž¬ìˆ ì§‘ì¶”ì²œ
#í˜‘ìž¬ìˆ ì§‘â¤ #í˜‘ìž¬ìž…ë‹ˆë‹¤","['í˜‘ìž¬', 'ì œì£¼ë„', 'ë°”ë‹¤', 'ì œì£¼', 'í˜‘ìž¬ê²ŒìŠ¤íŠ¸í•˜ìš°ìŠ¤', 'ê°ì„±í¬ì°¨', 'í˜‘ìž¬1ë²ˆê°€', 'ì œì£¼ë„ìˆ ì§‘', 'í˜‘ìž¬ë§›ì§‘', 'ì œì£¼ìˆ ì§‘', 'ì œì£¼ì—¬í–‰', 'ì œì£¼ë„ì—¬í–‰', 'jeju', 'ì¹´íŽ˜', 'ì œì£¼ì¹´íŽ˜', 'ì œì£¼ë§›ì§‘', 'ì œì£¼ë„ë©‹ì§‘', 'ì œì£¼', 'ë·°', 'ì¤‘ë¬¸', 'ì„œê·€í¬', 'ì„±ì‚°', 'ì œì£¼ì„œìª½', 'í˜‘ìž¬ìˆ ì§‘', 'í˜‘ìž¬ìˆ ì§‘ì¶”ì²œ', 'í˜‘ìž¬ìˆ ì§‘', 'í˜‘ìž¬ìž…ë‹ˆë‹¤']",í˜‘ìž¬1ë²ˆê°€ìˆ ì§‘ë°¥ì§‘,ì œì£¼íŠ¹ë³„ìžì¹˜ë„ ì œì£¼ì‹œ í•œë¦¼ì í˜‘ìž¬ë¦¬ 1728,126.24216053732899,33.395604683838634
167,https://www.instagram.com/p/CH9zP3GH9q2/,2020-11-24T07:46:43.000Z,guine_house,"ë³¸ì ì€ ì•„ë‹ˆì§€ë§Œ ë„˜ ì¡´ë§›íƒ±.. ëƒ‰ìš°ë™ ì‚¬ëž‘í•´ìš”
.
.
.
#ì œì£¼_ì•ˆê¸°ë‹ˆ #ì œì£¼ #ì œì£¼ì—¬í–‰ #ì œì£¼ë§›ì§‘ #ì œì£¼í•«í”Œ #ìˆ˜ìš°ë™ #ìˆ˜ìš°ë™ì‡ ì†Œê¹ì  #ì œì£¼ë§›ì§‘ì¶”ì²œ #ì œì£¼ë§›ì§‘íˆ¬ì–´ #ë¨¹ìŠ¤íƒ€ê·¸ëž¨ #ë§›ìŠ¤íƒ€ê·¸ëž¨ #ë¨¹ìŠ¤íƒ€ë§žíŒ” #ì œì£¼ë¨¹ë°© #ì œì£¼ë¨¹ìŠ¤íƒ€ê·¸ëž¨ #ì œì£¼ë¨¹ë¶€ë¦¼ #ì œì£¼ë§›ì§‘ì§€ë„ #ì‡ ì†Œê¹ë§›ì§‘ #ì‡ ì†Œê¹ì¹´íŽ˜ #ì‡ ì†Œê¹ê·¼ì²˜ë§›ì§‘ #ì„œê·€í¬ë§›ì§‘ #ì„œê·€í¬ë§›ì§‘ì¶”ì²œ #ì„œê·€í¬ë§›ì§‘ë² ìŠ¤íŠ¸ #í˜‘ìž¬ìˆ˜ìš°ë™ #ìš©ë¨¸ë¦¬í•´ì•ˆë§›ì§‘ #ì„ íŒ” #ë§žíŒ” #ì¢‹ë°˜ #ì†Œí†µ #ì¸ì¹œ #íŒ”ë¡œë¯¸","['ì œì£¼_ì•ˆê¸°ë‹ˆ', 'ì œì£¼', 'ì œì£¼ì—¬í–‰', 'ì œì£¼ë§›ì§‘', 'ì œì£¼í•«í”Œ', 'ìˆ˜ìš°ë™', 'ìˆ˜ìš°ë™ì‡ ì†Œê¹ì ', 'ì œì£¼ë§›ì§‘ì¶”ì²œ', 'ì œì£¼ë§›ì§‘íˆ¬ì–´', 'ë¨¹ìŠ¤íƒ€ê·¸ëž¨', 'ë§›ìŠ¤íƒ€ê·¸ëž¨', 'ë¨¹ìŠ¤íƒ€ë§žíŒ”', 'ì œì£¼ë¨¹ë°©', 'ì œì£¼ë¨¹ìŠ¤íƒ€ê·¸ëž¨', 'ì œì£¼ë¨¹ë¶€ë¦¼', 'ì œì£¼ë§›ì§‘ì§€ë„', 'ì‡ ì†Œê¹ë§›ì§‘', 'ì‡ ì†Œê¹ì¹´íŽ˜', 'ì‡ ì†Œê¹ê·¼ì²˜ë§›ì§‘', 'ì„œê·€í¬ë§›ì§‘', 'ì„œê·€í¬ë§›ì§‘ì¶”ì²œ', 'ì„œê·€í¬ë§›ì§‘ë² ìŠ¤íŠ¸', 'í˜‘ìž¬ìˆ˜ìš°ë™', 'ìš©ë¨¸ë¦¬í•´ì•ˆë§›ì§‘', 'ì„ íŒ”', 'ë§žíŒ”', 'ì¢‹ë°˜', 'ì†Œí†µ', 'ì¸ì¹œ', 'íŒ”ë¡œë¯¸']",ì‡ ì†Œê¹ ìˆ˜ìš°ë™,ì œì£¼íŠ¹ë³„ìžì¹˜ë„ ì„œê·€í¬ì‹œ í•˜íš¨ë™ 1298,126.61867504286916,33.25076159560252
172,https://www.instagram.com/p/CH92-nXHmVH/,2020-11-24T08:19:19.000Z,__s00vin,"ì œì£¼ë„ì— ê°€ë©´ ê¼­ ê°€ê³ ì‹¶ì—ˆë˜ ì¹´íŽ˜.
ê³µ ë°± ðŸ“¡
â €
â €
â €
â €
â €
â €
â €
â €
â €
â €
#ì œì£¼#ì œì£¼ë„#ì œì£¼ì—¬í–‰#ì œì£¼í•«í”Œ#ì œì£¼ì¹´íŽ˜#ì‚¬ì§„ë§›ì§‘#ì¹´íŽ˜#ì¹´íŽ˜ê³µë°±#ê³µë°±#ì¢‹ì•„ìš”#goodday#potd#ootd#fitgirl#instafit#ë°ì¼ë¦¬#ë°ì¼ë¦¬ë£©#ì…€ì¹´#ì…€í”¼#ì…€ìŠ¤íƒ€ê·¸ëž¨#f4f#ì–¼ìŠ¤íƒ€ê·¸ëž¨#ëª¸ìŠ¤íƒ€ê·¸ëž¨#ootd#ìš´ë™#ìš´ë™í•˜ëŠ”ì—¬ìž#íœ´ê°€#ì—¬í–‰
â €","['ì œì£¼', 'ì œì£¼ë„', 'ì œì£¼ì—¬í–‰', 'ì œì£¼í•«í”Œ', 'ì œì£¼ì¹´íŽ˜', 'ì‚¬ì§„ë§›ì§‘', 'ì¹´íŽ˜', 'ì¹´íŽ˜ê³µë°±', 'ê³µë°±', 'ì¢‹ì•„ìš”', 'goodday', 'potd', 'ootd', 'fitgirl', 'instafit', 'ë°ì¼ë¦¬', 'ë°ì¼ë¦¬ë£©', 'ì…€ì¹´', 'ì…€í”¼', 'ì…€ìŠ¤íƒ€ê·¸ëž¨', 'f4f', 'ì–¼ìŠ¤íƒ€ê·¸ëž¨', 'ëª¸ìŠ¤íƒ€ê·¸ëž¨', 'ootd', 'ìš´ë™', 'ìš´ë™í•˜ëŠ”ì—¬ìž', 'íœ´ê°€', 'ì—¬í–‰']",Gongbech.ê³µë°±,ì œì£¼íŠ¹ë³„ìžì¹˜ë„ ì œì£¼ì‹œ êµ¬ì¢Œì ë™ë³µë¦¬ 1568-1,126.715093661443,33.5533924123546
182,https://www.instagram.com/p/CH92SrWFQj5/,2020-11-24T08:13:22.000Z,dongueeua,"ì•Œë°•ê¸°
ë©œì “ì— ì½•~~
ì˜¤ëŠ˜ë„ ì½”ë¡œë‚˜19 ì¡°ì‹¬ í•˜ì‹œê³ 
ë”°ìŠ¨ ì €ë… í•˜ì…¨ìŒ í•©ë‹ˆë‹¤
ì œì£¼ì—ì„œ ë“œì‹œëŠ” í‘ë¼ì§€
ì œì£¼ í™”ì‚°ì„ ëŒíŒêµ¬ì´
ì›í”½!!

#ì œì£¼#í‘ë¼ì§€ëŒíŒêµ¬ì´
#ë¹„ìžë¦¼ê·¼ì²˜ë§›ì§‘ #ì œì£¼í‘ë¼ì§€ë§›ì§‘ #í‘ë¼ì§€#êµ¬ì¢Œìí‘ë¼ì§€ë§›ì§‘ #êµ¬ì¢Œí‘ë¼ì§€ #ì„¸í™”í•´ë³€#ì„¸í™”ë§›ì§‘#ìƒê³ ê¸°#ì œì£¼ë™ë¶€ë§›ì§‘","['ì œì£¼', 'í‘ë¼ì§€ëŒíŒêµ¬ì´', 'ë¹„ìžë¦¼ê·¼ì²˜ë§›ì§‘', 'ì œì£¼í‘ë¼ì§€ë§›ì§‘', 'í‘ë¼ì§€', 'êµ¬ì¢Œìí‘ë¼ì§€ë§›ì§‘', 'êµ¬ì¢Œí‘ë¼ì§€', 'ì„¸í™”í•´ë³€', 'ì„¸í™”ë§›ì§‘', 'ìƒê³ ê¸°', 'ì œì£¼ë™ë¶€ë§›ì§‘']",ëˆêµ¬ì–´,ì œì£¼íŠ¹ë³„ìžì¹˜ë„ ì œì£¼ì‹œ êµ¬ì¢Œì ì„¸í™”ë¦¬ 3648-1,126.85416370919921,33.52492385854104
184,https://www.instagram.com/p/CH92KiNjper/,2020-11-24T08:12:12.000Z,hyeobjaejin,"í˜‘ìž¬1ë²ˆê°€ ë·°
ë‚ ì”¨ê°€ ì¢‹ì•„ì„œ ì˜¤ëŠ˜ì€ ì•„ë¦„ë‹¤ìš´ ë‚™ì¡°ë¥¼
ê°ìƒí•  ì‹œê°„

#í˜‘ìž¬#ì œì£¼ë„#ë°”ë‹¤
#ì œì£¼#í˜‘ìž¬ê²ŒìŠ¤íŠ¸í•˜ìš°ìŠ¤#ê°ì„±í¬ì°¨
#í˜‘ìž¬1ë²ˆê°€#ì œì£¼ë„ìˆ ì§‘#í˜‘ìž¬ë§›ì§‘
#ì œì£¼ìˆ ì§‘#ì œì£¼ì—¬í–‰#ì œì£¼ë„ì—¬í–‰
#jeju#ì¹´íŽ˜#ì œì£¼ì¹´íŽ˜#ì œì£¼ë§›ì§‘
#ì œì£¼ë„ë©‹ì§‘#ì œì£¼#ë·°#ì¤‘ë¬¸
#ì„œê·€í¬#ì„±ì‚°#ì œì£¼ì„œìª½
#í˜‘ìž¬ìˆ ì§‘#í˜‘ìž¬ìˆ ì§‘ì¶”ì²œ
#í˜‘ìž¬ìˆ ì§‘â¤ #í˜‘ìž¬ìž…ë‹ˆë‹¤","['í˜‘ìž¬', 'ì œì£¼ë„', 'ë°”ë‹¤', 'ì œì£¼', 'í˜‘ìž¬ê²ŒìŠ¤íŠ¸í•˜ìš°ìŠ¤', 'ê°ì„±í¬ì°¨', 'í˜‘ìž¬1ë²ˆê°€', 'ì œì£¼ë„ìˆ ì§‘', 'í˜‘ìž¬ë§›ì§‘', 'ì œì£¼ìˆ ì§‘', 'ì œì£¼ì—¬í–‰', 'ì œì£¼ë„ì—¬í–‰', 'jeju', 'ì¹´íŽ˜', 'ì œì£¼ì¹´íŽ˜', 'ì œì£¼ë§›ì§‘', 'ì œì£¼ë„ë©‹ì§‘', 'ì œì£¼', 'ë·°', 'ì¤‘ë¬¸', 'ì„œê·€í¬', 'ì„±ì‚°', 'ì œì£¼ì„œìª½', 'í˜‘ìž¬ìˆ ì§‘', 'í˜‘ìž¬ìˆ ì§‘ì¶”ì²œ', 'í˜‘ìž¬ìˆ ì§‘', 'í˜‘ìž¬ìž…ë‹ˆë‹¤']",í˜‘ìž¬1ë²ˆê°€ìˆ ì§‘ë°¥ì§‘,ì œì£¼íŠ¹ë³„ìžì¹˜ë„ ì œì£¼ì‹œ í•œë¦¼ì í˜‘ìž¬ë¦¬ 1728,126.24216053732899,33.395604683838634
187,https://www.instagram.com/p/CH91uQMgKAl/,2020-11-24T08:11:33.000Z,matjjaengeee,"#íŽ˜ì–´ë¦¬ì œì£¼ #ì„¸í™”ì¹´íŽ˜

ì˜¤ëžœë§Œì— ì˜¨ ì œì£¼ì—ì„œ í‰í™”ë¡­ê³  ì•„ë¦„ë‹¤ìš´ ì¹´íŽ˜ ë°œê²¬.

+êµ¬ì¢Œì ì„¸í™”ë¦¬ì— ìžˆëŠ” íŽ˜ì–´ë¦¬ì œì£¼ ìž…ë‹ˆë‹¤.
.
.
#ì œì£¼ë„#ì œì£¼#ì œì£¼ë„ê²ŒìŠ¤íŠ¸í•˜ìš°ìŠ¤#ì œì£¼ë„ì¹´íŽ˜#ì œì£¼ì¹´íŽ˜#êµ¬ì¢Œìì¹´íŽ˜#êµ¬ì¢Œì¹´íŽ˜#êµ¬ì¢Œìë§›ì§‘#êµ¬ì¢Œë§›ì§‘#êµ¬ì¢Œìë§›ì§‘#ì œì£¼ë™ìª½ì¹´íŽ˜#ì• ì›”ê²ŒìŠ¤íŠ¸í•˜ìš°ìŠ¤#ì œì£¼ì—¬í–‰#ì œì£¼ë„ì—¬í–‰","['íŽ˜ì–´ë¦¬ì œì£¼', 'ì„¸í™”ì¹´íŽ˜', 'ì œì£¼ë„', 'ì œì£¼', 'ì œì£¼ë„ê²ŒìŠ¤íŠ¸í•˜ìš°ìŠ¤', 'ì œì£¼ë„ì¹´íŽ˜', 'ì œì£¼ì¹´íŽ˜', 'êµ¬ì¢Œìì¹´íŽ˜', 'êµ¬ì¢Œì¹´íŽ˜', 'êµ¬ì¢Œìë§›ì§‘', 'êµ¬ì¢Œë§›ì§‘', 'êµ¬ì¢Œìë§›ì§‘', 'ì œì£¼ë™ìª½ì¹´íŽ˜', 'ì• ì›”ê²ŒìŠ¤íŠ¸í•˜ìš°ìŠ¤', 'ì œì£¼ì—¬í–‰', 'ì œì£¼ë„ì—¬í–‰']",ì œì£¼ êµ¬ì¢Œì ì„¸í™”ë¦¬,ì œì£¼íŠ¹ë³„ìžì¹˜ë„ ì œì£¼ì‹œ êµ¬ì¢Œì ì„¸í™”ë¦¬ 1-1,126.86025618946,33.5251436596119
188,https://www.instagram.com/p/CH9198wnStv/,2020-11-24T08:10:29.000Z,jeju_nol.mong,".
ì˜¤ëŠ˜ #ì²­í¬ì˜¤ë Œì§€ í•˜ìš°ìŠ¤ì—ì„œ ê·¤ í•˜ë‚˜ë¥¼ ë¬´ì‹¬ížˆ ì§‘ì–´ë“¤ê³ ëŠ” ê¹œì§ ë†€ëž€ ê²ƒì´ - ìœ¼ë ˆ ì œì£¼ê·¤ë‚˜ë¬´ì—ì„œ ë°”ë¡œ ë”° ë¨¹ëŠ” ê·¤ì€ ìƒìƒ ì´ìƒì˜ ì²­ëŸ‰ê°ì„ ê²½í—˜í•  ìˆ˜ ìžˆëŠ”ë° - ì´ê±´ ë§›ìžˆì–´ë„ ë„ˆë¬´ ë§›ìžˆëŠ” ê±°ë‹¤, ë§ˆì¹˜ í™˜íƒ€ë¥¼ ì”¹ì–´ ë¨¹ëŠ” ê²½í—˜ì´ëž„ê¹Œ!!
.
.
ê±´ì¶•ì„ ëë‚¸ ìš”ì‚¬ì´ ì €ëŠ” ì¼ì£¼ì¼ì— í•˜ë£¨, í™”ìš”ì¼ì—” #ë¬´ë¦‰ì™¸ê°“ì§‘ ì— ì¶œê·¼í•´ì„œ ì¼ì„ ë•ìŠµë‹ˆë‹¤.
ì£¼ë¡œ ë§ˆì¼€íŒ…ì´ë‚˜ ê¸°íš ì¼ì„ í•˜ê³  ìƒí’ˆ ì‚¬ì§„ì´¬ì˜ì„ í•˜ê¸°ë„ í•˜ê³ , ì´ ì¼ ì € ì¼ ë„ìš¸ ì¼ì´ ìžˆìœ¼ë©´ ì•„ë¬´ ì¼ì´ë‚˜ í•©ë‹ˆë‹¤.
ì˜¤ëŠ˜ì€ ì²­í¬ì˜¤ë Œì§€ ë§ˆì¼€íŒ… ê³„íšë„ ìˆ˜ë¦½í•˜ê³  ì´¬ì˜ë„ ì¢€ í•˜ê³  í•˜ëŠë¼ ì˜¤ëžœë§Œì— ì˜¤ë Œì§€ë†ìž¥ì— ê°”ì—ˆëŠ”ë° ì˜¬í•´ ì²­í¬ì˜¤ë Œì§€ëŠ” ì •ë§ ë„ˆë¬´ ë§›ìžˆë„¤ìš”..
.
í•˜ì—¬ê°„ ê·¸ë ‡ë‹¤êµ¬ìš”, ê·¸ë¦¬ê³  #ë¬´ë¦‰ì™¸ê°“ì§‘ (@jeju_murung_farm ) ë§ˆìŠ¤ì½”íŠ¸ ë°”ëžŒì´ëŠ” ì•„ì£¼ ì”©ì”©í•˜ê²Œ ìž˜ ìžë¼êµ¬ ìžˆì–´ìš”..ìž˜ ë¨¹ê³  ìž˜ ìžê³  ìž˜ ðŸ’©..
.
.
#ë¬´ë¦‡ê·¤ì´ë¼í•˜ë©´ì´ì •ë„ëŠ”ë˜ì•¼
.
.
.
#ë¬´ë¦‰ì™¸ê°“ì§‘ ( @jeju_murung_farm ) #ì²­í¬ì˜¤ë Œì§€ #ì œì£¼ê°ê·¤
.
#ì œì£¼ #ì œì£¼ë„
#ì œì£¼í‘ë¼ì§€ #ì œì£¼ë„í‘ë¼ì§€
#ì œì£¼í‘ë¼ì§€ë§›ì§‘ #ì œì£¼ë„í‘ë¼ì§€ë§›ì§‘ #ì œì£¼í‘ë¼ì§€ì¶”ì²œ #ì œì£¼ëŒê³ ëž˜ #ì œì£¼ë°”ë‹·ê°€ê³ ê¹ƒì§‘ #ì œì£¼ë°”ë‹¤ê³ ê¹ƒì§‘ #ëª¨ìŠ¬í¬í‘ë¼ì§€
#ì¼ê³¼ë¦¬í‘ë¼ì§€ #ëŒ€ì •í‘ë¼ì§€
#ì œì£¼ë„ì¼ìƒ #ì œì£¼ì‚´ì´
#ì„œë¦¼ì—°ëŒ€ #í•´ë…
#í‘ë¼ì§€ë§›ì§‘ #í‘ë¼ì§€ê³ ê¹ƒì§‘
#ì “ê°ˆ #ì “ê°ˆë§›ì§‘ #ì†ì´ˆì “ê°ˆ #ì†ì´ˆì “ê°ˆë§›ì§‘
#ì†ì´ˆì„±ì‹¤ì “ê°ˆ #ì„±ì‹¤ì “ê°ˆ","['ì²­í¬ì˜¤ë Œì§€', 'ë¬´ë¦‰ì™¸ê°“ì§‘', 'ë¬´ë¦‰ì™¸ê°“ì§‘', 'ë¬´ë¦‡ê·¤ì´ë¼í•˜ë©´ì´ì •ë„ëŠ”ë˜ì•¼', 'ë¬´ë¦‰ì™¸ê°“ì§‘', 'ì²­í¬ì˜¤ë Œì§€', 'ì œì£¼ê°ê·¤', 'ì œì£¼', 'ì œì£¼ë„', 'ì œì£¼í‘ë¼ì§€', 'ì œì£¼ë„í‘ë¼ì§€', 'ì œì£¼í‘ë¼ì§€ë§›ì§‘', 'ì œì£¼ë„í‘ë¼ì§€ë§›ì§‘', 'ì œì£¼í‘ë¼ì§€ì¶”ì²œ', 'ì œì£¼ëŒê³ ëž˜', 'ì œì£¼ë°”ë‹·ê°€ê³ ê¹ƒì§‘', 'ì œì£¼ë°”ë‹¤ê³ ê¹ƒì§‘', 'ëª¨ìŠ¬í¬í‘ë¼ì§€', 'ì¼ê³¼ë¦¬í‘ë¼ì§€', 'ëŒ€ì •í‘ë¼ì§€', 'ì œì£¼ë„ì¼ìƒ', 'ì œì£¼ì‚´ì´', 'ì„œë¦¼ì—°ëŒ€', 'í•´ë…', 'í‘ë¼ì§€ë§›ì§‘', 'í‘ë¼ì§€ê³ ê¹ƒì§‘', 'ì “ê°ˆ', 'ì “ê°ˆë§›ì§‘', 'ì†ì´ˆì “ê°ˆ', 'ì†ì´ˆì “ê°ˆë§›ì§‘', 'ì†ì´ˆì„±ì‹¤ì “ê°ˆ', 'ì„±ì‹¤ì “ê°ˆ']",ë¬´ë¦‰ì™¸ê°“ì§‘,ì œì£¼íŠ¹ë³„ìžì¹˜ë„ ì„œê·€í¬ì‹œ ëŒ€ì •ì ë¬´ë¦‰ë¦¬ 640-5,126.236917142939,33.2746792813178
189,https://www.instagram.com/p/CH915uIAQrz/,2020-11-24T08:09:54.000Z,_mini_iii,"á„Œá…¦á„Œá…®á„ƒá…©á„‚á…³á†« á„Œá…µá„€á…³á†· á„ƒá…©á†¼á„‡á…¢á†¨á„á…©á†¾á„Žá…®á†¨á„Œá…¦ðŸŒº
â €
â €
â €
#ì œì£¼ #ì œì£¼ì—¬í–‰ #ì œì£¼ì¹´íŽ˜ì¶”ì²œ #ë™ë°±í¬ë ˆìŠ¤íŠ¸ #ë™ë°±ê½ƒ #ì„œê·€í¬ì¹´íŽ˜ #ì„œê·€í¬ë§›ì§‘ #ì œì£¼ë‚¨ìª½ì—¬í–‰ #ë°ì¼ë¦¬ #ì…€í”¼ #ì…€ìŠ¤íƒ€ê·¸ëž¨ #ë¶„ë‹¹ #ì„±ë‚¨ #ì •ìž #ì¼ìƒ #íœ´ê°€ #likesforlike #dailylook #model #selca","['ì œì£¼', 'ì œì£¼ì—¬í–‰', 'ì œì£¼ì¹´íŽ˜ì¶”ì²œ', 'ë™ë°±í¬ë ˆìŠ¤íŠ¸', 'ë™ë°±ê½ƒ', 'ì„œê·€í¬ì¹´íŽ˜', 'ì„œê·€í¬ë§›ì§‘', 'ì œì£¼ë‚¨ìª½ì—¬í–‰', 'ë°ì¼ë¦¬', 'ì…€í”¼', 'ì…€ìŠ¤íƒ€ê·¸ëž¨', 'ë¶„ë‹¹', 'ì„±ë‚¨', 'ì •ìž', 'ì¼ìƒ', 'íœ´ê°€', 'likesforlike', 'dailylook', 'model', 'selca']",ë™ë°±í¬ë ˆìŠ¤íŠ¸,ì œì£¼íŠ¹ë³„ìžì¹˜ë„ ì„œê·€í¬ì‹œ ë‚¨ì›ì ì‹ ë¡€ë¦¬ 1767,126.63621623625866,33.30034607599768
194,https://www.instagram.com/p/CH917b6FuKE/,2020-11-24T08:10:08.000Z,jejum.ama,"ì• ì›”ì˜¤ì…˜ë·°ì—
íŠ¹ë³„í•œ ì¹´ë ˆê°€ ìž”ëœ©ì¸ê³³!^^
ë§›ë„ ì§±ì§±
ðŸ˜œ
.
#jeju #ì œì£¼ë„ #ì œì£¼ #ì• ì›”ë§›ì§‘ #ì• ì›”ì¹´ë ˆ #ì¹´ë ˆë§›ì§‘ #ì œì£¼í•«í”Œ #ì œì£¼ë„ë¯¼ë§›ì§‘#ì§¬ë½•ì¹´ë ˆ #ì œì£¼ë§›ì§‘#ì œì£¼í˜¼ë°¥ë§›ì§‘ #ì œì£¼ë§›ì§‘ì¶”ì²œ #ì œì£¼ì˜¤ì…˜ë·°ë§›ì§‘ #ì• ì›”ë°¥ì§‘ì¶”ì²œ#ì œì£¼ë„ì¹´ë ˆ #ì œì£¼ì €ë…ì‹ì‚¬#ì‚¬ì´ì¹´ë ˆ#ì œì£¼ë§›ì§‘ì¶”ì²œ #ì œì£¼ë„ë§›ì§‘#ì• ì›”ì €ë…ì‹ì‚¬ #ì œì£¼ë§›ì§‘ì¶”ì²œ#ì• ì›”ì ì‹¬ì¶”ì²œ#ì œì£¼í˜¼ë°¥ì¶”ì²œ#ì œì£¼ì‹œë§›ì§‘#ì• ì›”í•´ì•ˆë„ë¡œë§›ì§‘#ì œì£¼ì• ì›”ë§›ì§‘#í•œë¦¼ë§›ì§‘#í•œë‹´ë§›ì§‘#ì œì£¼ê³µí•­ë§›ì§‘#ì œì£¼í˜¼ë°¥í•˜ê¸°ì¢‹ì€ê³³#ì• ì›”í˜¼ë°¥#ì œì£¼ì ì‹¬ì¶”ì²œ","['jeju', 'ì œì£¼ë„', 'ì œì£¼', 'ì• ì›”ë§›ì§‘', 'ì• ì›”ì¹´ë ˆ', 'ì¹´ë ˆë§›ì§‘', 'ì œì£¼í•«í”Œ', 'ì œì£¼ë„ë¯¼ë§›ì§‘', 'ì§¬ë½•ì¹´ë ˆ', 'ì œì£¼ë§›ì§‘', 'ì œì£¼í˜¼ë°¥ë§›ì§‘', 'ì œì£¼ë§›ì§‘ì¶”ì²œ', 'ì œì£¼ì˜¤ì…˜ë·°ë§›ì§‘', 'ì• ì›”ë°¥ì§‘ì¶”ì²œ', 'ì œì£¼ë„ì¹´ë ˆ', 'ì œì£¼ì €ë…ì‹ì‚¬', 'ì‚¬ì´ì¹´ë ˆ', 'ì œì£¼ë§›ì§‘ì¶”ì²œ', 'ì œì£¼ë„ë§›ì§‘', 'ì• ì›”ì €ë…ì‹ì‚¬', 'ì œì£¼ë§›ì§‘ì¶”ì²œ', 'ì• ì›”ì ì‹¬ì¶”ì²œ', 'ì œì£¼í˜¼ë°¥ì¶”ì²œ', 'ì œì£¼ì‹œë§›ì§‘', 'ì• ì›”í•´ì•ˆë„ë¡œë§›ì§‘', 'ì œì£¼ì• ì›”ë§›ì§‘', 'í•œë¦¼ë§›ì§‘', 'í•œë‹´ë§›ì§‘', 'ì œì£¼ê³µí•­ë§›ì§‘', 'ì œì£¼í˜¼ë°¥í•˜ê¸°ì¢‹ì€ê³³', 'ì• ì›”í˜¼ë°¥', 'ì œì£¼ì ì‹¬ì¶”ì²œ']",ì‚¬ì´ì¹´ë ˆ,ì œì£¼íŠ¹ë³„ìžì¹˜ë„ ì œì£¼ì‹œ ì• ì›”ì êµ¬ì—„ë¦¬ 509,126.381106668339,33.4842446359284
195,https://www.instagram.com/p/CH9152fFv9j/,2020-11-24T08:09:55.000Z,jejum.ama,"ì• ì›”ì˜¤ì…˜ë·°ì—
íŠ¹ë³„í•œ ì¹´ë ˆê°€ ìž”ëœ©ì¸ê³³!^^
ë§›ë„ ì§±ì§±
ðŸ˜œ
.
#jeju #ì œì£¼ë„ #ì œì£¼ #ì• ì›”ë§›ì§‘ #ì• ì›”ì¹´ë ˆ #ì¹´ë ˆë§›ì§‘ #ì œì£¼í•«í”Œ #ì œì£¼ë„ë¯¼ë§›ì§‘#ì§¬ë½•ì¹´ë ˆ #ì œì£¼ë§›ì§‘#ì œì£¼í˜¼ë°¥ë§›ì§‘ #ì œì£¼ë§›ì§‘ì¶”ì²œ #ì œì£¼ì˜¤ì…˜ë·°ë§›ì§‘ #ì• ì›”ë°¥ì§‘ì¶”ì²œ#ì œì£¼ë„ì¹´ë ˆ #ì œì£¼ì €ë…ì‹ì‚¬#ì‚¬ì´ì¹´ë ˆ#ì œì£¼ë§›ì§‘ì¶”ì²œ #ì œì£¼ë„ë§›ì§‘#ì• ì›”ì €ë…ì‹ì‚¬ #ì œì£¼ë§›ì§‘ì¶”ì²œ#ì• ì›”ì ì‹¬ì¶”ì²œ#ì œì£¼í˜¼ë°¥ì¶”ì²œ#ì œì£¼ì‹œë§›ì§‘#ì• ì›”í•´ì•ˆë„ë¡œë§›ì§‘#ì œì£¼ì• ì›”ë§›ì§‘#í•œë¦¼ë§›ì§‘#í•œë‹´ë§›ì§‘#ì œì£¼ê³µí•­ë§›ì§‘#ì œì£¼í˜¼ë°¥í•˜ê¸°ì¢‹ì€ê³³#ì• ì›”í˜¼ë°¥#ì œì£¼ì ì‹¬ì¶”ì²œ","['jeju', 'ì œì£¼ë„', 'ì œì£¼', 'ì• ì›”ë§›ì§‘', 'ì• ì›”ì¹´ë ˆ', 'ì¹´ë ˆë§›ì§‘', 'ì œì£¼í•«í”Œ', 'ì œì£¼ë„ë¯¼ë§›ì§‘', 'ì§¬ë½•ì¹´ë ˆ', 'ì œì£¼ë§›ì§‘', 'ì œì£¼í˜¼ë°¥ë§›ì§‘', 'ì œì£¼ë§›ì§‘ì¶”ì²œ', 'ì œì£¼ì˜¤ì…˜ë·°ë§›ì§‘', 'ì• ì›”ë°¥ì§‘ì¶”ì²œ', 'ì œì£¼ë„ì¹´ë ˆ', 'ì œì£¼ì €ë…ì‹ì‚¬', 'ì‚¬ì´ì¹´ë ˆ', 'ì œì£¼ë§›ì§‘ì¶”ì²œ', 'ì œì£¼ë„ë§›ì§‘', 'ì• ì›”ì €ë…ì‹ì‚¬', 'ì œì£¼ë§›ì§‘ì¶”ì²œ', 'ì• ì›”ì ì‹¬ì¶”ì²œ', 'ì œì£¼í˜¼ë°¥ì¶”ì²œ', 'ì œì£¼ì‹œë§›ì§‘', 'ì• ì›”í•´ì•ˆë„ë¡œë§›ì§‘', 'ì œì£¼ì• ì›”ë§›ì§‘', 'í•œë¦¼ë§›ì§‘', 'í•œë‹´ë§›ì§‘', 'ì œì£¼ê³µí•­ë§›ì§‘', 'ì œì£¼í˜¼ë°¥í•˜ê¸°ì¢‹ì€ê³³', 'ì• ì›”í˜¼ë°¥', 'ì œì£¼ì ì‹¬ì¶”ì²œ']",ì• ì›”í•´ì•ˆë„ë¡œ,ì œì£¼íŠ¹ë³„ìžì¹˜ë„ ì œì£¼ì‹œ ì• ì›”ì ì‹ ì—„ë¦¬ 2719-3,126.36867872098,33.4781232943703
196,https://www.instagram.com/p/CH914c2ldVp/,2020-11-24T08:09:44.000Z,jejum.ama,"ì• ì›”ì˜¤ì…˜ë·°ì—
íŠ¹ë³„í•œ ì¹´ë ˆê°€ ìž”ëœ©ì¸ê³³!^^
ë§›ë„ ì§±ì§±
ðŸ˜œ
.
#jeju #ì œì£¼ë„ #ì œì£¼ #ì• ì›”ë§›ì§‘ #ì• ì›”ì¹´ë ˆ #ì¹´ë ˆë§›ì§‘ #ì œì£¼í•«í”Œ #ì œì£¼ë„ë¯¼ë§›ì§‘#ì§¬ë½•ì¹´ë ˆ #ì œì£¼ë§›ì§‘#ì œì£¼í˜¼ë°¥ë§›ì§‘ #ì œì£¼ë§›ì§‘ì¶”ì²œ #ì œì£¼ì˜¤ì…˜ë·°ë§›ì§‘ #ì• ì›”ë°¥ì§‘ì¶”ì²œ#ì œì£¼ë„ì¹´ë ˆ #ì œì£¼ì €ë…ì‹ì‚¬#ì‚¬ì´ì¹´ë ˆ#ì œì£¼ë§›ì§‘ì¶”ì²œ #ì œì£¼ë„ë§›ì§‘#ì• ì›”ì €ë…ì‹ì‚¬ #ì œì£¼ë§›ì§‘ì¶”ì²œ#ì• ì›”ì ì‹¬ì¶”ì²œ#ì œì£¼í˜¼ë°¥ì¶”ì²œ#ì œì£¼ì‹œë§›ì§‘#ì• ì›”í•´ì•ˆë„ë¡œë§›ì§‘#ì œì£¼ì• ì›”ë§›ì§‘#í•œë¦¼ë§›ì§‘#í•œë‹´ë§›ì§‘#ì œì£¼ê³µí•­ë§›ì§‘#ì œì£¼í˜¼ë°¥í•˜ê¸°ì¢‹ì€ê³³#ì• ì›”í˜¼ë°¥#ì œì£¼ì ì‹¬ì¶”ì²œ","['jeju', 'ì œì£¼ë„', 'ì œì£¼', 'ì• ì›”ë§›ì§‘', 'ì• ì›”ì¹´ë ˆ', 'ì¹´ë ˆë§›ì§‘', 'ì œì£¼í•«í”Œ', 'ì œì£¼ë„ë¯¼ë§›ì§‘', 'ì§¬ë½•ì¹´ë ˆ', 'ì œì£¼ë§›ì§‘', 'ì œì£¼í˜¼ë°¥ë§›ì§‘', 'ì œì£¼ë§›ì§‘ì¶”ì²œ', 'ì œì£¼ì˜¤ì…˜ë·°ë§›ì§‘', 'ì• ì›”ë°¥ì§‘ì¶”ì²œ', 'ì œì£¼ë„ì¹´ë ˆ', 'ì œì£¼ì €ë…ì‹ì‚¬', 'ì‚¬ì´ì¹´ë ˆ', 'ì œì£¼ë§›ì§‘ì¶”ì²œ', 'ì œì£¼ë„ë§›ì§‘', 'ì• ì›”ì €ë…ì‹ì‚¬', 'ì œì£¼ë§›ì§‘ì¶”ì²œ', 'ì• ì›”ì ì‹¬ì¶”ì²œ', 'ì œì£¼í˜¼ë°¥ì¶”ì²œ', 'ì œì£¼ì‹œë§›ì§‘', 'ì• ì›”í•´ì•ˆë„ë¡œë§›ì§‘', 'ì œì£¼ì• ì›”ë§›ì§‘', 'í•œë¦¼ë§›ì§‘', 'í•œë‹´ë§›ì§‘', 'ì œì£¼ê³µí•­ë§›ì§‘', 'ì œì£¼í˜¼ë°¥í•˜ê¸°ì¢‹ì€ê³³', 'ì• ì›”í˜¼ë°¥', 'ì œì£¼ì ì‹¬ì¶”ì²œ']",ì‚¬ì´ì¹´ë ˆ,ì œì£¼íŠ¹ë³„ìžì¹˜ë„ ì œì£¼ì‹œ ì• ì›”ì êµ¬ì—„ë¦¬ 509,126.381106668339,33.4842446359284
197,https://www.instagram.com/p/CH911_8FGWn/,2020-11-24T08:09:24.000Z,jejum.ama,"ì• ì›”ì˜¤ì…˜ë·°ì—
íŠ¹ë³„í•œ ì¹´ë ˆê°€ ìž”ëœ©ì¸ê³³!^^
ë§›ë„ ì§±ì§±
ðŸ˜œ
.
#jeju #ì œì£¼ë„ #ì œì£¼ #ì• ì›”ë§›ì§‘ #ì• ì›”ì¹´ë ˆ #ì¹´ë ˆë§›ì§‘ #ì œì£¼í•«í”Œ #ì œì£¼ë„ë¯¼ë§›ì§‘#ì§¬ë½•ì¹´ë ˆ #ì œì£¼ë§›ì§‘#ì œì£¼í˜¼ë°¥ë§›ì§‘ #ì œì£¼ë§›ì§‘ì¶”ì²œ #ì œì£¼ì˜¤ì…˜ë·°ë§›ì§‘ #ì• ì›”ë°¥ì§‘ì¶”ì²œ#ì œì£¼ë„ì¹´ë ˆ #ì œì£¼ì €ë…ì‹ì‚¬#ì‚¬ì´ì¹´ë ˆ#ì œì£¼ë§›ì§‘ì¶”ì²œ #ì œì£¼ë„ë§›ì§‘#ì• ì›”ì €ë…ì‹ì‚¬ #ì œì£¼ë§›ì§‘ì¶”ì²œ#ì• ì›”ì ì‹¬ì¶”ì²œ#ì œì£¼í˜¼ë°¥ì¶”ì²œ#ì œì£¼ì‹œë§›ì§‘#ì• ì›”í•´ì•ˆë„ë¡œë§›ì§‘#ì œì£¼ì• ì›”ë§›ì§‘#í•œë¦¼ë§›ì§‘#í•œë‹´ë§›ì§‘#ì œì£¼ê³µí•­ë§›ì§‘#ì œì£¼í˜¼ë°¥í•˜ê¸°ì¢‹ì€ê³³#ì• ì›”í˜¼ë°¥#ì œì£¼ì ì‹¬ì¶”ì²œ","['jeju', 'ì œì£¼ë„', 'ì œì£¼', 'ì• ì›”ë§›ì§‘', 'ì• ì›”ì¹´ë ˆ', 'ì¹´ë ˆë§›ì§‘', 'ì œì£¼í•«í”Œ', 'ì œì£¼ë„ë¯¼ë§›ì§‘', 'ì§¬ë½•ì¹´ë ˆ', 'ì œì£¼ë§›ì§‘', 'ì œì£¼í˜¼ë°¥ë§›ì§‘', 'ì œì£¼ë§›ì§‘ì¶”ì²œ', 'ì œì£¼ì˜¤ì…˜ë·°ë§›ì§‘', 'ì• ì›”ë°¥ì§‘ì¶”ì²œ', 'ì œì£¼ë„ì¹´ë ˆ', 'ì œì£¼ì €ë…ì‹ì‚¬', 'ì‚¬ì´ì¹´ë ˆ', 'ì œì£¼ë§›ì§‘ì¶”ì²œ', 'ì œì£¼ë„ë§›ì§‘', 'ì• ì›”ì €ë…ì‹ì‚¬', 'ì œì£¼ë§›ì§‘ì¶”ì²œ', 'ì• ì›”ì ì‹¬ì¶”ì²œ', 'ì œì£¼í˜¼ë°¥ì¶”ì²œ', 'ì œì£¼ì‹œë§›ì§‘', 'ì• ì›”í•´ì•ˆë„ë¡œë§›ì§‘', 'ì œì£¼ì• ì›”ë§›ì§‘', 'í•œë¦¼ë§›ì§‘', 'í•œë‹´ë§›ì§‘', 'ì œì£¼ê³µí•­ë§›ì§‘', 'ì œì£¼í˜¼ë°¥í•˜ê¸°ì¢‹ì€ê³³', 'ì• ì›”í˜¼ë°¥', 'ì œì£¼ì ì‹¬ì¶”ì²œ']",ì‚¬ì´ì¹´ë ˆ,ì œì£¼íŠ¹ë³„ìžì¹˜ë„ ì œì£¼ì‹œ ì• ì›”ì êµ¬ì—„ë¦¬ 509,126.381106668339,33.4842446359284
198,https://www.instagram.com/p/CH910-pFSLP/,2020-11-24T08:09:15.000Z,jejum.ama,"ì• ì›”ì˜¤ì…˜ë·°ì—
íŠ¹ë³„í•œ ì¹´ë ˆê°€ ìž”ëœ©ì¸ê³³!^^
ë§›ë„ ì§±ì§±
ðŸ˜œ
.
#jeju #ì œì£¼ë„ #ì œì£¼ #ì• ì›”ë§›ì§‘ #ì• ì›”ì¹´ë ˆ #ì¹´ë ˆë§›ì§‘ #ì œì£¼í•«í”Œ #ì œì£¼ë„ë¯¼ë§›ì§‘#ì§¬ë½•ì¹´ë ˆ #ì œì£¼ë§›ì§‘#ì œì£¼í˜¼ë°¥ë§›ì§‘ #ì œì£¼ë§›ì§‘ì¶”ì²œ #ì œì£¼ì˜¤ì…˜ë·°ë§›ì§‘ #ì• ì›”ë°¥ì§‘ì¶”ì²œ#ì œì£¼ë„ì¹´ë ˆ #ì œì£¼ì €ë…ì‹ì‚¬#ì‚¬ì´ì¹´ë ˆ#ì œì£¼ë§›ì§‘ì¶”ì²œ #ì œì£¼ë„ë§›ì§‘#ì• ì›”ì €ë…ì‹ì‚¬ #ì œì£¼ë§›ì§‘ì¶”ì²œ#ì• ì›”ì ì‹¬ì¶”ì²œ#ì œì£¼í˜¼ë°¥ì¶”ì²œ#ì œì£¼ì‹œë§›ì§‘#ì• ì›”í•´ì•ˆë„ë¡œë§›ì§‘#ì œì£¼ì• ì›”ë§›ì§‘#í•œë¦¼ë§›ì§‘#í•œë‹´ë§›ì§‘#ì œì£¼ê³µí•­ë§›ì§‘#ì œì£¼í˜¼ë°¥í•˜ê¸°ì¢‹ì€ê³³#ì• ì›”í˜¼ë°¥#ì œì£¼ì ì‹¬ì¶”ì²œ","['jeju', 'ì œì£¼ë„', 'ì œì£¼', 'ì• ì›”ë§›ì§‘', 'ì• ì›”ì¹´ë ˆ', 'ì¹´ë ˆë§›ì§‘', 'ì œì£¼í•«í”Œ', 'ì œì£¼ë„ë¯¼ë§›ì§‘', 'ì§¬ë½•ì¹´ë ˆ', 'ì œì£¼ë§›ì§‘', 'ì œì£¼í˜¼ë°¥ë§›ì§‘', 'ì œì£¼ë§›ì§‘ì¶”ì²œ', 'ì œì£¼ì˜¤ì…˜ë·°ë§›ì§‘', 'ì• ì›”ë°¥ì§‘ì¶”ì²œ', 'ì œì£¼ë„ì¹´ë ˆ', 'ì œì£¼ì €ë…ì‹ì‚¬', 'ì‚¬ì´ì¹´ë ˆ', 'ì œì£¼ë§›ì§‘ì¶”ì²œ', 'ì œì£¼ë„ë§›ì§‘', 'ì• ì›”ì €ë…ì‹ì‚¬', 'ì œì£¼ë§›ì§‘ì¶”ì²œ', 'ì• ì›”ì ì‹¬ì¶”ì²œ', 'ì œì£¼í˜¼ë°¥ì¶”ì²œ', 'ì œì£¼ì‹œë§›ì§‘', 'ì• ì›”í•´ì•ˆë„ë¡œë§›ì§‘', 'ì œì£¼ì• ì›”ë§›ì§‘', 'í•œë¦¼ë§›ì§‘', 'í•œë‹´ë§›ì§‘', 'ì œì£¼ê³µí•­ë§›ì§‘', 'ì œì£¼í˜¼ë°¥í•˜ê¸°ì¢‹ì€ê³³', 'ì• ì›”í˜¼ë°¥', 'ì œì£¼ì ì‹¬ì¶”ì²œ']",ì‚¬ì´ì¹´ë ˆ,ì œì£¼íŠ¹ë³„ìžì¹˜ë„ ì œì£¼ì‹œ ì• ì›”ì êµ¬ì—„ë¦¬ 509,126.381106668339,33.4842446359284
208,https://www.instagram.com/p/CH94--ODm8p/,2020-11-24T08:36:50.000Z,hyeonhee0000,".
.
.
#ì¹˜ì €ìŠ¤ #ì¹˜ì¦ˆí­í¬ìŠ¤í…Œì´í¬ #ì†¡ë‹¹ë¦¬ë§›ì§‘ #ì œì£¼ë„ #ì œì£¼ #ì œì£¼ì¹´íŽ˜ #ì œì£¼ë§›ì§‘ #ì œì£¼ëª…ì†Œ #ë‹¤ê°€ë³¼êº¼ì•¼ #ê°€ê¹Œìš´ê³³ë¶€í„° #ë‘˜ëŸ¬ë³´ê¸° #ì œì£¼ë„ë¯¼ #ë„ë¯¼ë§›ì§‘ #ë§›ì§‘íƒë°© #ì œì£¼ì¼ìƒ #ì œì£¼í˜„ì§€ì¸ë§›ì§‘ #ì œì£¼ìŠ¤íƒ€ê·¸ëž¨ #ì œì£¼ì‹œë§›ì§‘ #ì„œê·€í¬ë§›ì§‘ #ì½”ë¡œë‚˜ #ì¡°ì‹¬í•˜ì„¸ìš” #ðŸ˜·","['ì¹˜ì €ìŠ¤', 'ì¹˜ì¦ˆí­í¬ìŠ¤í…Œì´í¬', 'ì†¡ë‹¹ë¦¬ë§›ì§‘', 'ì œì£¼ë„', 'ì œì£¼', 'ì œì£¼ì¹´íŽ˜', 'ì œì£¼ë§›ì§‘', 'ì œì£¼ëª…ì†Œ', 'ë‹¤ê°€ë³¼êº¼ì•¼', 'ê°€ê¹Œìš´ê³³ë¶€í„°', 'ë‘˜ëŸ¬ë³´ê¸°', 'ì œì£¼ë„ë¯¼', 'ë„ë¯¼ë§›ì§‘', 'ë§›ì§‘íƒë°©', 'ì œì£¼ì¼ìƒ', 'ì œì£¼í˜„ì§€ì¸ë§›ì§‘', 'ì œì£¼ìŠ¤íƒ€ê·¸ëž¨', 'ì œì£¼ì‹œë§›ì§‘', 'ì„œê·€í¬ë§›ì§‘', 'ì½”ë¡œë‚˜', 'ì¡°ì‹¬í•˜ì„¸ìš”']",ì¹˜ì €ìŠ¤ ì œì£¼,ì œì£¼íŠ¹ë³„ìžì¹˜ë„ ì œì£¼ì‹œ êµ¬ì¢Œì ì†¡ë‹¹ë¦¬ 1581-1,126.774018571495,33.4684714634794
223,https://www.instagram.com/p/CH94HG8h7kp/,2020-11-24T08:29:12.000Z,jandi_visiting,"ë…¹ìƒ‰ì¹´íŽ˜, ì‹ë¬¼ì¹´íŽ˜ë¥¼ ì§€í–¥í•˜ëŠ” ë…¹ìƒ‰ì„ ì¢‹ì•„í•´
ë…¹ìƒ‰ë©”ë‰´ë§Œ ì—°êµ¬í•™ê³  ë§Œë“œëŠ” ðŸ¥’ðŸ¥¦ðŸ¥¬ðŸðŸ¥
#ìž”ë””ê³µìž¥ë°©ë¬¸ìž ê°€ ë˜ì–´ ì£¼ì…”ì„œ ê°ì‚¬í•©ë‹ˆë‹¤ðŸŒ±
#ì œì£¼ë„ #ì„±ì‚°ì¹´íŽ˜ #ìž”ë””ê³µìž¥
.
âœ…ì„œê·€í¬ì‹œ ì„±ì‚°ì ì¼ì£¼ë™ë¡œ5154ë²ˆê¸¸ 5
âœ…OPEN 11:00 ~ 19:00
âœ…YES ì• ê²¬ë™ë°˜ê°€ëŠ¥í•œì§‘ ðŸ¶ YES í‚¤ë“œì¡´ ðŸ‘¶ðŸ»
.
ðŸŒ±ë©”ë‰´ì„ íƒ ì‹¤íŒ¨1ë„ ì—†ëŠ” ë§›ìžˆëŠ” ì¹´íŽ˜ ðŸŒ± #jmt
ðŸ¤©ìž”ë””ìš°ìœ  6.5
ðŸ˜‹ìž”ë””ìŠ¤ë¬´ë”” 8.5
ðŸ˜ìƒˆì½¤í•˜ë‹¤ì—ì´ë“œ 6.5
ðŸ¥°ìž”ë””ìž¼í† ìŠ¤íŠ¸ 4.5
.
â€¼ï¸í‘œì„ ì—ì„œ ì„±ì‚°ê°€ëŠ” ê¸¸ ì„±ì‚°ì—ì„œ í‘œì„ ê°€ëŠ” ê¸¸
ðŸš—ðŸš•ðŸš™ðŸšŒðŸšŽ ðŸš—ðŸŽðŸ›´ðŸššðŸš’ðŸš›ðŸš›
.
#ì œì£¼ #ì„œê·€í¬ #ì¹´íŽ˜ #ì‹ë¬¼ì¹´íŽ˜ #ì„œê·€í¬ì¹´íŽ˜
#ì„±ì‚°ì¼ì¶œë´‰ #ì„­ì§€ì½”ì§€ #ê´‘ì¹˜ê¸°í•´ë³€ #ìš°ë„ #ì œì£¼ë„ #ì„±ì‚°ë§›ì§‘ #í‘œì„ ë§›ì§‘ #í•˜ë„ë¦¬ë§›ì§‘ #ì¤‘ë¬¸ë§›ì§‘ #ì„±ì‚°ì¼ì¶œë´‰ë§›ì§‘ #ë¹›ì˜ë²™ì»¤ #ì‹ ì‚°ë¦¬ì¹´íŽ˜ #ì‹ ì‚°ë¦¬ #ì‹ ì‚°ë¦¬ë§›ì§‘","['ìž”ë””ê³µìž¥ë°©ë¬¸ìž', 'ì œì£¼ë„', 'ì„±ì‚°ì¹´íŽ˜', 'ìž”ë””ê³µìž¥', 'jmt', 'ì œì£¼', 'ì„œê·€í¬', 'ì¹´íŽ˜', 'ì‹ë¬¼ì¹´íŽ˜', 'ì„œê·€í¬ì¹´íŽ˜', 'ì„±ì‚°ì¼ì¶œë´‰', 'ì„­ì§€ì½”ì§€', 'ê´‘ì¹˜ê¸°í•´ë³€', 'ìš°ë„', 'ì œì£¼ë„', 'ì„±ì‚°ë§›ì§‘', 'í‘œì„ ë§›ì§‘', 'í•˜ë„ë¦¬ë§›ì§‘', 'ì¤‘ë¬¸ë§›ì§‘', 'ì„±ì‚°ì¼ì¶œë´‰ë§›ì§‘', 'ë¹›ì˜ë²™ì»¤', 'ì‹ ì‚°ë¦¬ì¹´íŽ˜', 'ì‹ ì‚°ë¦¬', 'ì‹ ì‚°ë¦¬ë§›ì§‘']",ìž”ë””ê³µìž¥,ì œì£¼íŠ¹ë³„ìžì¹˜ë„ ì„œê·€í¬ì‹œ ì„±ì‚°ì ì‹ ì‚°ë¦¬ 1073-9,126.873289850307,33.3774305792331
235,https://www.instagram.com/p/CH97YT5jd34/,2020-11-24T08:57:46.000Z,lillyb_illy,"ë² ë¦¬ë”œë¦¬ì…”ìŠ¤ê°€ ìµœê³ ë‹¤.
.
.
#ì œì£¼ #ì œì£¼ë„ #ì œì£¼ì—¬í–‰ #ì œì£¼ì‚´ì´ #í•œë¦¼ #í•œë¦¼ë§›ì§‘ #í•œë¦¼ì¹´íŽ˜ #ì œì£¼ë§›ì§‘ #ì œì£¼ì¹´íŽ˜ #ì”¨ë¦¬ì–¼","['ì œì£¼', 'ì œì£¼ë„', 'ì œì£¼ì—¬í–‰', 'ì œì£¼ì‚´ì´', 'í•œë¦¼', 'í•œë¦¼ë§›ì§‘', 'í•œë¦¼ì¹´íŽ˜', 'ì œì£¼ë§›ì§‘', 'ì œì£¼ì¹´íŽ˜', 'ì”¨ë¦¬ì–¼']","Cereal, ì”¨ë¦¬ì–¼",ì œì£¼íŠ¹ë³„ìžì¹˜ë„ ì œì£¼ì‹œ í•œë¦¼ì í•œë¦¼ë¦¬ 1034-1,126.26739782896999,33.41429832362196
241,https://www.instagram.com/p/CH97AIgJKVw/,2020-11-24T08:54:28.000Z,cindy_7989,"W E
.
.
ì§€ë‚œì£¼ ì œì£¼ë„ê°€ ê¿ˆ ê°™êµ¬ë‚˜ðŸŒ´
.
ì†ê³¼ ë°œì´ ë¶ˆíŽ¸í•œ ìš°ë¦¬
.
ì´ì œë¶€í„´
ì¢‹ì€ì¼ í•œê°€ë“~~
.
.
#ì œì£¼#ì œì£¼ì¹´íŽ˜#ì•„ë¼íŒŒíŒŒ#êµ¬ë¦„ë§›ì§‘
#ìš°ë¦¬#ì¢‹ì€ì¼ê°€ë“#ì•¡ë•œì¤‘#ìž˜ë êº¼ì•¼
#ë¶€ë¶€#ì¦ê±°ì›€#ë™í–‰#ì´ìƒë¯¸ì¸","['ì œì£¼', 'ì œì£¼ì¹´íŽ˜', 'ì•„ë¼íŒŒíŒŒ', 'êµ¬ë¦„ë§›ì§‘', 'ìš°ë¦¬', 'ì¢‹ì€ì¼ê°€ë“', 'ì•¡ë•œì¤‘', 'ìž˜ë êº¼ì•¼', 'ë¶€ë¶€', 'ì¦ê±°ì›€', 'ë™í–‰', 'ì´ìƒë¯¸ì¸']",ì•„ë¼íŒŒíŒŒ,ì œì£¼íŠ¹ë³„ìžì¹˜ë„ ì œì£¼ì‹œ ì—°ë™ 1523,126.490900288636,33.4784583869864
243,https://www.instagram.com/p/CH96fdQg-m-/,2020-11-24T08:53:59.000Z,j.lee1205,"ë³„ì•„ ë³„ì•„ ì´ìœ ë³„ì•„ âœ¨ í˜•ì´ ë§Žì´ ë¬´ê²ì§€ ðŸ˜‚
.
.
.
.
.
.
#ìŠ¹ë§ˆ#êµ¬ë³´#ì œì£¼ìŠ¹ë§ˆ#ì·¨ë¯¸#í•™ìƒìŠ¹ë§ˆ#ì œì£¼ë„#ì œì£¼ë§›ì§‘#ì œì£¼#ë§#ì™¸ìŠ¹#ìŠ¹ë§ˆë ˆìŠ¨#ë‹¤ì´ì–´íŠ¸#ìš´ë™#horseriding#horse#diet#athlete#island","['ìŠ¹ë§ˆ', 'êµ¬ë³´', 'ì œì£¼ìŠ¹ë§ˆ', 'ì·¨ë¯¸', 'í•™ìƒìŠ¹ë§ˆ', 'ì œì£¼ë„', 'ì œì£¼ë§›ì§‘', 'ì œì£¼', 'ë§', 'ì™¸ìŠ¹', 'ìŠ¹ë§ˆë ˆìŠ¨', 'ë‹¤ì´ì–´íŠ¸', 'ìš´ë™', 'horseriding', 'horse', 'diet', 'athlete', 'island']",ì œì£¼ëŒ€í•™êµ ìŠ¹ë§ˆìž¥,ì œì£¼íŠ¹ë³„ìžì¹˜ë„ ì œì£¼ì‹œ ì•„ë¼ì¼ë™ 6-27,126.562699378254,33.4469745681299
248,https://www.instagram.com/p/CH96vy6AnCp/,2020-11-24T08:52:14.000Z,magie_gallery,"ì œì£¼ì˜ ì‚¬ì§„ì€ ë¬´ì—‡ì„ ì°ë”ë¼ë„ ë‹¤ ì˜³ë‹¤!ðŸŒ‡ðŸŒ†

#ì œì£¼#ë…¸ì„#ë…¸ì„ë§›ì§‘#ëŒ€í¬í•­#ë“±ëŒ€#jeju#sunset#lighthouse#ãƒã‚§ã‚¸ãƒ¥#å¤•ç„¼ã‘#ç¯å°

ãƒã‚§ã‚¸ãƒ¥ã§å†™çœŸã‚’æ’®ã‚Œã°ã„ã¤ã‚‚æ°—ã«å…¥ã£ã¦ã„ã„ã§ã™
ã€‚ãã‚Œã¯ç§ã°ã‹ã‚Šã§ãªãã¦èª°ã§ã‚‚ãã†ã˜ã‚ƒãªã„ã‹ã¨æ€ã†ã‚“ã§ã™ðŸ˜„","['ì œì£¼', 'ë…¸ì„', 'ë…¸ì„ë§›ì§‘', 'ëŒ€í¬í•­', 'ë“±ëŒ€', 'jeju', 'sunset', 'lighthouse', 'ãƒã‚§ã‚¸ãƒ¥', 'å¤•ç„¼ã‘', 'ç¯å°']",ëŒ€í¬í•­êµ¬,ì œì£¼íŠ¹ë³„ìžì¹˜ë„ ì„œê·€í¬ì‹œ ëŒ€í¬ë™,126.439143424129,33.2376824003392
267,https://www.instagram.com/p/CH988u1jKO4/,2020-11-24T09:11:29.000Z,montak_guesthouse,"#ë…¸ì„#ì„ ì…‹#í•´ë¨¹#ë§ˆìŠ¤í¬

ë§ˆìŠ¤í¬ í•„ìš”ì—†ëŠ” ë„“ì€ ëª¬ë”± ë§ˆë‹¹ì—ì„œ
ìƒˆë¡œìš´ í•´ë¨¹ í…ŒìŠ¤íŠ¸ì¤‘ ë…¸ì„ ê°ìƒ.
ê²ŒìŠ¤íŠ¸ë¶„ë“¤ì´ ì‚¬ìš©í•  ë‚ ì´ì˜¤ê¸¸~~

#ëª¬ë”±#ëª¬ë”±ê²ŒìŠ¤íŠ¸í•˜ìš°ìŠ¤#ì œì£¼#ì œì£¼ë„#ì œì£¼ìˆ™ë°•#ì œì£¼ì—¬í–‰#ì œì£¼ê²Œí•˜#ê°ì„±#ìº í•‘#ì œì£¼ìˆ™ì†Œ#ì œì£¼í•«í”Œ#ì œì£¼ë§›ì§‘#êµ¬ì¢Œì#ì„¸í™”ë¦¬#ì œì£¼ê²ŒìŠ¤íŠ¸í•˜ìš°ìŠ¤#ëª¨ë‹¥ë¶ˆ#ë¶ˆë©","['ë…¸ì„', 'ì„ ì…‹', 'í•´ë¨¹', 'ë§ˆìŠ¤í¬', 'ëª¬ë”±', 'ëª¬ë”±ê²ŒìŠ¤íŠ¸í•˜ìš°ìŠ¤', 'ì œì£¼', 'ì œì£¼ë„', 'ì œì£¼ìˆ™ë°•', 'ì œì£¼ì—¬í–‰', 'ì œì£¼ê²Œí•˜', 'ê°ì„±', 'ìº í•‘', 'ì œì£¼ìˆ™ì†Œ', 'ì œì£¼í•«í”Œ', 'ì œì£¼ë§›ì§‘', 'êµ¬ì¢Œì', 'ì„¸í™”ë¦¬', 'ì œì£¼ê²ŒìŠ¤íŠ¸í•˜ìš°ìŠ¤', 'ëª¨ë‹¥ë¶ˆ', 'ë¶ˆë©']",ëª¬ë”±ê²ŒìŠ¤íŠ¸í•˜ìš°ìŠ¤,ì œì£¼íŠ¹ë³„ìžì¹˜ë„ ì œì£¼ì‹œ êµ¬ì¢Œì ì„¸í™”ë¦¬ 1164-1,126.852459649813,33.5192201218977
279,https://www.instagram.com/p/CH98kAMjtaq/,2020-11-24T09:08:23.000Z,staywithcoffee,"[NEW CORP.11]

[ì½œë¡¬ë¹„ì•„ ë¼ ë¡œë§ˆ N]

ì²´ë¦¬ì²´ë¦¬í•˜ê³ â™¥
ì™€ì¸ì™€ì¸í•˜ë©°â™¥
ë±…ì‡¼ë±…ì‡¼í•´ìš”â™¥

ì°¨ë³„í™”ëœ í†¡í†¡íŠ€ëŠ” í–¥ë¯¸

URL : www.staywithcoffee.com

#ì½œë¡¬ë¹„ì•„ #ë¼ë¡œë§ˆ #ì½œë¡¬ë¹„ì•„ë¼ë¡œë§ˆ #COLOMBIA #LALOMA #ì œì£¼ #ë¡œìŠ¤í„°ë¦¬ì¹´íŽ˜ #ìŠ¤í…Œì´ìœ„ë“œì»¤í”¼ #staywithcoffee #ì·¨í–¥ì¡´ì¤‘ #ì·¨í–¥ì—ë§žëŠ”ì»¤í”¼ #ì»¤í”¼ë§¤ë‹ˆì•„ #ì»¤í”¼ì „ë¬¸ê°€ #ì˜¬í•´ì˜ì»¤í”¼ #ë² ìŠ¤íŠ¸í”½ #ì›í”½ #ì œì£¼ì¹´íŽ˜ #ì¹´íŽ˜íˆ¬ì–´ #ì¹´íŽ˜ë§›ì§‘ #ì¹´íŽ˜ì¶”ì²œ #ì œì£¼ì¹´íŽ˜ì¶”ì²œ #ì‚¬ê³„ë¦¬ì¹´íŽ˜ #ì„œê·€í¬ì¹´íŽ˜ #ëª¨ìŠ¬í¬ì¹´íŽ˜","['ì½œë¡¬ë¹„ì•„', 'ë¼ë¡œë§ˆ', 'ì½œë¡¬ë¹„ì•„ë¼ë¡œë§ˆ', 'COLOMBIA', 'LALOMA', 'ì œì£¼', 'ë¡œìŠ¤í„°ë¦¬ì¹´íŽ˜', 'ìŠ¤í…Œì´ìœ„ë“œì»¤í”¼', 'staywithcoffee', 'ì·¨í–¥ì¡´ì¤‘', 'ì·¨í–¥ì—ë§žëŠ”ì»¤í”¼', 'ì»¤í”¼ë§¤ë‹ˆì•„', 'ì»¤í”¼ì „ë¬¸ê°€', 'ì˜¬í•´ì˜ì»¤í”¼', 'ë² ìŠ¤íŠ¸í”½', 'ì›í”½', 'ì œì£¼ì¹´íŽ˜', 'ì¹´íŽ˜íˆ¬ì–´', 'ì¹´íŽ˜ë§›ì§‘', 'ì¹´íŽ˜ì¶”ì²œ', 'ì œì£¼ì¹´íŽ˜ì¶”ì²œ', 'ì‚¬ê³„ë¦¬ì¹´íŽ˜', 'ì„œê·€í¬ì¹´íŽ˜', 'ëª¨ìŠ¬í¬ì¹´íŽ˜']",Stay with Coffee,ì œì£¼íŠ¹ë³„ìžì¹˜ë„ ì„œê·€í¬ì‹œ ì•ˆë•ë©´ ì‚¬ê³„ë¦¬ 2147-1,126.303287850538,33.2278027640613
282,https://www.instagram.com/p/CH-AL9ZFpo9/,2020-11-24T09:39:46.000Z,jeju_namddori,"[ ë‚¨ë˜ë¦¬íšŸì§‘ BY.JEJU ]
â €
ì œì£¼ë„ì— ë†€ëŸ¬ì˜¤ì‹œë©´
ì €í¬ #ë‚¨ë˜ë¦¬íšŸì§‘ ë¡œ
ë§›ìžˆëŠ” íšŒ ë“œì‹œëŸ¬ ì˜¤ì„¸ìš” ^..^
â €
â° AM 11:00 ~ PM 10:30
ðŸ¢ ì œì£¼íŠ¹ë³„ìžì¹˜ë„ ì œì£¼ì‹œ ì• ì›”ìì• ì›”í•´ì•ˆë¡œ 384
â˜Ž 064-799-1711
ðŸšš í¬ìž¥ ë‹¨ì²´ì£¼ë¬¸ ì£¼ì°¨ ê°€ëŠ¥
ðŸŒhttp://namddori.co.kr/
â €
#ì œì£¼ë„íšŸì§‘ #ì œì£¼ë„íšŸì§‘ì¶”ì²œ #ì• ì›”íšŸì§‘ #ì• ì›”íšŸì§‘ì¶”ì²œ #ì œì£¼íšŸì§‘ #ì œì£¼ë‹¤ê¸ˆë°”ë¦¬
#ì œì£¼ë„ì• ì›” #ì• ì›”í•´ì•ˆë„ë¡œ #ì• ì›”í•´ì•ˆë„ë¡œë§›ì§‘ #ì• ì›”í•´ì•ˆë„ë¡œíšŸì§‘ #ì œì£¼ë„ë‹¤ê¸ˆë°”ë¦¬
#ì œì£¼ #ì œì£¼ë„ì—¬í–‰ #ì œì£¼ë„ê°€ë³¼ë§Œí•œê³³ #ì œì£¼ë„ì¶”ì²œ #ì œì£¼ë„ë¯¼ #ë„ë¯¼ë§›ì§‘
#ì†Œí†µí•´ìš” #ì¢‹ì•„ìš”ë°˜ì‚¬ #ì¢‹ì•„ìš”í…ŒëŸ¬ #ì¢‹ë°˜ #ì„ íŒ”ë§žíŒ” #ì„ íŒ” #ë§žíŒ” #ì„ íŒ”í•˜ë©´ë§žíŒ”","['ë‚¨ë˜ë¦¬íšŸì§‘', 'ì œì£¼ë„íšŸì§‘', 'ì œì£¼ë„íšŸì§‘ì¶”ì²œ', 'ì• ì›”íšŸì§‘', 'ì• ì›”íšŸì§‘ì¶”ì²œ', 'ì œì£¼íšŸì§‘', 'ì œì£¼ë‹¤ê¸ˆë°”ë¦¬', 'ì œì£¼ë„ì• ì›”', 'ì• ì›”í•´ì•ˆë„ë¡œ', 'ì• ì›”í•´ì•ˆë„ë¡œë§›ì§‘', 'ì• ì›”í•´ì•ˆë„ë¡œíšŸì§‘', 'ì œì£¼ë„ë‹¤ê¸ˆë°”ë¦¬', 'ì œì£¼', 'ì œì£¼ë„ì—¬í–‰', 'ì œì£¼ë„ê°€ë³¼ë§Œí•œê³³', 'ì œì£¼ë„ì¶”ì²œ', 'ì œì£¼ë„ë¯¼', 'ë„ë¯¼ë§›ì§‘', 'ì†Œí†µí•´ìš”', 'ì¢‹ì•„ìš”ë°˜ì‚¬', 'ì¢‹ì•„ìš”í…ŒëŸ¬', 'ì¢‹ë°˜', 'ì„ íŒ”ë§žíŒ”', 'ì„ íŒ”', 'ë§žíŒ”', 'ì„ íŒ”í•˜ë©´ë§žíŒ”']",ì• ì›”í•´ì•ˆë„ë¡œ,ì œì£¼íŠ¹ë³„ìžì¹˜ë„ ì œì£¼ì‹œ ì• ì›”ì ì‹ ì—„ë¦¬ 2719-3,126.36867872098,33.4781232943703
284,https://www.instagram.com/p/CH9__bOgfCn/,2020-11-24T09:38:54.000Z,jeju_blackcattle,"[ ê²€ì€ì‡ ëª°ê³ ì˜¤ëŠ” BY.JEJU ]
â €
ì œì£¼ë„ì— ë†€ëŸ¬ì˜¤ì‹œë©´
ì €í¬ #ê²€ì€ì‡ ëª°ê³ ì˜¤ëŠ” ìœ¼ë¡œ
ì˜¤ì…”ì„œ ì œì£¼í‘ìš° ê¼­ ë“œì…”ë³´ì„¸ìš” !
â €
â° AM 11:00 ~ PM 24:00
ðŸ¢ ì œì£¼íŠ¹ë³„ìžì¹˜ë„ ì œì£¼ì‹œ ì‹ ëŒ€ë¡œ 20ê¸¸ 27
â˜Ž 064-712-1692
ðŸšš í¬ìž¥ ë‹¨ì²´ì£¼ë¬¸ ì£¼ì°¨ ê°€ëŠ¥
ðŸŒhttp://www.snname.com/blackbeef
â €
#ì œì£¼ë„í‘ìš° #ì œì£¼ë„í‘ìš°ë§›ì§‘ #í‘ìš°ë§›ì§‘ #ì œì£¼í‘ìš°ë§›ì§‘ #ì œì£¼ê³µí•­
#ì œì£¼ê³µí•­ê·¼ì²˜ë§›ì§‘ #ì œì£¼ê³µí•­ê·¼ì²˜ #ì œì£¼ë„ì½”ìŠ¤ìš”ë¦¬ #ì œì£¼ë„ë§›ì§‘ #ì œì£¼ë§›ì§‘
#ì œì£¼ #ì œì£¼ë„ì—¬í–‰ #ì œì£¼ë„ê°€ë³¼ë§Œí•œê³³ #ì œì£¼ë„ì¶”ì²œ #ì œì£¼ë„ë¯¼ #ë„ë¯¼ë§›ì§‘
#ì†Œí†µí•´ìš” #ì¢‹ì•„ìš”ë°˜ì‚¬ #ì¢‹ì•„ìš”í…ŒëŸ¬ #ì¢‹ë°˜ #ì„ íŒ”ë§žíŒ” #ì„ íŒ” #ë§žíŒ” #ì„ íŒ”í•˜ë©´ë§žíŒ”","['ê²€ì€ì‡ ëª°ê³ ì˜¤ëŠ”', 'ì œì£¼ë„í‘ìš°', 'ì œì£¼ë„í‘ìš°ë§›ì§‘', 'í‘ìš°ë§›ì§‘', 'ì œì£¼í‘ìš°ë§›ì§‘', 'ì œì£¼ê³µí•­', 'ì œì£¼ê³µí•­ê·¼ì²˜ë§›ì§‘', 'ì œì£¼ê³µí•­ê·¼ì²˜', 'ì œì£¼ë„ì½”ìŠ¤ìš”ë¦¬', 'ì œì£¼ë„ë§›ì§‘', 'ì œì£¼ë§›ì§‘', 'ì œì£¼', 'ì œì£¼ë„ì—¬í–‰', 'ì œì£¼ë„ê°€ë³¼ë§Œí•œê³³', 'ì œì£¼ë„ì¶”ì²œ', 'ì œì£¼ë„ë¯¼', 'ë„ë¯¼ë§›ì§‘', 'ì†Œí†µí•´ìš”', 'ì¢‹ì•„ìš”ë°˜ì‚¬', 'ì¢‹ì•„ìš”í…ŒëŸ¬', 'ì¢‹ë°˜', 'ì„ íŒ”ë§žíŒ”', 'ì„ íŒ”', 'ë§žíŒ”', 'ì„ íŒ”í•˜ë©´ë§žíŒ”']",ê²€ì€ì‡ ëª°ê³ ì˜¤ëŠ”,ì œì£¼íŠ¹ë³„ìžì¹˜ë„ ì œì£¼ì‹œ ì—°ë™ 296-7,126.493362287994,33.4835678868142
290,https://www.instagram.com/p/CH9_w6qDblb/,2020-11-24T09:36:05.000Z,ssangdoongi_jeju,"[ ìŒë‘¥ì´íšŸì§‘ BY.JEJU ]
â €
ì œì£¼ë„ì— ë†€ëŸ¬ì˜¤ì‹œë©´
ì €í¬ #ìŒë‘¥ì´íšŸì§‘ ìœ¼ë¡œ
ë§›ìžˆëŠ” íšŒ ë“œì‹œëŸ¬ ì˜¤ì„¸ìš” ^..^
â €
â° AM 11:00 ~ PM 11:30
ðŸ¢ ì œì£¼íŠ¹ë³„ìžì¹˜ë„ ì„œê·€í¬ì‹œ ì¤‘ì •ë¡œ 62ë²ˆê¸¸ 14
â˜Ž 064-762-0478
ðŸšš ë‹¨ì²´ì£¼ë¬¸ ì£¼ì°¨ ê°€ëŠ¥
ðŸŒssangdoongi.snname.com
â €
#ì œì£¼ë„íšŸì§‘ #ì œì£¼ë„íšŸì§‘ì¶”ì²œ #ì„œê·€í¬íšŸì§‘ #ì„œê·€í¬íšŸì§‘ì¶”ì²œ #ì œì£¼íšŸì§‘ #ì œì£¼íšŸì§‘ì¶”ì²œ
#ì œì£¼ë„ì„œê·€í¬ #ì„œê·€í¬ #ì„œê·€í¬ë§›ì§‘ #ì œì£¼ë„ì„œê·€í¬íšŸì§‘ #ë„ë¯¼íšŸì§‘
#ì œì£¼ #ì œì£¼ë„ì—¬í–‰ #ì œì£¼ë„ê°€ë³¼ë§Œí•œê³³ #ì œì£¼ë„ì¶”ì²œ #ì œì£¼ë„ë¯¼ #ë„ë¯¼ë§›ì§‘
#ì†Œí†µí•´ìš” #ì¢‹ì•„ìš”ë°˜ì‚¬ #ì¢‹ì•„ìš”í…ŒëŸ¬ #ì¢‹ë°˜ #ì„ íŒ”ë§žíŒ” #ì„ íŒ” #ë§žíŒ” #ì„ íŒ”í•˜ë©´ë§žíŒ”","['ìŒë‘¥ì´íšŸì§‘', 'ì œì£¼ë„íšŸì§‘', 'ì œì£¼ë„íšŸì§‘ì¶”ì²œ', 'ì„œê·€í¬íšŸì§‘', 'ì„œê·€í¬íšŸì§‘ì¶”ì²œ', 'ì œì£¼íšŸì§‘', 'ì œì£¼íšŸì§‘ì¶”ì²œ', 'ì œì£¼ë„ì„œê·€í¬', 'ì„œê·€í¬', 'ì„œê·€í¬ë§›ì§‘', 'ì œì£¼ë„ì„œê·€í¬íšŸì§‘', 'ë„ë¯¼íšŸì§‘', 'ì œì£¼', 'ì œì£¼ë„ì—¬í–‰', 'ì œì£¼ë„ê°€ë³¼ë§Œí•œê³³', 'ì œì£¼ë„ì¶”ì²œ', 'ì œì£¼ë„ë¯¼', 'ë„ë¯¼ë§›ì§‘', 'ì†Œí†µí•´ìš”', 'ì¢‹ì•„ìš”ë°˜ì‚¬', 'ì¢‹ì•„ìš”í…ŒëŸ¬', 'ì¢‹ë°˜', 'ì„ íŒ”ë§žíŒ”', 'ì„ íŒ”', 'ë§žíŒ”', 'ì„ íŒ”í•˜ë©´ë§žíŒ”']",ì„œê·€í¬ ìŒë‘¥ì´ íšŸì§‘,ì œì£¼íŠ¹ë³„ìžì¹˜ë„ ì„œê·€í¬ì‹œ ì„œê·€ë™ 496-18,126.562927484565,33.2465677180323
292,https://www.instagram.com/p/CH9_n8CFBl6/,2020-11-24T09:34:51.000Z,jeju_itsuda,"[ITSUDA - ì œì£¼ ê³µë°©]
â €
#ì œì£¼ìž‡ìˆ˜ë‹¤ ì—ì„œ
ì§ì ‘ì œìž‘í•˜ëŠ”
ì œì£¼ë„ìº”ë“¤ !
â €
ì œì£¼ì˜ ì¶”ì–µì„ ìž‡ìˆ˜ë‹¤ì—ì„œ ë‹´ì•„ê°€ì„¸ìš” : )
â €
â° ì—°ì¤‘ë¬´íœ´ AM 09:00 ~ PM 21:00
ðŸ¢ ì œì£¼íŠ¹ë³„ìžì¹˜ë„ ì œì£¼ì‹œ ë…¸í˜•ë¡œ 336(í•œë¼ëŒ€í•™ìž…êµ¬ ì‚¬ê±°ë¦¬)
â˜Ž 010-4794-4060
ðŸšš ì „êµ­ íƒë°° ë°°ì†¡ ê°€ëŠ¥
ðŸŒ http://smartstore.naver.com/jejuitsuda
â €
#ì œì£¼ë„ìº”ë“¤ #ì œì£¼ìº”ë“¤ #ì œì£¼ë„ìº”ë“¤ê°€ê²Œ #ì œì£¼ë„ì„ ë¬¼ê°€ê²Œ #ì œì£¼ë„ë°”ë‹¤ìº”ë“¤
#ì œì£¼ë„í•œë¼ë´‰ #í•œë¼ë´‰ìº”ë“¤ #ì œì£¼ë„ì„ ë¬¼ #ì œì£¼ë„ì—¬í–‰ì„ ë¬¼ #ì œì£¼ì—¬í–‰ì„ ë¬¼
#ì œì£¼ #ì œì£¼ë„ì—¬í–‰ #ì œì£¼ë„ê°€ë³¼ë§Œí•œê³³ #ì œì£¼ë„ì¶”ì²œ #ì œì£¼ë„ë¯¼ #ë„ë¯¼ë§›ì§‘
#ì†Œí†µí•´ìš” #ì¢‹ì•„ìš”ë°˜ì‚¬ #ì¢‹ì•„ìš”í…ŒëŸ¬ #ì¢‹ë°˜ #ì„ íŒ”ë§žíŒ” #ì„ íŒ” #ë§žíŒ” #ì„ íŒ”í•˜ë©´ë§žíŒ”
â €","['ì œì£¼ìž‡ìˆ˜ë‹¤', 'ì œì£¼ë„ìº”ë“¤', 'ì œì£¼ìº”ë“¤', 'ì œì£¼ë„ìº”ë“¤ê°€ê²Œ', 'ì œì£¼ë„ì„ ë¬¼ê°€ê²Œ', 'ì œì£¼ë„ë°”ë‹¤ìº”ë“¤', 'ì œì£¼ë„í•œë¼ë´‰', 'í•œë¼ë´‰ìº”ë“¤', 'ì œì£¼ë„ì„ ë¬¼', 'ì œì£¼ë„ì—¬í–‰ì„ ë¬¼', 'ì œì£¼ì—¬í–‰ì„ ë¬¼', 'ì œì£¼', 'ì œì£¼ë„ì—¬í–‰', 'ì œì£¼ë„ê°€ë³¼ë§Œí•œê³³', 'ì œì£¼ë„ì¶”ì²œ', 'ì œì£¼ë„ë¯¼', 'ë„ë¯¼ë§›ì§‘', 'ì†Œí†µí•´ìš”', 'ì¢‹ì•„ìš”ë°˜ì‚¬', 'ì¢‹ì•„ìš”í…ŒëŸ¬', 'ì¢‹ë°˜', 'ì„ íŒ”ë§žíŒ”', 'ì„ íŒ”', 'ë§žíŒ”', 'ì„ íŒ”í•˜ë©´ë§žíŒ”']",ì œì£¼ìž‡ìˆ˜ë‹¤,ì œì£¼íŠ¹ë³„ìžì¹˜ë„ ì œì£¼ì‹œ ë…¸í˜•ë™ 3806-5,126.47309812355947,33.48105089567015
294,https://www.instagram.com/p/CH9_iBuHhkO/,2020-11-24T09:34:03.000Z,jeju_boodoo,"[ ë¶€ë‘ì‹ë‹¹ BY.JEJU ]

ì œì£¼ë„ì— ë†€ëŸ¬ì˜¤ì‹œë©´
ì €í¬ #ë¶€ë‘ì‹ë‹¹ ìœ¼ë¡œ
ë§›ìžˆëŠ” ì‹ì‚¬ ë“œì‹œëŸ¬ ì˜¤ì„¸ìš” ^..^

#ëŒ€ë°©ì–´
#ë°©ì–´
#ë°©ì–´ì¶•ì œ
#ë°©ì–´ë§›ì§‘
#ëŒ€ë°©ì–´ë§›ì§‘

â° AM 8:30 ~ PM 21:30 ëª©ìš”ì¼íœ´ë¬´
ðŸ¢ ì œì£¼íŠ¹ë³„ìžì¹˜ë„ ì„œê·€í¬ì‹œ ëŒ€ì •ì í•˜ëª¨í•­êµ¬ë¡œ 62
â˜Ž 064-794-1223
ðŸšš í¬ìž¥ ë‹¨ì²´ì£¼ë¬¸ ì£¼ì°¨ ê°€ëŠ¥

#ì œì£¼ë„íšŸì§‘ #ì œì£¼ë„íšŸì§‘ì¶”ì²œ #ëª¨ìŠ¬í¬ #ëª¨ìŠ¬í¬íšŸì§‘ #ì œì£¼ë„ë°”ë‹¤ì „ë§íšŸì§‘
#ì œì£¼ë„ë°©ì–´ #ì œì£¼ë„ë°©ì–´ì¶•ì œ #ë°©ì–´ #ì œì£¼ë„ëŒ€ë°©ì–´ #ì œì£¼ë„ë°©ì–´ë§›ì§‘ #ì œì£¼ë„ë¶€ë‘
#ì œì£¼ #ì œì£¼ë„ì—¬í–‰ #ì œì£¼ë„ê°€ë³¼ë§Œí•œê³³ #ì œì£¼ë„ì¶”ì²œ #ì œì£¼ë„ë¯¼ #ë„ë¯¼ë§›ì§‘
#ì†Œí†µí•´ìš” #ì¢‹ì•„ìš”ë°˜ì‚¬ #ì¢‹ì•„ìš”í…ŒëŸ¬ #ì¢‹ë°˜ #ì„ íŒ”ë§žíŒ” #ì„ íŒ” #ë§žíŒ” #ì„ íŒ”í•˜ë©´ë§žíŒ”","['ë¶€ë‘ì‹ë‹¹', 'ëŒ€ë°©ì–´', 'ë°©ì–´', 'ë°©ì–´ì¶•ì œ', 'ë°©ì–´ë§›ì§‘', 'ëŒ€ë°©ì–´ë§›ì§‘', 'ì œì£¼ë„íšŸì§‘', 'ì œì£¼ë„íšŸì§‘ì¶”ì²œ', 'ëª¨ìŠ¬í¬', 'ëª¨ìŠ¬í¬íšŸì§‘', 'ì œì£¼ë„ë°”ë‹¤ì „ë§íšŸì§‘', 'ì œì£¼ë„ë°©ì–´', 'ì œì£¼ë„ë°©ì–´ì¶•ì œ', 'ë°©ì–´', 'ì œì£¼ë„ëŒ€ë°©ì–´', 'ì œì£¼ë„ë°©ì–´ë§›ì§‘', 'ì œì£¼ë„ë¶€ë‘', 'ì œì£¼', 'ì œì£¼ë„ì—¬í–‰', 'ì œì£¼ë„ê°€ë³¼ë§Œí•œê³³', 'ì œì£¼ë„ì¶”ì²œ', 'ì œì£¼ë„ë¯¼', 'ë„ë¯¼ë§›ì§‘', 'ì†Œí†µí•´ìš”', 'ì¢‹ì•„ìš”ë°˜ì‚¬', 'ì¢‹ì•„ìš”í…ŒëŸ¬', 'ì¢‹ë°˜', 'ì„ íŒ”ë§žíŒ”', 'ì„ íŒ”', 'ë§žíŒ”', 'ì„ íŒ”í•˜ë©´ë§žíŒ”']",ë¶€ë‘ì‹ë‹¹,ì œì£¼íŠ¹ë³„ìžì¹˜ë„ ì„œê·€í¬ì‹œ ëŒ€ì •ì í•˜ëª¨ë¦¬ 770-9,126.25100729349,33.2189264451744
306,https://www.instagram.com/p/CH9_IT5Bs4W/,2020-11-24T09:30:32.000Z,younghee_h,"ìš°ë„
í•´ë¬¼ì§¬ë½•
í†³ ì§œìž¥ðŸœ

#ì œì£¼ #ìš°ë„ #ì‹ í–‰ #í–‰ë³µ #ì—¬í–‰ #ì¹´íŽ˜íˆ¬ì–´ #ì¹´íŽ˜ #ì¼ìƒ #ë°”ë‹¤ #ì œì£¼ë„ #ìš°ë„ì§¬ë½• #ìš°ë„ì§œìž¥ë©´ #ì§œìž¥ë©´ #ì§¬ë½•ë§›ì§‘ #ìš°ë„ì‚°í˜¸ë°˜ì ","['ì œì£¼', 'ìš°ë„', 'ì‹ í–‰', 'í–‰ë³µ', 'ì—¬í–‰', 'ì¹´íŽ˜íˆ¬ì–´', 'ì¹´íŽ˜', 'ì¼ìƒ', 'ë°”ë‹¤', 'ì œì£¼ë„', 'ìš°ë„ì§¬ë½•', 'ìš°ë„ì§œìž¥ë©´', 'ì§œìž¥ë©´', 'ì§¬ë½•ë§›ì§‘', 'ìš°ë„ì‚°í˜¸ë°˜ì ']",ìš°ë„ ì‚°í˜¸ë°˜ì ,ì œì£¼íŠ¹ë³„ìžì¹˜ë„ ì œì£¼ì‹œ ìš°ë„ë©´ ì—°í‰ë¦¬ 2516-2,126.94374285460731,33.50261826862432
307,https://www.instagram.com/p/CH9_IMIBy-0/,2020-11-24T09:30:31.000Z,jandi_visiting,"ë…¹ìƒ‰ì¹´íŽ˜, ì‹ë¬¼ì¹´íŽ˜ë¥¼ ì§€í–¥í•˜ëŠ” ë…¹ìƒ‰ì„ ì¢‹ì•„í•´
ë…¹ìƒ‰ë©”ë‰´ë§Œ ì—°êµ¬í•™ê³  ë§Œë“œëŠ” ðŸ¥’ðŸ¥¦ðŸ¥¬ðŸðŸ¥

#ìž”ë””ê³µìž¥ë°©ë¬¸ìž ê°€ ë˜ì–´ ì£¼ì…”ì„œ ê°ì‚¬í•©ë‹ˆë‹¤ðŸŒ±
#ì œì£¼ë„ #ì„±ì‚°ì¹´íŽ˜ #ìž”ë””ê³µìž¥
.
âœ…ì„œê·€í¬ì‹œ ì„±ì‚°ì ì¼ì£¼ë™ë¡œ5154ë²ˆê¸¸ 5
âœ…OPEN 11:00 ~ 19:00
âœ…YES ì• ê²¬ë™ë°˜ê°€ëŠ¥í•œì§‘ ðŸ¶ YES í‚¤ë“œì¡´ ðŸ‘¶ðŸ»
.
ðŸŒ±ë©”ë‰´ì„ íƒ ì‹¤íŒ¨1ë„ ì—†ëŠ” ë§›ìžˆëŠ” ì¹´íŽ˜ ðŸŒ± #jmt
ðŸ¤©ìž”ë””ìš°ìœ  6.5
ðŸ˜‹ìž”ë””ìŠ¤ë¬´ë”” 8.5
ðŸ˜ìƒˆì½¤í•˜ë‹¤ì—ì´ë“œ 6.5
ðŸ¥°ìž”ë””ìž¼í† ìŠ¤íŠ¸ 4.5
.
â€¼ï¸í‘œì„ ì—ì„œ ì„±ì‚°ê°€ëŠ” ê¸¸ ì„±ì‚°ì—ì„œ í‘œì„ ê°€ëŠ” ê¸¸
ðŸš—ðŸš•ðŸš™ðŸšŒðŸšŽ ðŸš—ðŸŽðŸ›´ðŸššðŸš’ðŸš›ðŸš›
.
#ì œì£¼ #ì„œê·€í¬ #ì œì£¼ë„ì—¬í–‰ #ì œì£¼ì‚´ì´ #ì œì£¼ë„ê²ŒìŠ¤íŠ¸í•˜ìš°ìŠ¤ #ë„ë‘í•´ì•ˆë„ë¡œ #í•œë‹´í•´ë³€ #í˜‘ìž¬í•´ìˆ˜ìš•ìž¥ #ì œì£¼ë„í•«í”Œ #ì„±ì‚°ë§›ì§‘ #ì„œê·€í¬ë§›ì§‘ #ì• ì›”ë§›ì§‘ #í•œë‹´ë§›ì§‘ #ê³½ì§€ë§›ì§‘ #í˜‘ìž¬ë§›ì§‘ #í•œë¦¼ë§›ì§‘ #ëŒ€ì •ë§›ì§‘ #í˜‘ìž¬ì¹´íŽ˜ #ì• ì›”ì¹´íŽ˜","['ìž”ë””ê³µìž¥ë°©ë¬¸ìž', 'ì œì£¼ë„', 'ì„±ì‚°ì¹´íŽ˜', 'ìž”ë””ê³µìž¥', 'jmt', 'ì œì£¼', 'ì„œê·€í¬', 'ì œì£¼ë„ì—¬í–‰', 'ì œì£¼ì‚´ì´', 'ì œì£¼ë„ê²ŒìŠ¤íŠ¸í•˜ìš°ìŠ¤', 'ë„ë‘í•´ì•ˆë„ë¡œ', 'í•œë‹´í•´ë³€', 'í˜‘ìž¬í•´ìˆ˜ìš•ìž¥', 'ì œì£¼ë„í•«í”Œ', 'ì„±ì‚°ë§›ì§‘', 'ì„œê·€í¬ë§›ì§‘', 'ì• ì›”ë§›ì§‘', 'í•œë‹´ë§›ì§‘', 'ê³½ì§€ë§›ì§‘', 'í˜‘ìž¬ë§›ì§‘', 'í•œë¦¼ë§›ì§‘', 'ëŒ€ì •ë§›ì§‘', 'í˜‘ìž¬ì¹´íŽ˜', 'ì• ì›”ì¹´íŽ˜']",ìž”ë””ê³µìž¥,ì œì£¼íŠ¹ë³„ìžì¹˜ë„ ì„œê·€í¬ì‹œ ì„±ì‚°ì ì‹ ì‚°ë¦¬ 1073-9,126.873289850307,33.3774305792331
308,https://www.instagram.com/p/CH9-36qjdVX/,2020-11-24T09:28:28.000Z,hyeobjaejin,"ì˜¤ëŠ˜ì€ ë§¤ìš´ê±° ë¶ˆë‹­ì´ë‹·

í˜‘ìž¬1ë²ˆê°€ ë¶ˆë‹­â™¡

#í˜‘ìž¬#ì œì£¼ë„#ë°”ë‹¤
#ì œì£¼#í˜‘ìž¬ê²ŒìŠ¤íŠ¸í•˜ìš°ìŠ¤#ê°ì„±í¬ì°¨
#í˜‘ìž¬1ë²ˆê°€#ì œì£¼ë„ìˆ ì§‘#í˜‘ìž¬ë§›ì§‘
#ì œì£¼ìˆ ì§‘#ì œì£¼ì—¬í–‰#ì œì£¼ë„ì—¬í–‰
#jeju#ì¹´íŽ˜#ì œì£¼ì¹´íŽ˜#ì œì£¼ë§›ì§‘
#ì œì£¼ë„ë©‹ì§‘#ì œì£¼#ë·°#ì¤‘ë¬¸
#ì„œê·€í¬#ì„±ì‚°#ì œì£¼ì„œìª½
#í˜‘ìž¬ìˆ ì§‘#í˜‘ìž¬ìˆ ì§‘ì¶”ì²œ
#í˜‘ìž¬ìˆ ì§‘â¤ #í˜‘ìž¬ìž…ë‹ˆë‹¤","['í˜‘ìž¬', 'ì œì£¼ë„', 'ë°”ë‹¤', 'ì œì£¼', 'í˜‘ìž¬ê²ŒìŠ¤íŠ¸í•˜ìš°ìŠ¤', 'ê°ì„±í¬ì°¨', 'í˜‘ìž¬1ë²ˆê°€', 'ì œì£¼ë„ìˆ ì§‘', 'í˜‘ìž¬ë§›ì§‘', 'ì œì£¼ìˆ ì§‘', 'ì œì£¼ì—¬í–‰', 'ì œì£¼ë„ì—¬í–‰', 'jeju', 'ì¹´íŽ˜', 'ì œì£¼ì¹´íŽ˜', 'ì œì£¼ë§›ì§‘', 'ì œì£¼ë„ë©‹ì§‘', 'ì œì£¼', 'ë·°', 'ì¤‘ë¬¸', 'ì„œê·€í¬', 'ì„±ì‚°', 'ì œì£¼ì„œìª½', 'í˜‘ìž¬ìˆ ì§‘', 'í˜‘ìž¬ìˆ ì§‘ì¶”ì²œ', 'í˜‘ìž¬ìˆ ì§‘', 'í˜‘ìž¬ìž…ë‹ˆë‹¤']",í˜‘ìž¬1ë²ˆê°€ìˆ ì§‘ë°¥ì§‘,ì œì£¼íŠ¹ë³„ìžì¹˜ë„ ì œì£¼ì‹œ í•œë¦¼ì í˜‘ìž¬ë¦¬ 1728,126.24216053732899,33.395604683838634
313,https://www.instagram.com/p/CH9-yUkp_3R/,2020-11-24T09:27:32.000Z,godyaosdy,"ì˜¤ëžœë§Œì— ëª½ìƒë“œì• ì›”ì„ ì§€ë‚˜ í•˜ì´ì—”ë“œ ì œì£¼ì—ì„œ ì†Œê¸ˆì»¤í”¼ í•œìž”~ ë…¸ì„ê³¼ ì„ì–‘ì€ ë³´ë„ˆìŠ¤!!ðŸ‘

#ì œì£¼ì‹œë§›ì§‘ #ì œì£¼ì‚´ì´ #ì œì£¼ë¼ì´í”„ #ì œì£¼ì¹´íŽ˜ #ì œì£¼ë„ë§›ì§‘ #ì œì£¼ê°€ë³¼ë§Œí•œê³³ #ì œì£¼ì¼ìƒ #ì œì£¼ë„ #ì œì£¼ë§›ì§‘ #ì œì£¼ë„ê°€ë³¼ë§Œí•œê³³ #ì œì£¼ë„í•œë‹¬ì‚´ê¸° #ì œì£¼ #ì œì£¼ë„ì¹´íŽ˜ #ì„ íŒ”ë§žíŒ” #ì„ íŒ” #ë§žíŒ” #ì„ íŒ”í•˜ë©´ë§žíŒ” #ì•ˆì•Œëž´ì¤Œ #ì†Œí†µí•´ìš” #ì†Œí†µ #ì†Œí†µí™˜ì˜ #ì†Œí†µìŠ¤íƒ€ê·¸ëž¨ #ì œì£¼ëšœë²…ì´ì—¬í–‰ #ì œì£¼ì˜¬ë ˆê¸¸ #ì• ì›”ì #í•˜ì´ì—”ë“œì œì£¼ #ëª½ìƒë“œì• ì›”","['ì œì£¼ì‹œë§›ì§‘', 'ì œì£¼ì‚´ì´', 'ì œì£¼ë¼ì´í”„', 'ì œì£¼ì¹´íŽ˜', 'ì œì£¼ë„ë§›ì§‘', 'ì œì£¼ê°€ë³¼ë§Œí•œê³³', 'ì œì£¼ì¼ìƒ', 'ì œì£¼ë„', 'ì œì£¼ë§›ì§‘', 'ì œì£¼ë„ê°€ë³¼ë§Œí•œê³³', 'ì œì£¼ë„í•œë‹¬ì‚´ê¸°', 'ì œì£¼', 'ì œì£¼ë„ì¹´íŽ˜', 'ì„ íŒ”ë§žíŒ”', 'ì„ íŒ”', 'ë§žíŒ”', 'ì„ íŒ”í•˜ë©´ë§žíŒ”', 'ì•ˆì•Œëž´ì¤Œ', 'ì†Œí†µí•´ìš”', 'ì†Œí†µ', 'ì†Œí†µí™˜ì˜', 'ì†Œí†µìŠ¤íƒ€ê·¸ëž¨', 'ì œì£¼ëšœë²…ì´ì—¬í–‰', 'ì œì£¼ì˜¬ë ˆê¸¸', 'ì• ì›”ì', 'í•˜ì´ì—”ë“œì œì£¼', 'ëª½ìƒë“œì• ì›”']",í•˜ì´ì—”ë“œ ì œì£¼,ì œì£¼íŠ¹ë³„ìžì¹˜ë„ ì œì£¼ì‹œ ì• ì›”ì ì• ì›”ë¦¬ 2550-2,126.30917383944714,33.46359065428745
318,https://www.instagram.com/p/CH-ChNtj6lZ/,2020-11-24T10:00:09.000Z,k.kku_,"#ë„ì¿¨í•˜ëˆŒê°€ë“  #ì˜¤ë¦¬íƒ•
ì—¬ê¸° ë„ì²­ë’¤ìª½ì—ë„ ìƒê²¼ì–´ìš”!!
ë§›ìžˆì–´ðŸ‘ðŸ»ðŸ‘ðŸ»ì–‘ë„ í‘¸ì§
#ë„ë¯¼ë§›ì§‘

#ì œì£¼ë„#ì œì£¼#ì˜¤ë“±ë™#ì œì£¼ë§›ì§‘#ì œì£¼ì˜¤ë¦¬íƒ•#ì œì£¼ë„ë¯¼ë§›ì§‘#ì œì£¼ì‹œë§›ì§‘#ì œì£¼ë§›ì§‘#ì œì£¼ë„ë§›ì§‘#ì œì£¼ë„ì²­ë§›ì§‘#ì—°ë™#ì—°ë™ë§›ì§‘#ì—°ë™ì˜¤ë¦¬íƒ•","['ë„ì¿¨í•˜ëˆŒê°€ë“ ', 'ì˜¤ë¦¬íƒ•', 'ë„ë¯¼ë§›ì§‘', 'ì œì£¼ë„', 'ì œì£¼', 'ì˜¤ë“±ë™', 'ì œì£¼ë§›ì§‘', 'ì œì£¼ì˜¤ë¦¬íƒ•', 'ì œì£¼ë„ë¯¼ë§›ì§‘', 'ì œì£¼ì‹œë§›ì§‘', 'ì œì£¼ë§›ì§‘', 'ì œì£¼ë„ë§›ì§‘', 'ì œì£¼ë„ì²­ë§›ì§‘', 'ì—°ë™', 'ì—°ë™ë§›ì§‘', 'ì—°ë™ì˜¤ë¦¬íƒ•']",ë„ì¿¨í•˜ëˆŒê°€ë“ ,ì œì£¼íŠ¹ë³„ìžì¹˜ë„ ì œì£¼ì‹œ ì•„ë¼ì¼ë™ 2898-2,126.532326222913,33.4760322387748
339,https://www.instagram.com/p/CH-BROyB7At/,2020-11-24T09:49:14.000Z,he_ond,"ë¯¸ì˜ì´ë„¤ ì˜†ì§‘ë„ ë§›ìžˆì—ˆë‹¤â˜º ì¸„ë¦…

#ì œì£¼ #ì œì£¼ì—¬í–‰ #ëª¨ìŠ¬í¬ #ë§Œì„ ì‹ë‹¹ #ì„œê·€í¬ #ìŠ¤íƒ€ë²…ìŠ¤ #ì œì£¼ê¹Œë§ë¼ë–¼ #ìˆ˜í¬ì‹ë‹¹ #Jeju #JejuIsland #sashimi #foodie #foodporn #starbucks #cafe #cafetour #travel #travelgram #instatravel","['ì œì£¼', 'ì œì£¼ì—¬í–‰', 'ëª¨ìŠ¬í¬', 'ë§Œì„ ì‹ë‹¹', 'ì„œê·€í¬', 'ìŠ¤íƒ€ë²…ìŠ¤', 'ì œì£¼ê¹Œë§ë¼ë–¼', 'ìˆ˜í¬ì‹ë‹¹', 'Jeju', 'JejuIsland', 'sashimi', 'foodie', 'foodporn', 'starbucks', 'cafe', 'cafetour', 'travel', 'travelgram', 'instatravel']",ëª¨ìŠ¬í¬í•­ ë§Œì„ ì‹ë‹¹,ì œì£¼íŠ¹ë³„ìžì¹˜ë„ ì„œê·€í¬ì‹œ ëŒ€ì •ì í•˜ëª¨ë¦¬ 770-50,126.249810687304,33.2178625441496
366,https://www.instagram.com/p/CH-Do8hhZS2/,2020-11-24T10:09:57.000Z,sunshine_seoul_,"ê³ ë“±ì–´ì¡°ë¦¼ ëŒì†¥ë°¥ ëˆ„ë£½ì§€ ðŸ™ŒðŸ»
#ëˆ„ë£½ì§€ì‹ë‹¹ #ì œì£¼ ë˜ ê°€ê³  ì‹¶ë‹¤","['ëˆ„ë£½ì§€ì‹ë‹¹', 'ì œì£¼']",ëˆ„ë£½ì§€ ì‹ë‹¹,ì œì£¼íŠ¹ë³„ìžì¹˜ë„ ì œì£¼ì‹œ ì´ë„ì´ë™ 1020-12,126.5319874418984,33.4942161254994
368,https://www.instagram.com/p/CH-DjzzHAaZ/,2020-11-24T10:09:15.000Z,heejinxxz,"#ë¡œë“œ129
#í•œë‹´í•´ì•ˆì‚°ì±…ë¡œ ë„ë³´10ë¶„ðŸŒ´
ì œì£¼ì‚° í‘ë¼ì§€í•¨ë°•ìŠ¤í…Œì´í¬
í‘ë¼ì§€ëˆê¹ŒìŠ¤
ì„±ê²Œí¬ë¦¼íŒŒìŠ¤íƒ€
í•´ë¬¼ì•¼ë¼ì†Œë°” .
.
.
#ì œì£¼ë„ì• ì›”ë§›ì§‘#ì•„ë¥´ë–¼ë®¤ì§€ì—„ #ì• ì›”ë§›ì§‘#ì„±ì‚°ì¼ì¶œë´‰#ì œì£¼ë§›ì§‘ #ì• ì›”#ì‚°ë°©ì‚°ë§›ì§‘#ê³½ì§€í•´ìˆ˜ìš•ìž¥ë§›ì§‘#ì œì£¼ì—¬í–‰#ì œì£¼ì‹œë§›ì§‘#í•œê²½ë©´ë§›ì§‘#í˜‘ìž¬ë§›ì§‘#ì œì£¼í•œë‹¬ì‚´ê¸°#ì œì£¼ë„#ê³½ì§€ë§›ì§‘#ì œì£¼ë„ì¤‘ë¬¸ë§›ì§‘#ì œì£¼ë„ë§›ì§‘ì¶”ì²œ#ì œì£¼ê³µí•­ê·¼ì²˜ë§›ì§‘#ì œì£¼ë„ë§›ì§‘#ìƒˆë³„ì˜¤ë¦„#í˜‘ìž¬í•´ìˆ˜ìš•ìž¥ë§›ì§‘#ì œì£¼ë„ì—¬í–‰#ì œì£¼","['ë¡œë“œ129', 'í•œë‹´í•´ì•ˆì‚°ì±…ë¡œ', 'ì œì£¼ë„ì• ì›”ë§›ì§‘', 'ì•„ë¥´ë–¼ë®¤ì§€ì—„', 'ì• ì›”ë§›ì§‘', 'ì„±ì‚°ì¼ì¶œë´‰', 'ì œì£¼ë§›ì§‘', 'ì• ì›”', 'ì‚°ë°©ì‚°ë§›ì§‘', 'ê³½ì§€í•´ìˆ˜ìš•ìž¥ë§›ì§‘', 'ì œì£¼ì—¬í–‰', 'ì œì£¼ì‹œë§›ì§‘', 'í•œê²½ë©´ë§›ì§‘', 'í˜‘ìž¬ë§›ì§‘', 'ì œì£¼í•œë‹¬ì‚´ê¸°', 'ì œì£¼ë„', 'ê³½ì§€ë§›ì§‘', 'ì œì£¼ë„ì¤‘ë¬¸ë§›ì§‘', 'ì œì£¼ë„ë§›ì§‘ì¶”ì²œ', 'ì œì£¼ê³µí•­ê·¼ì²˜ë§›ì§‘', 'ì œì£¼ë„ë§›ì§‘', 'ìƒˆë³„ì˜¤ë¦„', 'í˜‘ìž¬í•´ìˆ˜ìš•ìž¥ë§›ì§‘', 'ì œì£¼ë„ì—¬í–‰', 'ì œì£¼']",ì• ì›”í•´ì•ˆë„ë¡œ,ì œì£¼íŠ¹ë³„ìžì¹˜ë„ ì œì£¼ì‹œ ì• ì›”ì ì‹ ì—„ë¦¬ 2719-3,126.36867872098,33.4781232943703
400,https://www.instagram.com/p/CH-JS-cD8Ps/,2020-11-24T10:59:23.000Z,woljeongriincafe,"[#ì œì£¼ #ì›”ì •ë¦¬ #ì›”ì •ë¦¬ì¸ì¹´íŽ˜ #íŒ¨ì…˜ì˜¤ë¸Œí¬ë¼ì´ìŠ¤ êµ¿ì¦ˆì „ì‹œ 3ì¸µì—]

#passionofchrist #dvd #book #ost cdì™€ ê°€ì‚¬ì§‘

ì œê°€ ê¸°ë…ë¬¸í™” ì¢‹ì•„í•´ì„œ ê¸°ë…ì˜í™” ê¸°ë…ë®¤ì§€ì»¬ë„ ë§Žì´ë³´ê³  êµ¿ì¦ˆë„ ëª¨ì•˜ëŠ”ë° 3ì¸µì— ê¸°ë…ë¬¸í™” ê´€ë ¨ êµ¿ì¦ˆë“¤ ëª¨ì•„ì„œ ì „ì‹œí•´ ë†“ì•˜ì–´ìš”

ì„¸íŠ¸ 1 ì•„ë©”ë¦¬ì¹´ë…¸ 2ìž” ì´ˆì½”ì™€í”Œ 1.0
ì„¸íŠ¸ 2 ì•„ë©”ë¦¬ì¹´ë…¸ 2ìž” ì¼€ìµë¥˜1 1.1
ì„¸íŠ¸ 3 ì•„ë©”ë¦¬ì¹´ë…¸ 2ìž” ìŠ¤ì½˜ 9

ì œì£¼ ê·¤ë¥˜ë¡œ ë§Œë“  ë‹¤ì–‘í•œ ìˆ˜ì œì²­ ìŒë£Œ
í•œë¼ë´‰ ì œì£¼ê°ê·¤ í™©ê¸ˆí–¥ ë ˆë“œí–¥ ì²œí˜œí–¥

ê³¼ì¼ 200gì”© ë„£ì–´ ê°ˆì•„ë“œë¦¬ëŠ” ìŠ¤ë¬´ë”” ìš”ê±°íŠ¸ìŠ¤ë¬´ë””

ìŒë£Œì£¼ë¬¸ì‹œ #ì œì£¼ê¸°ë…í’ˆ ì–´ë¦°ì´ì„ ë¬¼ (ìŠ¤í‹°ì»¤ ë©”ëª¨ì§€ ì¹´ë“œ ë”±ì§€) ë“± 2ê°œ ì¦ì • or #ì—°ì˜ˆì¸êµ¿ì¦ˆ (ê°œë´‰ì•¨ë²” ì—½ì„œ ì±… ì¹´ë‹¤ë¡œê·¸ ì±…ê°ˆí”¼ ) 1ê°œ ìƒì‹œ ì¦ì •

ì¦ì •êµ¿ì¦ˆ ì†Œì§„ì—¬ë¶€ëŠ” ì›”ì •ë¦¬ì¸ì¹´íŽ˜ì¦ì •êµ¿ì¦ˆ ì¸ìŠ¤íƒ€ ì°¸ê³ í•´ì£¼ì„¸ìš”

@woljeongriincafefreegoods
#ì¹´íŽ˜ìŠ¤íƒ€ê·¸ëž¨ #cafe #coffeeshop
#ì›”ì •ë¦¬ì¹´íŽ˜ #ì›”ì •ë¦¬í•´ë³€ #ì›”ì •ë¦¬ë°”ë‹¤ #ì›”ì •ë¦¬ì¹´íŽ˜ê±°ë¦¬ #ì›”ì •ë¦¬í•´ìˆ˜ìš•ìž¥ #ì›”ì •ë¦¬ë°”ë‹¤ë·° #ì›”ì •ë¦¬ë§›ì§‘ #ì œì£¼ë„í•«í”Œ #ì œì£¼ê°€ë³¼ë§Œí•œê³³ #ì œì£¼ì—¬í–‰ì½”ìŠ¤ #ì œì£¼ì•„ì´ì™€ê°€ë³¼ë§Œí•œê³³ #kdrama #koreanwave #ì œì£¼ê·¤ë§›ì§‘ #ì œì£¼ë·°ë§›ì§‘ #ì›”ì •ë¦¬ì˜¤ì…˜ë·°ì¹´íŽ˜","['ì œì£¼', 'ì›”ì •ë¦¬', 'ì›”ì •ë¦¬ì¸ì¹´íŽ˜', 'íŒ¨ì…˜ì˜¤ë¸Œí¬ë¼ì´ìŠ¤', 'passionofchrist', 'dvd', 'book', 'ost', 'ì œì£¼ê¸°ë…í’ˆ', 'ì—°ì˜ˆì¸êµ¿ì¦ˆ', 'ì¹´íŽ˜ìŠ¤íƒ€ê·¸ëž¨', 'cafe', 'coffeeshop', 'ì›”ì •ë¦¬ì¹´íŽ˜', 'ì›”ì •ë¦¬í•´ë³€', 'ì›”ì •ë¦¬ë°”ë‹¤', 'ì›”ì •ë¦¬ì¹´íŽ˜ê±°ë¦¬', 'ì›”ì •ë¦¬í•´ìˆ˜ìš•ìž¥', 'ì›”ì •ë¦¬ë°”ë‹¤ë·°', 'ì›”ì •ë¦¬ë§›ì§‘', 'ì œì£¼ë„í•«í”Œ', 'ì œì£¼ê°€ë³¼ë§Œí•œê³³', 'ì œì£¼ì—¬í–‰ì½”ìŠ¤', 'ì œì£¼ì•„ì´ì™€ê°€ë³¼ë§Œí•œê³³', 'kdrama', 'koreanwave', 'ì œì£¼ê·¤ë§›ì§‘', 'ì œì£¼ë·°ë§›ì§‘', 'ì›”ì •ë¦¬ì˜¤ì…˜ë·°ì¹´íŽ˜']",ì›”ì •ë¦¬ì¸ì¹´íŽ˜,ì œì£¼íŠ¹ë³„ìžì¹˜ë„ ì œì£¼ì‹œ êµ¬ì¢Œì ì›”ì •ë¦¬ 594,126.79328046831104,33.5561956278273
418,https://www.instagram.com/p/CH-IXQeDSuT/,2020-11-24T10:51:13.000Z,woljeongriincafe,"[#ì œì£¼ #ì›”ì •ë¦¬ #ì›”ì •ë¦¬ì¸ì¹´íŽ˜
ê·¤ë¹„ì•™ì½” ë‹¹ê·¼ì¼€ì´í¬]

ì°½ ë°–ì— ë³´ì´ëŠ” ë°”ë‹¤ê°€ ë©‹ì§€ë„¤ìš”~~^^
ì„¸íŠ¸ë¡œ ë“œì‹œë©´ ì €ë ´í•˜ê²Œ ë“œì‹¤ ìˆ˜ ìžˆì–´ìš”
ì„¸íŠ¸ 1 ì•„ë©”ë¦¬ì¹´ë…¸ 2ìž” ì´ˆì½”ì™€í”Œ 1.0
ì„¸íŠ¸ 2 ì•„ë©”ë¦¬ì¹´ë…¸ 2ìž” ì¼€ìµë¥˜1 1.1
ì„¸íŠ¸ 3 ì•„ë©”ë¦¬ì¹´ë…¸ 2ìž” ìŠ¤ì½˜ 9

ì œì£¼ ê·¤ë¥˜ë¡œ ë§Œë“  ë‹¤ì–‘í•œ ìˆ˜ì œì²­ ìŒë£Œ
í•œë¼ë´‰ ì œì£¼ê°ê·¤ í™©ê¸ˆí–¥ ë ˆë“œí–¥ ì²œí˜œí–¥

ê³¼ì¼ 200gì”© ë„£ì–´ ê°ˆì•„ë“œë¦¬ëŠ” ìŠ¤ë¬´ë”” ìš”ê±°íŠ¸ìŠ¤ë¬´ë””

ìŒë£Œì£¼ë¬¸ì‹œ #ì œì£¼ê¸°ë…í’ˆ ì–´ë¦°ì´ì„ ë¬¼ (ìŠ¤í‹°ì»¤ ë©”ëª¨ì§€ ì¹´ë“œ ë”±ì§€) ë“± 2ê°œ ì¦ì • or #ì—°ì˜ˆì¸êµ¿ì¦ˆ (ê°œë´‰ì•¨ë²” ì—½ì„œ ì±… ì¹´ë‹¤ë¡œê·¸ ì±…ê°ˆí”¼ ) 1ê°œ ìƒì‹œ ì¦ì •

ì¦ì •êµ¿ì¦ˆ ì†Œì§„ì—¬ë¶€ëŠ” ì›”ì •ë¦¬ì¸ì¹´íŽ˜ì¦ì •êµ¿ì¦ˆ ì¸ìŠ¤íƒ€ ì°¸ê³ í•´ì£¼ì„¸ìš”

@woljeongriincafefreegoods
#ì¹´íŽ˜ìŠ¤íƒ€ê·¸ëž¨ #cafe #coffeeshop #ë¨¹ìŠ¤íƒ€ê·¸ëž¨ #ë§›ìŠ¤íƒ€ê·¸ëž¨
#ì›”ì •ë¦¬ì¹´íŽ˜ #ì›”ì •ë¦¬í•´ë³€ #ì›”ì •ë¦¬ë°”ë‹¤ #ì›”ì •ë¦¬ì¹´íŽ˜ê±°ë¦¬ #ì›”ì •ë¦¬í•´ìˆ˜ìš•ìž¥ #ì›”ì •ë¦¬ë°”ë‹¤ë·° #ì›”ì •ë¦¬ë§›ì§‘ #ì œì£¼ì—¬í–‰ì½”ìŠ¤ #ì œì£¼ì•„ì´ì™€ê°€ë³¼ë§Œí•œê³³ #kpop #kdrama #koreanwave #ì œì£¼ê·¤ë§›ì§‘ #ì œì£¼ë·°ë§›ì§‘ #ì›”ì •ë¦¬ì˜¤ì…˜ë·°ì¹´íŽ˜","['ì œì£¼', 'ì›”ì •ë¦¬', 'ì›”ì •ë¦¬ì¸ì¹´íŽ˜', 'ì œì£¼ê¸°ë…í’ˆ', 'ì—°ì˜ˆì¸êµ¿ì¦ˆ', 'ì¹´íŽ˜ìŠ¤íƒ€ê·¸ëž¨', 'cafe', 'coffeeshop', 'ë¨¹ìŠ¤íƒ€ê·¸ëž¨', 'ë§›ìŠ¤íƒ€ê·¸ëž¨', 'ì›”ì •ë¦¬ì¹´íŽ˜', 'ì›”ì •ë¦¬í•´ë³€', 'ì›”ì •ë¦¬ë°”ë‹¤', 'ì›”ì •ë¦¬ì¹´íŽ˜ê±°ë¦¬', 'ì›”ì •ë¦¬í•´ìˆ˜ìš•ìž¥', 'ì›”ì •ë¦¬ë°”ë‹¤ë·°', 'ì›”ì •ë¦¬ë§›ì§‘', 'ì œì£¼ì—¬í–‰ì½”ìŠ¤', 'ì œì£¼ì•„ì´ì™€ê°€ë³¼ë§Œí•œê³³', 'kpop', 'kdrama', 'koreanwave', 'ì œì£¼ê·¤ë§›ì§‘', 'ì œì£¼ë·°ë§›ì§‘', 'ì›”ì •ë¦¬ì˜¤ì…˜ë·°ì¹´íŽ˜']",ì›”ì •ë¦¬ì¸ì¹´íŽ˜,ì œì£¼íŠ¹ë³„ìžì¹˜ë„ ì œì£¼ì‹œ êµ¬ì¢Œì ì›”ì •ë¦¬ 594,126.79328046831104,33.5561956278273
424,https://www.instagram.com/p/CH-IIHqA_Ju/,2020-11-24T10:49:18.000Z,intesutagram,"ì¼ì¶œë³´ë‹¤ëŠ” ì¼ëª°ì´ì§€ðŸŒ…
ì œì£¼ë°”ë‹¤ ë…¸ì„ ì¦ê¸°ê¸°
#ì œì£¼ìŠ¤íƒ€ê·¸ëž¨ #ì œì£¼ë°¤ë°”ë‹¤ #ì¼ëª° #ì¼ëª°ë§›ì§‘ #ì• ì›” #ì œì£¼ #í•˜ì´í¼ëž©ìŠ¤ #ì—¬í–‰ #ì—¬í–‰ìŠ¤íƒ€ê·¸ëž¨ #íŠ¸ë ˆí‚¹ #íŠ¸ë ˆí‚¹ìŠ¤íƒ€ê·¸ëž¨ #í•´ì•ˆë„ë¡œ #í•´ì•ˆë„ë¡œë“œë¼ì´ë¸Œ","['ì œì£¼ìŠ¤íƒ€ê·¸ëž¨', 'ì œì£¼ë°¤ë°”ë‹¤', 'ì¼ëª°', 'ì¼ëª°ë§›ì§‘', 'ì• ì›”', 'ì œì£¼', 'í•˜ì´í¼ëž©ìŠ¤', 'ì—¬í–‰', 'ì—¬í–‰ìŠ¤íƒ€ê·¸ëž¨', 'íŠ¸ë ˆí‚¹', 'íŠ¸ë ˆí‚¹ìŠ¤íƒ€ê·¸ëž¨', 'í•´ì•ˆë„ë¡œ', 'í•´ì•ˆë„ë¡œë“œë¼ì´ë¸Œ']",ì œì£¼ ì• ì›”,ì œì£¼íŠ¹ë³„ìžì¹˜ë„ ì œì£¼ì‹œ ì• ì›”ì ê´‘ë ¹ë¦¬,126.439341083568,33.4608856490895
432,https://www.instagram.com/p/CH-K4tHDjN3/,2020-11-24T11:13:16.000Z,denoil,"ë¹„í–‰ê¸°íƒ€ëŸ¬ê°€ê¸°ì „ì— ì˜¤ëžœë§Œì— ì§„ì§„êµ­ìˆ˜. ì—¬ê¸°ë„ ì–¸ì œ ë‹¤ì‹œ ì˜¬ì§„ ëª¨ë¥´ê² êµ¬ë‚˜ã…‹ ìš°ë¦¬ ë‹¤ ë¨¹ê³  ë‚˜ì˜¤ë‹ˆ ì›¨ì´íŒ… ì‹œìž‘. ì• ê¸°ëž‘ ê°€ë©´ ì• ê¸° êµ­ìˆ˜ ì¡°ê¸ˆ ì£¼ì…”ì„œ ì¢‹ë„¤ìœ 
#ì œì£¼ #ì œì£¼ì‹œ #ì œì£¼ì‚´ì´ #ì œì£¼ë„ë¯¼ #ì—°ë™ #ì œì£¼ë„ì²­ #ì§„ì§„êµ­ìˆ˜ #ê³ ê¸°êµ­ìˆ˜ #ë¡œì»¬ë§›ì§‘ #ì œì£¼ë§›ì§‘ #ì œì£¼ê³µí•­ë§›ì§‘","['ì œì£¼', 'ì œì£¼ì‹œ', 'ì œì£¼ì‚´ì´', 'ì œì£¼ë„ë¯¼', 'ì—°ë™', 'ì œì£¼ë„ì²­', 'ì§„ì§„êµ­ìˆ˜', 'ê³ ê¸°êµ­ìˆ˜', 'ë¡œì»¬ë§›ì§‘', 'ì œì£¼ë§›ì§‘', 'ì œì£¼ê³µí•­ë§›ì§‘']",ì§„ì§„êµ­ìˆ˜,ì œì£¼íŠ¹ë³„ìžì¹˜ë„ ì œì£¼ì‹œ ì—°ë™ 322-28,126.49997788749076,33.48794223580885
459,https://www.instagram.com/p/CH-NgLzhq8Q/,2020-11-24T11:36:08.000Z,younghee_h,"ìˆœì „ì´í•´ë…€ê¹€ë°¥
ë”±ìƒˆìš°ê¹€ë°¥
í•´ë…€ê¹€ë°¥
ì „ë³µí•´ë¬¼ë¼ë©´ðŸœ

êµ­ë¬¼ë•¡ê¸°ë„¤..

#ì œì£¼ #ì œì£¼ë„ #í•˜ë£¨ #ë¨¹ë°© #ë¨¹ë¶€ë¦¼ #ë§›ì§‘ #ì‹ í–‰ #í–‰ë³µ #ì—¬í–‰ #ì¼ìƒ #ë°”ë‹¤ #ì œì£¼ë„ #ìˆœì „ì´í•´ë…€ê¹€ë°¥ #ë”±ìƒˆìš°ê¹€ë°¥ #ì „ë³µí•´ë¬¼ë¼ë©´ #í•´ë…€ê¹€ë°¥","['ì œì£¼', 'ì œì£¼ë„', 'í•˜ë£¨', 'ë¨¹ë°©', 'ë¨¹ë¶€ë¦¼', 'ë§›ì§‘', 'ì‹ í–‰', 'í–‰ë³µ', 'ì—¬í–‰', 'ì¼ìƒ', 'ë°”ë‹¤', 'ì œì£¼ë„', 'ìˆœì „ì´í•´ë…€ê¹€ë°¥', 'ë”±ìƒˆìš°ê¹€ë°¥', 'ì „ë³µí•´ë¬¼ë¼ë©´', 'í•´ë…€ê¹€ë°¥']",ìˆœì „ì´í•´ë…€ê¹€ë°¥,ì œì£¼íŠ¹ë³„ìžì¹˜ë„ ì œì£¼ì‹œ ì¡°ì²œì í•¨ë•ë¦¬ 1252-55,126.66516761540008,33.5425935168826
471,https://www.instagram.com/p/CH-M4_thei3/,2020-11-24T11:30:47.000Z,sunyoung_pd,"ì •ë§ ë¬´ê³„íšìœ¼ë¡œ ê°‘ìžê¸° ë– ë‚œ #ì œì£¼
ê·¸ëŸ°ë° ë„ˆë¬´ë‚˜ë„ ì¢‹ì•˜ë˜ #jeju
1.#ì¹´íŽ˜ë¸ë¬¸ë„ ëª¨ì¹´ë²ˆ ì¸ì ˆë¯¸ë¹µ ì ê·¹ ì¶”ì²œ
ì–¼ë§ˆë‚˜ ë§›ìžˆì—ˆìœ¼ë©´ ì…‹ì§¸ë‚  ì•„ì¹¨ìœ¼ë¡œ í¬ìž¥í•˜ëŸ¬ ë‘ë²ˆ ë°©ë¬¸í•¨
2.#ë²„ë“œë‚˜ë¬´ì§‘ í•´ë¬¼ì´ ê°€ë“ ë“¤ì–´ìžˆì–´ ë§›ì´ ì—†ì„ ìˆ˜ ì—†ëŠ” ì¹¼êµ­ìˆ˜
3.#í„¸ë³´ìŠ¤í˜‘ìž¬ë°€ ê°ˆì¹˜êµ¬ì´ì™€ ê¹€ë°¥ì„ ë„˜ë‚˜ ì¢‹ì•„í•˜ëŠ” 1ì¸ìœ¼ë¡œì„œ ì´ê²ƒì€ ì§„ë¦¬
4.#ì¹´íŽ˜ëª¨ì•Œë³´ì•Œ ëª¨ë°œëª¨ë°œ ì•„ë‹ˆì£ ã…‹í’ê²½ë©ë•Œë¦¬ê¸° ë„ˆë¬´ ì¢‹ì€ ê³³
5.#ê³ ì§‘ëŒìš°ëŸ­ í•¨ë•ê·¼ì²˜ ë§›ì§‘ ê²€ìƒ‰ í›„ ê¸°ëŒ€ì—†ì´ ê°”ë‹¤ê°€ ê³ ì¶”ìž¥ì— ë¹ ì§„ ìš°ëŸ­ë§›ì´ ë‚¨ë‹¬ëžë˜
.
#ì¨ë‹ˆpd #ì—¬í–‰í›„ê¸°
#ì œì£¼ë§›ì§‘ #ì œì£¼ì¹´íŽ˜ #ë§›ì§‘ìŠ¤íƒ€ê·¸ëž¨","['ì œì£¼', 'jeju', 'ì¹´íŽ˜ë¸ë¬¸ë„', 'ë²„ë“œë‚˜ë¬´ì§‘', 'í„¸ë³´ìŠ¤í˜‘ìž¬ë°€', 'ì¹´íŽ˜ëª¨ì•Œë³´ì•Œ', 'ê³ ì§‘ëŒìš°ëŸ­', 'ì¨ë‹ˆpd', 'ì—¬í–‰í›„ê¸°', 'ì œì£¼ë§›ì§‘', 'ì œì£¼ì¹´íŽ˜', 'ë§›ì§‘ìŠ¤íƒ€ê·¸ëž¨']",í‘¸ë¥¸ì„¬ ì œì£¼ë„,ì œì£¼íŠ¹ë³„ìžì¹˜ë„ ì„œê·€í¬ì‹œ í‘œì„ ë©´ í‘œì„ ë¦¬ 2919,126.812424476454,33.3079427982969
472,https://www.instagram.com/p/CH-MvOkD-tg/,2020-11-24T11:29:40.000Z,ocean_brick,"ì´ê²ƒì´ ížë§ðŸ˜˜
.
.
.
.
#ì‚°ë°©ì‚°ì¹´íŽ˜ #ì‚°ë°©ì‚°ë§›ì§‘ #ì˜¤ì…˜ë¸Œë¦­","['ì‚°ë°©ì‚°ì¹´íŽ˜', 'ì‚°ë°©ì‚°ë§›ì§‘', 'ì˜¤ì…˜ë¸Œë¦­']",ì˜¤ì…˜ë¸Œë¦­,ì œì£¼íŠ¹ë³„ìžì¹˜ë„ ì„œê·€í¬ì‹œ ì•ˆë•ë©´ í™”ìˆœë¦¬ 2021,126.3249561661,33.2420271360949
507,https://www.instagram.com/p/CH-SSD6jS_9/,2020-11-24T12:18:02.000Z,marevento_jeju,"ì´ëž˜ì„œ ë…¸ì„ë§›ì§‘ ë…¸ì„ë§›ì§‘ í•˜ëŠ”ê±°ì£ ~~ðŸ˜ðŸ˜ðŸ˜ðŸ‘ðŸ‘

#ì œì£¼#ì• ì›”íŒŒìŠ¤íƒ€#ë§ˆë ˆë²¤ë˜#marevento #ì´íƒœë¦¬ì‹ë‹¹ #ì œì£¼ë§›ì§‘ #ì• ì›”ë§›ì§‘ #í•œë‹´ë§›ì§‘ #ê³½ì§€ë§›ì§‘ #ì œì£¼ìŠ¤íƒ€ê·¸ëž¨ #íŒŒìŠ¤íƒ€ê·¸ëž¨ #í‘¸ë“œìŠ¤íƒ€ê·¸ëž¨ #ì˜¬ë ˆê¸¸15bì½”ìŠ¤ #í•œë‹´í•´ì•ˆì‚°ì±…ë¡œ #í•œë‹´í•´ë³€ #í•œë‹´ë§›ì§‘#í•œë‹´ì¹´íŽ˜ê±°ë¦¬
#ì œì£¼í•´ë…€ëŒë‹´íŒŒìŠ¤íƒ€
#í•´ë…€ëŒë‹´íŒŒìŠ¤íƒ€ #ì œì£¼ëŒë‹´íŒŒìŠ¤íƒ€ #ëŒë‹´íŒŒìŠ¤íƒ€#ë…¸ì„ë§›ì§‘","['ì œì£¼', 'ì• ì›”íŒŒìŠ¤íƒ€', 'ë§ˆë ˆë²¤ë˜', 'marevento', 'ì´íƒœë¦¬ì‹ë‹¹', 'ì œì£¼ë§›ì§‘', 'ì• ì›”ë§›ì§‘', 'í•œë‹´ë§›ì§‘', 'ê³½ì§€ë§›ì§‘', 'ì œì£¼ìŠ¤íƒ€ê·¸ëž¨', 'íŒŒìŠ¤íƒ€ê·¸ëž¨', 'í‘¸ë“œìŠ¤íƒ€ê·¸ëž¨', 'ì˜¬ë ˆê¸¸15bì½”ìŠ¤', 'í•œë‹´í•´ì•ˆì‚°ì±…ë¡œ', 'í•œë‹´í•´ë³€', 'í•œë‹´ë§›ì§‘', 'í•œë‹´ì¹´íŽ˜ê±°ë¦¬', 'ì œì£¼í•´ë…€ëŒë‹´íŒŒìŠ¤íƒ€', 'í•´ë…€ëŒë‹´íŒŒìŠ¤íƒ€', 'ì œì£¼ëŒë‹´íŒŒìŠ¤íƒ€', 'ëŒë‹´íŒŒìŠ¤íƒ€', 'ë…¸ì„ë§›ì§‘']",ë§ˆë ˆë²¤ë˜,ì œì£¼íŠ¹ë³„ìžì¹˜ë„ ì œì£¼ì‹œ ì• ì›”ì ì• ì›”ë¦¬ 2501-1,126.311651375914,33.4626081855416
509,https://www.instagram.com/p/CH-SNKBpxpE/,2020-11-24T12:17:13.000Z,zzu0ee,"#ížˆì­ˆë¶€ë¶€
ì—­ì‹œ ë² ì´ì»¤ë¦¬ëŠ” ì˜¤ì§€ížì´ë„¤..ðŸ¥–
ì œì£¼ìš°ìœ ê¹Œì§€ ìµœê³  ì¡°í•©..ðŸ¥›
.
.
.
.
#ì¡°ì‹ #ì˜¤ì§€íž #ìŠ¤ì½˜ #ìŠ¤ì½˜ë§›ì§‘ #ì œì£¼ #ì œì£¼ì—¬í–‰ #ë¹µ #ì œì£¼ìš°ìœ  #ìŒ€ë°”ê²ŒíŠ¸ #ë°”ê²ŒíŠ¸ #ì¢‹ì•„ìš” #ì˜¤ì§€ížì œì£¼","['ížˆì­ˆë¶€ë¶€', 'ì¡°ì‹', 'ì˜¤ì§€íž', 'ìŠ¤ì½˜', 'ìŠ¤ì½˜ë§›ì§‘', 'ì œì£¼', 'ì œì£¼ì—¬í–‰', 'ë¹µ', 'ì œì£¼ìš°ìœ ', 'ìŒ€ë°”ê²ŒíŠ¸', 'ë°”ê²ŒíŠ¸', 'ì¢‹ì•„ìš”', 'ì˜¤ì§€ížì œì£¼']",ì œì£¼ë„ ì• ì›”ì,ì œì£¼íŠ¹ë³„ìžì¹˜ë„ ì œì£¼ì‹œ ì• ì›”ì ê´‘ë ¹ë¦¬,126.439341083568,33.4608856490895
528,https://www.instagram.com/p/CH-RZ82HdC7/,2020-11-24T12:10:14.000Z,hong_carol,"ì œì£¼ë„ í‘ë¼ì§€ëŠ” ì¹ ëˆê°€ì§€â¤ï¸
#ëŠë¯€ëŠë¯€ë§›ìžˆìžë„¤
#ë¨¹ìŠ¤íƒ€ê·¸ëž¨
.
.
.
.
.
#ì œì£¼ #ì œì£¼ì—¬í–‰ #ì¤‘ë¬¸ë§›ì§‘ #ì œì£¼ë§›ì§‘ #í‘ë¼ì§€ë§›ì§‘ #ê·¼ê³ ê¸°ë§›ì§‘ #ì¤‘ë¬¸ì¹ ëˆê°€ #ì¹ ëˆê°€ #ë¬¸ì„ë¹¨ë¦¬ë‹«ëŠ”ê³³ #ì˜¬ë•Œë§ˆë‹¤ë¬¸ë‹«ì•„ì„œëª»ë¨¹ëŠ”ê³³ #ì´ë²ˆì—”ë¨¹ì–´ì¤¬ì§€ #ì›¨ì´íŒ…ìžˆì–´ìš” #ì°¸ì„ìˆ˜ìžˆì–´ìš” #ë§›ìžˆìœ¼ë‹ˆê¹Œ #ì •ì„±ìœ¼ë¡œêµ¬ì›Œì£¼ëŠ” #í‘ë¼ì§€ë§› #ê¸°ê°€ë§‰ížˆë‹ˆê¹Œ #ë§›ìŠ¤íƒ€ê·¸ëž¨ #ë¨¹ìŠ¤íƒ€ê·¸ëž¨ #ê³ ê¸°ëŠ”ì‚¬ëž‘","['ëŠë¯€ëŠë¯€ë§›ìžˆìžë„¤', 'ë¨¹ìŠ¤íƒ€ê·¸ëž¨', 'ì œì£¼', 'ì œì£¼ì—¬í–‰', 'ì¤‘ë¬¸ë§›ì§‘', 'ì œì£¼ë§›ì§‘', 'í‘ë¼ì§€ë§›ì§‘', 'ê·¼ê³ ê¸°ë§›ì§‘', 'ì¤‘ë¬¸ì¹ ëˆê°€', 'ì¹ ëˆê°€', 'ë¬¸ì„ë¹¨ë¦¬ë‹«ëŠ”ê³³', 'ì˜¬ë•Œë§ˆë‹¤ë¬¸ë‹«ì•„ì„œëª»ë¨¹ëŠ”ê³³', 'ì´ë²ˆì—”ë¨¹ì–´ì¤¬ì§€', 'ì›¨ì´íŒ…ìžˆì–´ìš”', 'ì°¸ì„ìˆ˜ìžˆì–´ìš”', 'ë§›ìžˆìœ¼ë‹ˆê¹Œ', 'ì •ì„±ìœ¼ë¡œêµ¬ì›Œì£¼ëŠ”', 'í‘ë¼ì§€ë§›', 'ê¸°ê°€ë§‰ížˆë‹ˆê¹Œ', 'ë§›ìŠ¤íƒ€ê·¸ëž¨', 'ë¨¹ìŠ¤íƒ€ê·¸ëž¨', 'ê³ ê¸°ëŠ”ì‚¬ëž‘']",ì¤‘ë¬¸ì¹ ëˆê°€,ì œì£¼íŠ¹ë³„ìžì¹˜ë„ ì„œê·€í¬ì‹œ ìƒ‰ë‹¬ë™ 2312-1,126.414441603689,33.2574763874152
533,https://www.instagram.com/p/CH-RQYsj1on/,2020-11-24T12:08:56.000Z,jibbang2_91,"ê¸°ë¶„ ì¢‹ì€ í™”ìš”ì¼ðŸ˜Ž
ê°„ë§Œì— ë‚®ì— #êµ¬ì¢Œ #ì¢…ë‹¬ë¦¬ #ì„¸í™”ë¦¬ ë‹¤ë…€ì™”ìŠðŸš™ðŸš™
ë‚ ì”¨ ì¡°ì½”~â™¥ ë‚˜ë“¤ì´ðŸ‘‰ðŸ‘‰

#í˜¸ìžëˆê¹ŒìŠ¤ #hoja #ë§›ìžˆëŠ”ì ì‹¬ #ì œì£¼
#êµ¬ì¢Œìë§›ì§‘ #ì„¸í™”í•´ë³€ #ë¶€ë¦‰ë¶€ë¦‰ðŸš—
#ì›”ìš”ì¼ì ì‹¬ë§Œì§€ë‚˜ë„ì‹ ì´ë‚œë‹¤ðŸ™Š","['êµ¬ì¢Œ', 'ì¢…ë‹¬ë¦¬', 'ì„¸í™”ë¦¬', 'í˜¸ìžëˆê¹ŒìŠ¤', 'hoja', 'ë§›ìžˆëŠ”ì ì‹¬', 'ì œì£¼', 'êµ¬ì¢Œìë§›ì§‘', 'ì„¸í™”í•´ë³€', 'ë¶€ë¦‰ë¶€ë¦‰', 'ì›”ìš”ì¼ì ì‹¬ë§Œì§€ë‚˜ë„ì‹ ì´ë‚œë‹¤']",ì„¸í™”ë¦¬,ì œì£¼íŠ¹ë³„ìžì¹˜ë„ ì œì£¼ì‹œ êµ¬ì¢Œì ì„¸í™”ë¦¬ 1-1,126.86025618946,33.5251436596119
539,https://www.instagram.com/p/CH-UeBdMr3F/,2020-11-24T12:37:00.000Z,yonghorow,#á„á…©á„…á…©á„‚á…¡á„á…¥á„Œá…§ #ì œì£¼ë„ê°€ê³ ì‹¶ë‹¤ #ì œì£¼ì•“ì´ #jeju #ì œì£¼ë„ #ì œì£¼ #ì œì£¼ë§›ì§‘ #ì„œí™© #ì„œí™©ëˆê¹ŒìŠ¤ #ì„œí™©ì¹´ì¸  #ì„œí™©ëˆì¹´ì¸  #ì„œí™©ìƒì„ ê¹ŒìŠ¤ #ì„œí™©ìƒëŸ¬ë“œìš°ë™ #á„‚á…¡á„’á…©á†¯á„…á…©á„‹á…§á„’á…¢á†¼ #á„€á…®á†¨á„‚á…¢á„‹á…§á„’á…¢á†¼ #í˜¼ì—¬ì¡± #special_shots #localguide #letsguide #dailyshot #á„€á…¢á†·á„‰á…¥á†¼ #á„€á…¢á†·á„‰á…¥á†¼á„‰á…³á„á…¡á„€á…³á„…á…¢á†· #á„€á…¢á†·á„‰á…¥á†¼á„‰á…¡á„Œá…µá†« #á„‹á…¡á„Šá…¡á„‹á…´á„€á…µá†¯ #á„ƒá…¢á„’á…¡á†«á„†á…µá†«á„€á…®á†¨á„€á…®á„‰á…¥á†¨á„€á…®á„‰á…¥á†¨ #photo #photography #canon6dmark2,"['á„á…©á„…á…©á„‚á…¡á„á…¥á„Œá…§', 'ì œì£¼ë„ê°€ê³ ì‹¶ë‹¤', 'ì œì£¼ì•“ì´', 'jeju', 'ì œì£¼ë„', 'ì œì£¼', 'ì œì£¼ë§›ì§‘', 'ì„œí™©', 'ì„œí™©ëˆê¹ŒìŠ¤', 'ì„œí™©ì¹´ì¸ ', 'ì„œí™©ëˆì¹´ì¸ ', 'ì„œí™©ìƒì„ ê¹ŒìŠ¤', 'ì„œí™©ìƒëŸ¬ë“œìš°ë™', 'á„‚á…¡á„’á…©á†¯á„…á…©á„‹á…§á„’á…¢á†¼', 'á„€á…®á†¨á„‚á…¢á„‹á…§á„’á…¢á†¼', 'í˜¼ì—¬ì¡±', 'special_shots', 'localguide', 'letsguide', 'dailyshot', 'á„€á…¢á†·á„‰á…¥á†¼', 'á„€á…¢á†·á„‰á…¥á†¼á„‰á…³á„á…¡á„€á…³á„…á…¢á†·', 'á„€á…¢á†·á„‰á…¥á†¼á„‰á…¡á„Œá…µá†«', 'á„‹á…¡á„Šá…¡á„‹á…´á„€á…µá†¯', 'á„ƒá…¢á„’á…¡á†«á„†á…µá†«á„€á…®á†¨á„€á…®á„‰á…¥á†¨á„€á…®á„‰á…¥á†¨', 'photo', 'photography', 'canon6dmark2']",ì„œí™©,ì œì£¼íŠ¹ë³„ìžì¹˜ë„ ì œì£¼ì‹œ ì• ì›”ì ì†Œê¸¸ë¦¬ 794-1,126.379598642552,33.4343467419204
544,https://www.instagram.com/p/CH-UW0oDtXL/,2020-11-24T12:36:01.000Z,13.12.21,"ì¢‹ì•„í•˜ì§€ë„ ì•ŠëŠ” ì—¬í–‰ì´ ê°€ê³ ì‹¶ì–´ì§
ì½”ë¡œë‚˜ ì œë°œêº¼ì ¸..
.
.
#ì œì£¼ #ì œì£¼ì‹œ #ì œì£¼ë„ #ì†Œí†µ #ì¼ìƒ #ì½”ë¡œë‚˜ #ì½”ë¡œë‚˜19ë¬¼ëŸ¬ê°€ë¼ #ì—¬í–‰ #ì»¤í”¼ #ë°ì¼ë¦¬ #ê½ƒ #í•´ì™¸ì—¬í–‰ #ê°€ê³ ì‹¶ë‹¤ #êµ­ë‚´ë¼ë„ì¢‹ë‹¤ #ì´ë„ˆí”„ #ì œì£¼ì´ë„ˆí”„ #ì œì£¼ì¹´íŽ˜ #ì œì£¼ì¹´íŽ˜ì¶”ì²œ #ì¢‹ì•„ìš” #ë§žíŒ” #ì„ íŒ” #ì œì£¼ë§›ì§‘","['ì œì£¼', 'ì œì£¼ì‹œ', 'ì œì£¼ë„', 'ì†Œí†µ', 'ì¼ìƒ', 'ì½”ë¡œë‚˜', 'ì½”ë¡œë‚˜19ë¬¼ëŸ¬ê°€ë¼', 'ì—¬í–‰', 'ì»¤í”¼', 'ë°ì¼ë¦¬', 'ê½ƒ', 'í•´ì™¸ì—¬í–‰', 'ê°€ê³ ì‹¶ë‹¤', 'êµ­ë‚´ë¼ë„ì¢‹ë‹¤', 'ì´ë„ˆí”„', 'ì œì£¼ì´ë„ˆí”„', 'ì œì£¼ì¹´íŽ˜', 'ì œì£¼ì¹´íŽ˜ì¶”ì²œ', 'ì¢‹ì•„ìš”', 'ë§žíŒ”', 'ì„ íŒ”', 'ì œì£¼ë§›ì§‘']","Enough, ì´ë„ˆí”„",ì œì£¼íŠ¹ë³„ìžì¹˜ë„ ì„œê·€í¬ì‹œ ì•ˆë•ë©´ ì°½ì²œë¦¬ 844-2,126.364601384824,33.2359138258788
560,https://www.instagram.com/p/CH-XBCjDjNp/,2020-11-24T12:59:16.000Z,jeju_myung,"ë‚ ê²ƒì„ ë§¨ì •ì‹ ì— ë¨¹ëŠ”ë‚ ì´ ì˜¬ì¤„ì´ì•¼...
.
.
#ì œì£¼ë„ #ì œì£¼ #ëª¨ìŠ¬í¬ #ëŒ€ì •ë§›ì§‘ #ë°©ì–´íšŒ #íšŒì •ì‹ #ì œì£¼ë§›ì§‘ #ì„œê·€í¬ë§›ì§‘ #ì ì‹¬ #ëŒ€ë°©ì–´ #ì§€ë¦¬íƒ• #ë§›ì  #ì¼ìƒ #ì†Œí†µ #ë§žíŒ” #ì„ íŒ” #ë°ì¼ë¦¬ #ì„ íŒ”í•˜ë©´ë§žíŒ” #ë§›ìŠ¤íƒ€ê·¸ëž¨ #ë¨¹ìŠ¤íƒ€ê·¸ëž¨","['ì œì£¼ë„', 'ì œì£¼', 'ëª¨ìŠ¬í¬', 'ëŒ€ì •ë§›ì§‘', 'ë°©ì–´íšŒ', 'íšŒì •ì‹', 'ì œì£¼ë§›ì§‘', 'ì„œê·€í¬ë§›ì§‘', 'ì ì‹¬', 'ëŒ€ë°©ì–´', 'ì§€ë¦¬íƒ•', 'ë§›ì ', 'ì¼ìƒ', 'ì†Œí†µ', 'ë§žíŒ”', 'ì„ íŒ”', 'ë°ì¼ë¦¬', 'ì„ íŒ”í•˜ë©´ë§žíŒ”', 'ë§›ìŠ¤íƒ€ê·¸ëž¨', 'ë¨¹ìŠ¤íƒ€ê·¸ëž¨']",ëª¨ìŠ¬ í¬í•­,ì œì£¼íŠ¹ë³„ìžì¹˜ë„ ì„œê·€í¬ì‹œ ëŒ€ì •ì í•˜ëª¨ë¦¬ 770-28,126.250509085028,33.2164674474575
563,https://www.instagram.com/p/CH-WzOphDo9/,2020-11-24T12:57:22.000Z,hoowa_camp,"- #í›„ì™€í›„ì™€í”½ì³ìŠ¤
_____________________________
-
-
-
ê¸ˆë¹› í•œë¦¼í•­
-
-
-
-
____________________________
#í•œë¦¼í•­#ê°ì„±ìŠ¤ë‚´ì œì£¼ìŠ¤ëƒ…#ìŠ¤ëƒ…
#ì œì£¼í•œë¦¼í•­í’ê²½#ë…¸ì„ë§›ì§‘#ì œì£¼
#ì œì£¼ë„#ì œì£¼ì…€í”„ì›¨ë”©#ì›¨ë”©ìŠ¤ëƒ…
#photography#photographer
#jejuisland#jejutravel#travel
#sonya7m3#ì†Œë‹ˆì´ë¯¸ì§€ê°¤ëŸ¬ë¦¬
#hoowahoowapictures","['í›„ì™€í›„ì™€í”½ì³ìŠ¤', 'í•œë¦¼í•­', 'ê°ì„±ìŠ¤ë‚´ì œì£¼ìŠ¤ëƒ…', 'ìŠ¤ëƒ…', 'ì œì£¼í•œë¦¼í•­í’ê²½', 'ë…¸ì„ë§›ì§‘', 'ì œì£¼', 'ì œì£¼ë„', 'ì œì£¼ì…€í”„ì›¨ë”©', 'ì›¨ë”©ìŠ¤ëƒ…', 'photography', 'photographer', 'jejuisland', 'jejutravel', 'travel', 'sonya7m3', 'ì†Œë‹ˆì´ë¯¸ì§€ê°¤ëŸ¬ë¦¬', 'hoowahoowapictures']",í•œë¦¼í•­,ì œì£¼íŠ¹ë³„ìžì¹˜ë„ ì œì£¼ì‹œ í•œë¦¼ì í•œë¦¼ë¦¬,126.255828967781,33.4146784560727
578,https://www.instagram.com/p/CH-WGH4h35F/,2020-11-24T12:51:13.000Z,seung_hee12,"ë‚ ì”¨ ì¢‹ì„ë•Œ ì˜¤ê³ ì‹¶ì—ˆëŠ”ë°..
ë°–ì—ì„œ ì‚¬ì§„ í•˜ë‚˜ ëª»ì°ê³ 
ë‹¤ìŒì— ë‹¤ì‹œì™€ì•¼ì§€ðŸ‘‹

#ì œì£¼#êµ¬ì¢Œ#ì¹´íŽ˜#ëª¨ì•Œë³´ì•Œ#ì»¤í”¼ë§›ì§‘#ì‚¬ëžŒë°”ê¸€ë°”ê¸€#","['ì œì£¼', 'êµ¬ì¢Œ', 'ì¹´íŽ˜', 'ëª¨ì•Œë³´ì•Œ', 'ì»¤í”¼ë§›ì§‘', 'ì‚¬ëžŒë°”ê¸€ë°”ê¸€']",ëª¨ì•Œë³´ì•Œ,ì œì£¼íŠ¹ë³„ìžì¹˜ë„ ì œì£¼ì‹œ êµ¬ì¢Œì ê¹€ë…•ë¦¬ 6159,126.727953094591,33.5595665887276
591,https://www.instagram.com/p/CH-Yv0IJ8r_/,2020-11-24T13:14:23.000Z,tae0__98,"ê³µì£¼ëž‘
.
.
.
.
#ì œì£¼#ì œì£¼ë„ #ì œì£¼ë„ì—¬í–‰ #ì œì£¼ë§›ì§‘ #ì œì£¼ì¹´íŽ˜ #ì œì£¼ì—¬í–‰ #ì œì£¼ì‚´ì´ #ì œì£¼ë„ìˆ™ì†Œ #ëŸ½ìŠ¤íƒ€ê·¸ëž¨ #á„Œá…©á‡‚á„‡á…¡á†« #á„Œá…©á‡‚á„‹á…¡á„‹á…­á„‡á…¡á†«á„‰á…¡ #á„‘á…¡á†¯á„…á…©á„‹á…®100 #á„‘á…¡á†¯á„…á…©á„‹á…®á„‚á…³á†¯á„…á…µá„€á…µ #á„Œá…©á‡‚á„‡á…¡á†«á„á…¦á„…á…¥ #á„Œá…©á‡‚á„‹á…¡á„‹á…­á„á…¦á„…á…¥ #á„†á…¡á†½á„‘á…¡á†¯ #á„†á…¡á†½á„‘á…¡á†¯á„’á…¢á„‹á…­ #á„†á…¡á†½á„‘á…¡á†¯á„‰á…¥á†«á„‘á…¡á†¯á„’á…ªá†«á„‹á…§á†¼ #á„†á…¡á†½á„‘á…¡á†¯á„’á…ªá†«á„‹á…§á†¼ #á„Žá…¥á†ºá„Œá…®á†¯á„‡á…¡á†«á„‰á…¡
#followforfollowback #follow #follow4followback #likeforfollow #following #follow4like #follow_me #likeforlikes #likeforfollow #like4likes","['ì œì£¼', 'ì œì£¼ë„', 'ì œì£¼ë„ì—¬í–‰', 'ì œì£¼ë§›ì§‘', 'ì œì£¼ì¹´íŽ˜', 'ì œì£¼ì—¬í–‰', 'ì œì£¼ì‚´ì´', 'ì œì£¼ë„ìˆ™ì†Œ', 'ëŸ½ìŠ¤íƒ€ê·¸ëž¨', 'á„Œá…©á‡‚á„‡á…¡á†«', 'á„Œá…©á‡‚á„‹á…¡á„‹á…­á„‡á…¡á†«á„‰á…¡', 'á„‘á…¡á†¯á„…á…©á„‹á…®100', 'á„‘á…¡á†¯á„…á…©á„‹á…®á„‚á…³á†¯á„…á…µá„€á…µ', 'á„Œá…©á‡‚á„‡á…¡á†«á„á…¦á„…á…¥', 'á„Œá…©á‡‚á„‹á…¡á„‹á…­á„á…¦á„…á…¥', 'á„†á…¡á†½á„‘á…¡á†¯', 'á„†á…¡á†½á„‘á…¡á†¯á„’á…¢á„‹á…­', 'á„†á…¡á†½á„‘á…¡á†¯á„‰á…¥á†«á„‘á…¡á†¯á„’á…ªá†«á„‹á…§á†¼', 'á„†á…¡á†½á„‘á…¡á†¯á„’á…ªá†«á„‹á…§á†¼', 'á„Žá…¥á†ºá„Œá…®á†¯á„‡á…¡á†«á„‰á…¡', 'followforfollowback', 'follow', 'follow4followback', 'likeforfollow', 'following', 'follow4like', 'follow_me', 'likeforlikes', 'likeforfollow', 'like4likes']",ì œì£¼ë„ ê³½ì§€í•´ìˆ˜ìš•ìž¥,ì œì£¼íŠ¹ë³„ìžì¹˜ë„ ì œì£¼ì‹œ ì• ì›”ì ê³½ì§€ë¦¬ 1565,126.304673157235,33.4506575078278
600,https://www.instagram.com/p/CH-YQytjpW8/,2020-11-24T13:10:09.000Z,odd_oyp,"2020.11.22 ðŸŠðŸŠ + 5
ì„±ì‚°
.
.
ðŸ í•œí™”ì•„ì¿ ì•„í”Œë¼ë„·
ìƒˆ ìŠ¤í…ë“¤ê³¼ ì œëŒ€ë¡œ ì²« ì—¬í–‰. ë‚ ì”¨ê°€ ì•ˆì¢‹ì•„ì„œ ì‹¤ë‚´ë¡œ ì°¾ì•„ê°€ë‹¤ ë³´ë‹ˆ ì§„ì§œì§„ì§œ ì˜¤ëžœë§Œì— ì•„ì¿ ì•„ë¦¬ì›€ì„ ê°€ë´¤ë‹¤ðŸ¬ ì£¼ë§ì´ë‹¤ë³´ë‹ˆ ì‚¬ëžŒë„ ë§Žê³  ê°œì¸ì ìœ¼ë¡œ ìˆ˜ì¡°ì— ê°‡ížŒ ë™ë¬¼ì¹œêµ¬ë“¤ì„ ì•ˆì¢‹ì•„í•˜ì§€ë§Œ ì˜¤ëžœë§Œì— ê°€ì„œ ê·¸ëŸ°ì§€ ê½¤ ìž¬ë°Œì—ˆëŠ”ê±¸ðŸ™ƒ
.
ðŸšë†ˆë†ˆë†ˆ
ë¬¼ê³ ê¸° ë³´ê³  ë‚œ ë’¤ì— ë§‰ì°½ì— ì†Œì£¼ í•œìž”. ì €ë ´í•œ ê°€ê²©ì— ì ë‹¹ížˆ ë§›ìžˆëŠ” ì´ì „ë¶€í„° ì¢‹ì•„í–ˆë˜ ë§‰ì°½ì§‘ðŸ½ ì œì£¼ì— ìžˆë‹¤ê³  ë§¨ë‚  íŠ¹ë³„í•œê²ƒë§Œ ë¨¹ì§„ ì•ŠëŠ”ë‹¤êµ¬ìš”~.~
.
.
.
#ì œì£¼ #ì œì£¼ë„ #ì œì£¼ì‚´ì´ #í•œë‹¬ì‚´ì´ #ì„±ì‚°ë…˜ #ê²ŒìŠ¤íŠ¸í•˜ìš°ìŠ¤ #ìŠ¤í… #ì„±ì‚° #ì•„ì¿ ì•„í”Œë¼ë„· #ì•„ì¿ ì•„ë¦¬ì›€ #ë†ˆë†ˆë†ˆ #ë§›ì§‘ #ðŸŠ","['ì œì£¼', 'ì œì£¼ë„', 'ì œì£¼ì‚´ì´', 'í•œë‹¬ì‚´ì´', 'ì„±ì‚°ë…˜', 'ê²ŒìŠ¤íŠ¸í•˜ìš°ìŠ¤', 'ìŠ¤í…', 'ì„±ì‚°', 'ì•„ì¿ ì•„í”Œë¼ë„·', 'ì•„ì¿ ì•„ë¦¬ì›€', 'ë†ˆë†ˆë†ˆ', 'ë§›ì§‘']",ì„±ì‚°ì,ì œì£¼íŠ¹ë³„ìžì¹˜ë„ ì„œê·€í¬ì‹œ ì„±ì‚°ì ì‹œí¥ë¦¬,126.895884668397,33.4771917795597
