,key,datetime,author,caption,hashtags,location,address,x,y,address_unit
27,https://www.instagram.com/p/CH76XxLBZbH/,2020-11-23T14:10:29.000Z,jandi_visiting,"#잔디공장방문자 가 되어 주셔서 감사합니다 🌱
.
.
.
#제주도 #성산카페 #잔디공장 #성산
#제주 #서귀포 #서귀포카페
.
.
.
#표선맛집 #성산일출봉맛집 #빛의벙커 #아쿠아플라넷제주 #드르쿰다 #드르쿰다in성산 #신산리 #신산리카페 #제주스냅 #제주동백 #카멜리아힐 #상효원 #휴애리","['잔디공장방문자', '제주도', '성산카페', '잔디공장', '성산', '제주', '서귀포', '서귀포카페', '표선맛집', '성산일출봉맛집', '빛의벙커', '아쿠아플라넷제주', '드르쿰다', '드르쿰다in성산', '신산리', '신산리카페', '제주스냅', '제주동백', '카멜리아힐', '상효원', '휴애리']",잔디공장,제주특별자치도 서귀포시 성산읍 신산리 1073-9,126.873289850307,33.3774305792331,성산읍
35,https://www.instagram.com/p/CH76KgsgMpS/,2020-11-23T14:08:40.000Z,chae_._rlo,#제주도 #jeju #서귀포 #우도 #애월 #제주도카페 #제주 #제주도여행 #제주여행 #동명동 #양림동 #홍대 #서울 #연남동 #여친룩 #꾸안꾸 #패션 #패션스타그램 #ootd #오오티디 #데일리룩 #dailylook #데일리 #미니멀 #미니멀룩 #캐주얼 #캐주얼룩 #일상 #맞팔 #선팔하면맞팔,"['제주도', 'jeju', '서귀포', '우도', '애월', '제주도카페', '제주', '제주도여행', '제주여행', '동명동', '양림동', '홍대', '서울', '연남동', '여친룩', '꾸안꾸', '패션', '패션스타그램', 'ootd', '오오티디', '데일리룩', 'dailylook', '데일리', '미니멀', '미니멀룩', '캐주얼', '캐주얼룩', '일상', '맞팔', '선팔하면맞팔']",제주시드니호텔,제주특별자치도 제주시 애월읍 하귀2리 2615-7,126.395760629956,33.4836858384509,애월읍
36,https://www.instagram.com/p/CH76Kb_D6zc/,2020-11-23T14:08:39.000Z,jeju_gule,"[제주도 농산물 직거래농원]

귤 / 한라봉 / 천혜향
양배추즙 / 비트즙

청정지역 제주에서 정성껏 키운 귤 판매중입니다!

시중에서 12단계 농약과 소독괴정을 거치지않은 깨끗하고 건강한 귤입니다!

✨10kg 한박스 2만5천원 (무료베송)✨
(5kg 가능)

농장이 크지않아 물량이 많지 않네요! 관심 있으신분들은 댓글 혹은 디엠DM 부탁드려요!❤️

미리 따놓고 파는게 아닌 주문이 들어오면 따는 방식이어서 택배로 받아보시는게 일주일정도 걸릴 수 있는점 미리 안내드려요!

구매는 DM 부탁드립니다~!

#제주도 #제주 #제주도여행 #제주맛집 #제주도맛집 #제주카페 #제주카페추천 #제주귤 #귤 #귤따기체험 #귤구매 #무농약귤 #맘카페 #맘스타그램 #육아스타그램 #인스타푸드 #먹스타맞팔 #먹스타 #먹스타그램 #좋아요반사 #맞팔해요 #맞팔 #jeju #jejuisland #mandarin #orange","['제주도', '제주', '제주도여행', '제주맛집', '제주도맛집', '제주카페', '제주카페추천', '제주귤', '귤', '귤따기체험', '귤구매', '무농약귤', '맘카페', '맘스타그램', '육아스타그램', '인스타푸드', '먹스타맞팔', '먹스타', '먹스타그램', '좋아요반사', '맞팔해요', '맞팔', 'jeju', 'jejuisland', 'mandarin', 'orange']",제주도 애월읍,제주특별자치도 제주시 애월읍 광령리,126.439341083568,33.4608856490895,애월읍
46,https://www.instagram.com/p/CH9rdzslzA1/,2020-11-24T06:38:43.000Z,foodgram_bapdoduk,"#제주도 #인그리드 🏠
빨간 지붕이 넘 예뻤던 카페 ❤️ 카페 내부도 아늑하고 편안한 느낌! 비가 내려 아수웠지만 나름 운치있어따 >_< #청귤에이드 도 맛났고 #얼그레이크림라떼 도 존맛! 크림 짱부드럽! (╹౪╹*๑)
.
.
.
.
.
.
.
#제주도여행 #제주 #제주여행 #제주도맛집 #제주맛집 #제주도카페 #제주카페 #카페투어 #카페스타그램 #여행 #여행스타그램 #먹스타그램 #먹스타 #맛스타그램 #맛스타 #푸드스타그램 #맛있다그램 #일상 #제주핫플 #좋아요반사 #첫줄반사 #소통 #맞팔 #먹스타소통 #먹스타맞팔 #밥도둑🐰_제주","['제주도', '인그리드', '청귤에이드', '얼그레이크림라떼', '제주도여행', '제주', '제주여행', '제주도맛집', '제주맛집', '제주도카페', '제주카페', '카페투어', '카페스타그램', '여행', '여행스타그램', '먹스타그램', '먹스타', '맛스타그램', '맛스타', '푸드스타그램', '맛있다그램', '일상', '제주핫플', '좋아요반사', '첫줄반사', '소통', '맞팔', '먹스타소통', '먹스타맞팔', '밥도둑']",Ingrid,제주특별자치도 제주시 이호일동 371-1,126.45668314517829,33.50255325983955,이호1동
48,https://www.instagram.com/p/CH9rZoHljzj/,2020-11-24T06:38:08.000Z,j0.choi,"<흔들림 / j0.choi>
바람이 불어 불편했다면
흔들리는 꽃을 상상해보십시오.

그대의 흔들리는 모습도
충분히 아름답습니다.

#글 #글귀 #글스타그램 #글귀스타그램 #동명정류장 #제주한림카페 #제주도 #제주 #jejuisland #흔들림 #꽃","['글', '글귀', '글스타그램', '글귀스타그램', '동명정류장', '제주한림카페', '제주도', '제주', 'jejuisland', '흔들림', '꽃']",동명정류장,제주특별자치도 제주시 한림읍 동명리 1322-2,126.266232678207,33.3971378091264,한림읍
49,https://www.instagram.com/p/CH9rUWlJGlI/,2020-11-24T06:37:25.000Z,_jyeon.2_98,"좋은 날, 좋은 너랑


-
-
-
-
-
-

#카페스타그램 #사진스타그램 #셀카 #일상기록 #데일리룩 #followforfollowback #l4likes #followｍe #맞팔 #좋아요 #반사테러 #23 #24 #인친 #소통 #카페투어 #대전카페 #월평동카페 #둔산동카페 #드르쿰다 #제주 #귤","['카페스타그램', '사진스타그램', '셀카', '일상기록', '데일리룩', 'followforfollowback', 'l4likes', 'followｍe', '맞팔', '좋아요', '반사테러', '23', '24', '인친', '소통', '카페투어', '대전카페', '월평동카페', '둔산동카페', '드르쿰다', '제주', '귤']",드르쿰다 제주,제주특별자치도 서귀포시 성산읍 고성리 372-1,126.91908094568531,33.444502297886025,성산읍
71,https://www.instagram.com/p/CH9ttfTpqPK/,2020-11-24T06:58:20.000Z,yang_hj2,"읍내 카페 랄라🧚‍♀️

#제주 #제주도 #제주도한달살기 #제주카페 #옥분상회 #레트로 #남원카페","['제주', '제주도', '제주도한달살기', '제주카페', '옥분상회', '레트로', '남원카페']",옥분상회,제주특별자치도 서귀포시 남원읍 남원리 178-1,126.717916463967,33.2802482504748,남원읍
75,https://www.instagram.com/p/CH9tcNkhDNj/,2020-11-24T06:55:58.000Z,jandi_visiting,"따듯한 햇살이 초록벽에 스쳐 다양한 초록다색
따듯한 섬 속 너와 나의 시간 잔디공장에서☘️
#제주도 #식물카페 #잔디공장 #성산카페
.
📍서귀포시 성산읍 일주동로5154번길 5
🟡OPEN 11:00 ~ 19:00
✅YES 애견동반가능한집 🐶 YES 키드존 👶🏻
.
🌱메뉴선택 실패1도 없는 맛있는 #jmt 카페 🌱
🤩잔디우유 6.5
😋잔디스무디 8.5
😝새콤하다에이드 6.5
🥰잔디잼토스트 4.5
.
#제주 #서귀포 #제주도여행 #제주도숲길 #사려니숲길 #비자림 #제주절물자연휴양림 #숫모르숲길 #샤이니숲길 #한라생태숲 #서귀포치유의숲 #머체왓숲길 #동백군락지 #동백수목원","['제주도', '식물카페', '잔디공장', '성산카페', 'jmt', '제주', '서귀포', '제주도여행', '제주도숲길', '사려니숲길', '비자림', '제주절물자연휴양림', '숫모르숲길', '샤이니숲길', '한라생태숲', '서귀포치유의숲', '머체왓숲길', '동백군락지', '동백수목원']",잔디공장,제주특별자치도 서귀포시 성산읍 신산리 1073-9,126.873289850307,33.3774305792331,성산읍
102,https://www.instagram.com/p/CH9vVNWM9Tj/,2020-11-24T07:12:29.000Z,blue_photographic,".
.
.
.
.눅눅한
.나무 냄새날 것 같은날
.
.
📷 Canon 5D MarkIV
🏷 제주도

#blue_photographs
#캐논 #5dmark4 #캐논이미지스토밍 #11월베스트샷 #감성스냅 #여행스타그램 #대한민국구석구석 #커플사진 #제주여행 #제주 #가을여행 #데이트 #가을풍경 #제주도 #제주도카페 #골목카페옥수
#Canon #eos #canonimagestorming #35mmphotography #travelgram #scenery #ig_korea #travel #jeju #analoguephotography #dailysnaps","['blue_photographs', '캐논', '5dmark4', '캐논이미지스토밍', '11월베스트샷', '감성스냅', '여행스타그램', '대한민국구석구석', '커플사진', '제주여행', '제주', '가을여행', '데이트', '가을풍경', '제주도', '제주도카페', '골목카페옥수', 'Canon', 'eos', 'canonimagestorming', '35mmphotography', 'travelgram', 'scenery', 'ig_korea', 'travel', 'jeju', 'analoguephotography', 'dailysnaps']",골목카페 옥수,제주특별자치도 제주시 애월읍 소길리 652-1,126.379977434507,33.4397509795262,애월읍
111,https://www.instagram.com/p/CH9umuvj-Jt/,2020-11-24T07:06:09.000Z,simsim__sim,길가다가 뷰 좋은 카페 발견 #제주 #인카페온더비치 #바다뷰 #제주카페추천,"['제주', '인카페온더비치', '바다뷰', '제주카페추천']",인카페_온더비치,제주특별자치도 제주시 구좌읍 한동리 1638,126.828038494809,33.5452015363217,구좌읍
141,https://www.instagram.com/p/CH9wm3MB_lZ/,2020-11-24T07:23:38.000Z,911_dumbo_s,"크로플 사르르르르...🥐
#제주#한림#카페아꼼#크로플#얼그레이에이드#🥐","['제주', '한림', '카페아꼼', '크로플', '얼그레이에이드']",카페아꼼,제주특별자치도 제주시 한림읍 수원리 522-2,126.269014412732,33.4269102410488,한림읍
147,https://www.instagram.com/p/CH90HjoJZWR/,2020-11-24T07:54:19.000Z,hjsss1020,"#협재#제주도#바다
#제주#협재게스트하우스#감성포차
#협재1번가#제주도술집#협재맛집
#제주술집#제주여행#제주도여행
#jeju#카페#제주카페#제주맛집
#제주도멋집#제주#뷰#중문
#서귀포#성산#제주서쪽
#협재술집#협재술집추천
#협재술집❤ #협재입니다","['협재', '제주도', '바다', '제주', '협재게스트하우스', '감성포차', '협재1번가', '제주도술집', '협재맛집', '제주술집', '제주여행', '제주도여행', 'jeju', '카페', '제주카페', '제주맛집', '제주도멋집', '제주', '뷰', '중문', '서귀포', '성산', '제주서쪽', '협재술집', '협재술집추천', '협재술집', '협재입니다']",협재1번가술집밥집,제주특별자치도 제주시 한림읍 협재리 1728,126.24216053732899,33.395604683838634,한림읍
148,https://www.instagram.com/p/CH90D8MpZ7H/,2020-11-24T07:53:49.000Z,hjsss1020,"#협재#제주도#바다
#제주#협재게스트하우스#감성포차
#협재1번가#제주도술집#협재맛집
#제주술집#제주여행#제주도여행
#jeju#카페#제주카페#제주맛집
#제주도멋집#제주#뷰#중문
#서귀포#성산#제주서쪽
#협재술집#협재술집추천
#협재술집❤ #협재입니다","['협재', '제주도', '바다', '제주', '협재게스트하우스', '감성포차', '협재1번가', '제주도술집', '협재맛집', '제주술집', '제주여행', '제주도여행', 'jeju', '카페', '제주카페', '제주맛집', '제주도멋집', '제주', '뷰', '중문', '서귀포', '성산', '제주서쪽', '협재술집', '협재술집추천', '협재술집', '협재입니다']",협재1번가술집밥집,제주특별자치도 제주시 한림읍 협재리 1728,126.24216053732899,33.395604683838634,한림읍
151,https://www.instagram.com/p/CH90AsZJbjs/,2020-11-24T07:53:23.000Z,hjsss1020,"#협재#제주도#바다
#제주#협재게스트하우스#감성포차
#협재1번가#제주도술집#협재맛집
#제주술집#제주여행#제주도여행
#jeju#카페#제주카페#제주맛집
#제주도멋집#제주#뷰#중문
#서귀포#성산#제주서쪽
#협재술집#협재술집추천
#협재술집❤ #협재입니다","['협재', '제주도', '바다', '제주', '협재게스트하우스', '감성포차', '협재1번가', '제주도술집', '협재맛집', '제주술집', '제주여행', '제주도여행', 'jeju', '카페', '제주카페', '제주맛집', '제주도멋집', '제주', '뷰', '중문', '서귀포', '성산', '제주서쪽', '협재술집', '협재술집추천', '협재술집', '협재입니다']",협재1번가술집밥집,제주특별자치도 제주시 한림읍 협재리 1728,126.24216053732899,33.395604683838634,한림읍
153,https://www.instagram.com/p/CH9z89YJjsL/,2020-11-24T07:52:52.000Z,hjsss1020,"#협재#제주도#바다
#제주#협재게스트하우스#감성포차
#협재1번가#제주도술집#협재맛집
#제주술집#제주여행#제주도여행
#jeju#카페#제주카페#제주맛집
#제주도멋집#제주#뷰#중문
#서귀포#성산#제주서쪽
#협재술집#협재술집추천
#협재술집❤ #협재입니다","['협재', '제주도', '바다', '제주', '협재게스트하우스', '감성포차', '협재1번가', '제주도술집', '협재맛집', '제주술집', '제주여행', '제주도여행', 'jeju', '카페', '제주카페', '제주맛집', '제주도멋집', '제주', '뷰', '중문', '서귀포', '성산', '제주서쪽', '협재술집', '협재술집추천', '협재술집', '협재입니다']",협재1번가술집밥집,제주특별자치도 제주시 한림읍 협재리 1728,126.24216053732899,33.395604683838634,한림읍
155,https://www.instagram.com/p/CH9z6ZUpUTe/,2020-11-24T07:52:31.000Z,hjsss1020,"#협재#제주도#바다
#제주#협재게스트하우스#감성포차
#협재1번가#제주도술집#협재맛집
#제주술집#제주여행#제주도여행
#jeju#카페#제주카페#제주맛집
#제주도멋집#제주#뷰#중문
#서귀포#성산#제주서쪽
#협재술집#협재술집추천
#협재술집❤ #협재입니다","['협재', '제주도', '바다', '제주', '협재게스트하우스', '감성포차', '협재1번가', '제주도술집', '협재맛집', '제주술집', '제주여행', '제주도여행', 'jeju', '카페', '제주카페', '제주맛집', '제주도멋집', '제주', '뷰', '중문', '서귀포', '성산', '제주서쪽', '협재술집', '협재술집추천', '협재술집', '협재입니다']",협재1번가술집밥집,제주특별자치도 제주시 한림읍 협재리 1728,126.24216053732899,33.395604683838634,한림읍
156,https://www.instagram.com/p/CH9z3ZsJQIE/,2020-11-24T07:52:07.000Z,hjsss1020,"#협재#제주도#바다
#제주#협재게스트하우스#감성포차
#협재1번가#제주도술집#협재맛집
#제주술집#제주여행#제주도여행
#jeju#카페#제주카페#제주맛집
#제주도멋집#제주#뷰#중문
#서귀포#성산#제주서쪽
#협재술집#협재술집추천
#협재술집❤ #협재입니다","['협재', '제주도', '바다', '제주', '협재게스트하우스', '감성포차', '협재1번가', '제주도술집', '협재맛집', '제주술집', '제주여행', '제주도여행', 'jeju', '카페', '제주카페', '제주맛집', '제주도멋집', '제주', '뷰', '중문', '서귀포', '성산', '제주서쪽', '협재술집', '협재술집추천', '협재술집', '협재입니다']",협재1번가술집밥집,제주특별자치도 제주시 한림읍 협재리 1728,126.24216053732899,33.395604683838634,한림읍
157,https://www.instagram.com/p/CH9zzi5ptnG/,2020-11-24T07:51:35.000Z,hjsss1020,"#협재#제주도#바다
#제주#협재게스트하우스#감성포차
#협재1번가#제주도술집#협재맛집
#제주술집#제주여행#제주도여행
#jeju#카페#제주카페#제주맛집
#제주도멋집#제주#뷰#중문
#서귀포#성산#제주서쪽
#협재술집#협재술집추천
#협재술집❤ #협재입니다","['협재', '제주도', '바다', '제주', '협재게스트하우스', '감성포차', '협재1번가', '제주도술집', '협재맛집', '제주술집', '제주여행', '제주도여행', 'jeju', '카페', '제주카페', '제주맛집', '제주도멋집', '제주', '뷰', '중문', '서귀포', '성산', '제주서쪽', '협재술집', '협재술집추천', '협재술집', '협재입니다']",협재1번가술집밥집,제주특별자치도 제주시 한림읍 협재리 1728,126.24216053732899,33.395604683838634,한림읍
165,https://www.instagram.com/p/CH9zdsfszTd/,2020-11-24T07:48:36.000Z,j__a_ee_,"🍊🧡🌈
.
.
.
.
.
.
#jeju#旅行#秋#冬#제주#제주도#카페콘테나 #카페더콘테나 #99#22#23","['jeju', '旅行', '秋', '冬', '제주', '제주도', '카페콘테나', '카페더콘테나', '99', '22', '23']",제주 카페더콘테나,제주특별자치도 제주시 조천읍 와산리 851,126.67895539907079,33.49808308071445,조천읍
167,https://www.instagram.com/p/CH9zP3GH9q2/,2020-11-24T07:46:43.000Z,guine_house,"본점은 아니지만 넘 존맛탱.. 냉우동 사랑해요
.
.
.
#제주_안기니 #제주 #제주여행 #제주맛집 #제주핫플 #수우동 #수우동쇠소깍점 #제주맛집추천 #제주맛집투어 #먹스타그램 #맛스타그램 #먹스타맞팔 #제주먹방 #제주먹스타그램 #제주먹부림 #제주맛집지도 #쇠소깍맛집 #쇠소깍카페 #쇠소깍근처맛집 #서귀포맛집 #서귀포맛집추천 #서귀포맛집베스트 #협재수우동 #용머리해안맛집 #선팔 #맞팔 #좋반 #소통 #인친 #팔로미","['제주_안기니', '제주', '제주여행', '제주맛집', '제주핫플', '수우동', '수우동쇠소깍점', '제주맛집추천', '제주맛집투어', '먹스타그램', '맛스타그램', '먹스타맞팔', '제주먹방', '제주먹스타그램', '제주먹부림', '제주맛집지도', '쇠소깍맛집', '쇠소깍카페', '쇠소깍근처맛집', '서귀포맛집', '서귀포맛집추천', '서귀포맛집베스트', '협재수우동', '용머리해안맛집', '선팔', '맞팔', '좋반', '소통', '인친', '팔로미']",쇠소깍 수우동,제주특별자치도 서귀포시 하효동 1298,126.61867504286916,33.25076159560252,하효동
168,https://www.instagram.com/p/CH9zE8Fl8Aj/,2020-11-24T07:45:13.000Z,kyeonge__e,"내 취향 🍡🍡
.
.
.

#제주도#제주카페#제주#제주도카페#국내여행#카페투어#먹스타그램 #셀카 #셀카그램 #럽스타그램#팔로워 #팔로우#맞팔#선팔#선팔해요#셀피그램 #selca #selfie #좋반#좋아요반사#데일리#셀스타그램 #얼스타그램 #소통 #인친 #일상#데일리#daliy","['제주도', '제주카페', '제주', '제주도카페', '국내여행', '카페투어', '먹스타그램', '셀카', '셀카그램', '럽스타그램', '팔로워', '팔로우', '맞팔', '선팔', '선팔해요', '셀피그램', 'selca', 'selfie', '좋반', '좋아요반사', '데일리', '셀스타그램', '얼스타그램', '소통', '인친', '일상', '데일리', 'daliy']",난드르커피,제주특별자치도 서귀포시 안덕면 덕수리 971,126.310872818041,33.2564731127925,안덕면
172,https://www.instagram.com/p/CH92-nXHmVH/,2020-11-24T08:19:19.000Z,__s00vin,"제주도에 가면 꼭 가고싶었던 카페.
공 백 📡
⠀
⠀
⠀
⠀
⠀
⠀
⠀
⠀
⠀
⠀
#제주#제주도#제주여행#제주핫플#제주카페#사진맛집#카페#카페공백#공백#좋아요#goodday#potd#ootd#fitgirl#instafit#데일리#데일리룩#셀카#셀피#셀스타그램#f4f#얼스타그램#몸스타그램#ootd#운동#운동하는여자#휴가#여행
⠀","['제주', '제주도', '제주여행', '제주핫플', '제주카페', '사진맛집', '카페', '카페공백', '공백', '좋아요', 'goodday', 'potd', 'ootd', 'fitgirl', 'instafit', '데일리', '데일리룩', '셀카', '셀피', '셀스타그램', 'f4f', '얼스타그램', '몸스타그램', 'ootd', '운동', '운동하는여자', '휴가', '여행']",Gongbech.공백,제주특별자치도 제주시 구좌읍 동복리 1568-1,126.715093661443,33.5533924123546,구좌읍
183,https://www.instagram.com/p/CH92R01FY28/,2020-11-24T08:13:12.000Z,zziiiisu,"고운이 앞에선 잘웃자😁
#제주 #카페더콘테나 #웃어","['제주', '카페더콘테나', '웃어']",푸른섬 제주도,제주특별자치도 서귀포시 표선면 표선리 2919,126.812424476454,33.3079427982969,표선면
184,https://www.instagram.com/p/CH92KiNjper/,2020-11-24T08:12:12.000Z,hyeobjaejin,"협재1번가 뷰
날씨가 좋아서 오늘은 아름다운 낙조를
감상할 시간

#협재#제주도#바다
#제주#협재게스트하우스#감성포차
#협재1번가#제주도술집#협재맛집
#제주술집#제주여행#제주도여행
#jeju#카페#제주카페#제주맛집
#제주도멋집#제주#뷰#중문
#서귀포#성산#제주서쪽
#협재술집#협재술집추천
#협재술집❤ #협재입니다","['협재', '제주도', '바다', '제주', '협재게스트하우스', '감성포차', '협재1번가', '제주도술집', '협재맛집', '제주술집', '제주여행', '제주도여행', 'jeju', '카페', '제주카페', '제주맛집', '제주도멋집', '제주', '뷰', '중문', '서귀포', '성산', '제주서쪽', '협재술집', '협재술집추천', '협재술집', '협재입니다']",협재1번가술집밥집,제주특별자치도 제주시 한림읍 협재리 1728,126.24216053732899,33.395604683838634,한림읍
187,https://www.instagram.com/p/CH91uQMgKAl/,2020-11-24T08:11:33.000Z,matjjaengeee,"#페어리제주 #세화카페

오랜만에 온 제주에서 평화롭고 아름다운 카페 발견.

+구좌읍 세화리에 있는 페어리제주 입니다.
.
.
#제주도#제주#제주도게스트하우스#제주도카페#제주카페#구좌읍카페#구좌카페#구좌읍맛집#구좌맛집#구좌읍맛집#제주동쪽카페#애월게스트하우스#제주여행#제주도여행","['페어리제주', '세화카페', '제주도', '제주', '제주도게스트하우스', '제주도카페', '제주카페', '구좌읍카페', '구좌카페', '구좌읍맛집', '구좌맛집', '구좌읍맛집', '제주동쪽카페', '애월게스트하우스', '제주여행', '제주도여행']",제주 구좌읍 세화리,제주특별자치도 제주시 구좌읍 세화리 1-1,126.86025618946,33.5251436596119,구좌읍
189,https://www.instagram.com/p/CH915uIAQrz/,2020-11-24T08:09:54.000Z,_mini_iii,"제주도는 지금 동백꽃축제🌺
⠀
⠀
⠀
#제주 #제주여행 #제주카페추천 #동백포레스트 #동백꽃 #서귀포카페 #서귀포맛집 #제주남쪽여행 #데일리 #셀피 #셀스타그램 #분당 #성남 #정자 #일상 #휴가 #likesforlike #dailylook #model #selca","['제주', '제주여행', '제주카페추천', '동백포레스트', '동백꽃', '서귀포카페', '서귀포맛집', '제주남쪽여행', '데일리', '셀피', '셀스타그램', '분당', '성남', '정자', '일상', '휴가', 'likesforlike', 'dailylook', 'model', 'selca']",동백포레스트,제주특별자치도 서귀포시 남원읍 신례리 1767,126.63621623625866,33.30034607599768,남원읍
192,https://www.instagram.com/p/CH91-OsAksL/,2020-11-24T08:10:31.000Z,ri_mi_zzang,#제주도 #제주 #서귀포카페 #베케 #veke,"['제주도', '제주', '서귀포카페', '베케', 'veke']",제주도서귀포시,제주특별자치도 서귀포시 서귀동 316-1,126.51531780746991,33.237465168471545,서귀동
205,https://www.instagram.com/p/CH95CTUAPJl/,2020-11-24T08:37:17.000Z,egonschiele_cafe,"그림도구들은 무료이용 가능하세요
데이트하기 정말 좋은 공간
이색적인 카페 찾으신다면 #에곤카페
놀러오세요
영업시간 11:00 ~ 20:00
#제주카페 #제주도카페 #제주 #제주이색카페 #제주이쁜카페 #제주맛집추천 #그림그리는카페 #egonschiele #에곤쉴레카페 #성산카페 #제주성산카페 #제주맛집 #성산맛집 #제주카페추천 #에곤쉴레 #우도 #우도카페 #하도카페 #하도리카페 #세화카페 #종달리카페 #서귀포카페 #성산일출봉카페 #제주여행코스 #빛의벙커 #섭지코지카페 #제주나만아는카페 #제주카페그램 #제주카페가볼만한곳","['에곤카페', '제주카페', '제주도카페', '제주', '제주이색카페', '제주이쁜카페', '제주맛집추천', '그림그리는카페', 'egonschiele', '에곤쉴레카페', '성산카페', '제주성산카페', '제주맛집', '성산맛집', '제주카페추천', '에곤쉴레', '우도', '우도카페', '하도카페', '하도리카페', '세화카페', '종달리카페', '서귀포카페', '성산일출봉카페', '제주여행코스', '빛의벙커', '섭지코지카페', '제주나만아는카페', '제주카페그램', '제주카페가볼만한곳']",에곤카페,제주특별자치도 서귀포시 성산읍 고성리 485-1,126.918199053612,33.4399179214926,성산읍
207,https://www.instagram.com/p/CH94_Y7giDB/,2020-11-24T08:36:53.000Z,egonschiele_cafe,"그림도구들은 무료이용 가능하세요
데이트하기 정말 좋은 공간
이색적인 카페 찾으신다면 #에곤카페
놀러오세요
영업시간 11:00 ~ 20:00
#제주카페 #제주도카페 #제주 #제주이색카페 #제주이쁜카페 #제주맛집추천 #그림그리는카페 #egonschiele #에곤쉴레카페 #성산카페 #제주성산카페 #제주맛집 #성산맛집 #제주카페추천 #에곤쉴레 #우도 #우도카페 #하도카페 #하도리카페 #세화카페 #종달리카페 #서귀포카페 #성산일출봉카페 #제주여행코스 #빛의벙커 #섭지코지카페 #제주나만아는카페 #제주카페그램 #제주카페가볼만한곳","['에곤카페', '제주카페', '제주도카페', '제주', '제주이색카페', '제주이쁜카페', '제주맛집추천', '그림그리는카페', 'egonschiele', '에곤쉴레카페', '성산카페', '제주성산카페', '제주맛집', '성산맛집', '제주카페추천', '에곤쉴레', '우도', '우도카페', '하도카페', '하도리카페', '세화카페', '종달리카페', '서귀포카페', '성산일출봉카페', '제주여행코스', '빛의벙커', '섭지코지카페', '제주나만아는카페', '제주카페그램', '제주카페가볼만한곳']",에곤카페,제주특별자치도 서귀포시 성산읍 고성리 485-1,126.918199053612,33.4399179214926,성산읍
208,https://www.instagram.com/p/CH94--ODm8p/,2020-11-24T08:36:50.000Z,hyeonhee0000,".
.
.
#치저스 #치즈폭포스테이크 #송당리맛집 #제주도 #제주 #제주카페 #제주맛집 #제주명소 #다가볼꺼야 #가까운곳부터 #둘러보기 #제주도민 #도민맛집 #맛집탐방 #제주일상 #제주현지인맛집 #제주스타그램 #제주시맛집 #서귀포맛집 #코로나 #조심하세요 #😷","['치저스', '치즈폭포스테이크', '송당리맛집', '제주도', '제주', '제주카페', '제주맛집', '제주명소', '다가볼꺼야', '가까운곳부터', '둘러보기', '제주도민', '도민맛집', '맛집탐방', '제주일상', '제주현지인맛집', '제주스타그램', '제주시맛집', '서귀포맛집', '코로나', '조심하세요']",치저스 제주,제주특별자치도 제주시 구좌읍 송당리 1581-1,126.774018571495,33.4684714634794,구좌읍
209,https://www.instagram.com/p/CH94-auAIAm/,2020-11-24T08:36:46.000Z,egonschiele_cafe,"그림도구들은 무료이용 가능하세요
데이트하기 정말 좋은 공간
이색적인 카페 찾으신다면 #에곤카페
놀러오세요
영업시간 11:00 ~ 20:00
#제주카페 #제주도카페 #제주 #제주이색카페 #제주이쁜카페 #제주맛집추천 #그림그리는카페 #egonschiele #에곤쉴레카페 #성산카페 #제주성산카페 #제주맛집 #성산맛집 #제주카페추천 #에곤쉴레 #우도 #우도카페 #하도카페 #하도리카페 #세화카페 #종달리카페 #서귀포카페 #성산일출봉카페 #제주여행코스 #빛의벙커 #섭지코지카페 #제주나만아는카페 #제주카페그램 #제주카페가볼만한곳","['에곤카페', '제주카페', '제주도카페', '제주', '제주이색카페', '제주이쁜카페', '제주맛집추천', '그림그리는카페', 'egonschiele', '에곤쉴레카페', '성산카페', '제주성산카페', '제주맛집', '성산맛집', '제주카페추천', '에곤쉴레', '우도', '우도카페', '하도카페', '하도리카페', '세화카페', '종달리카페', '서귀포카페', '성산일출봉카페', '제주여행코스', '빛의벙커', '섭지코지카페', '제주나만아는카페', '제주카페그램', '제주카페가볼만한곳']",에곤카페,제주특별자치도 서귀포시 성산읍 고성리 485-1,126.918199053612,33.4399179214926,성산읍
221,https://www.instagram.com/p/CH94O5BDnwp/,2020-11-24T08:30:16.000Z,choiyoojinnnnnn,#햇빛 #쨍쨍 #행복해 #휴가 #애월 #제주 #카페 #봄날 #거울샷 #셀카 #셀스타그램 #예쁘다그램 #하늘 #커플샷 #좋아요 #여유 #힐링 #여행 #제주에미치다 #메이크업 #백만년만에 #화장 하고 #나들이 #산책 #커피 #💕,"['햇빛', '쨍쨍', '행복해', '휴가', '애월', '제주', '카페', '봄날', '거울샷', '셀카', '셀스타그램', '예쁘다그램', '하늘', '커플샷', '좋아요', '여유', '힐링', '여행', '제주에미치다', '메이크업', '백만년만에', '화장', '나들이', '산책', '커피']",봄날,제주특별자치도 제주시 일도1동 1425-3,126.524677826742,33.513278603906,일도1동
223,https://www.instagram.com/p/CH94HG8h7kp/,2020-11-24T08:29:12.000Z,jandi_visiting,"녹색카페, 식물카페를 지향하는 녹색을 좋아해
녹색메뉴만 연구학고 만드는 🥒🥦🥬🍏🥝
#잔디공장방문자 가 되어 주셔서 감사합니다🌱
#제주도 #성산카페 #잔디공장
.
✅서귀포시 성산읍 일주동로5154번길 5
✅OPEN 11:00 ~ 19:00
✅YES 애견동반가능한집 🐶 YES 키드존 👶🏻
.
🌱메뉴선택 실패1도 없는 맛있는 카페 🌱 #jmt
🤩잔디우유 6.5
😋잔디스무디 8.5
😝새콤하다에이드 6.5
🥰잔디잼토스트 4.5
.
‼️표선에서 성산가는 길 성산에서 표선가는 길
🚗🚕🚙🚌🚎 🚗🏎🛴🚚🚒🚛🚛
.
#제주 #서귀포 #카페 #식물카페 #서귀포카페
#성산일출봉 #섭지코지 #광치기해변 #우도 #제주도 #성산맛집 #표선맛집 #하도리맛집 #중문맛집 #성산일출봉맛집 #빛의벙커 #신산리카페 #신산리 #신산리맛집","['잔디공장방문자', '제주도', '성산카페', '잔디공장', 'jmt', '제주', '서귀포', '카페', '식물카페', '서귀포카페', '성산일출봉', '섭지코지', '광치기해변', '우도', '제주도', '성산맛집', '표선맛집', '하도리맛집', '중문맛집', '성산일출봉맛집', '빛의벙커', '신산리카페', '신산리', '신산리맛집']",잔디공장,제주특별자치도 서귀포시 성산읍 신산리 1073-9,126.873289850307,33.3774305792331,성산읍
224,https://www.instagram.com/p/CH94C5OhiPa/,2020-11-24T08:28:38.000Z,jandi_visiting,"잔디공장에서...
.
.
.

#잔디공장방문자 가 되어주셔서 감사합니다🌱

#제주도 #성산카페 #잔디공장 #cafe
#제주 #서귀포 #보롬왓 #휴애리 #카멜리아힐 #동백포레스트
.
.
.
#서귀포카페 #성산카페 #제주살이 #제주도카페추천 #제주도카페투어 #제주동쪽카페 #제주카페투어 #제주카페추천 #제주카페탐방 #제주도게스트하우스 #제주게하","['잔디공장방문자', '제주도', '성산카페', '잔디공장', 'cafe', '제주', '서귀포', '보롬왓', '휴애리', '카멜리아힐', '동백포레스트', '서귀포카페', '성산카페', '제주살이', '제주도카페추천', '제주도카페투어', '제주동쪽카페', '제주카페투어', '제주카페추천', '제주카페탐방', '제주도게스트하우스', '제주게하']",잔디공장,제주특별자치도 서귀포시 성산읍 신산리 1073-9,126.873289850307,33.3774305792331,성산읍
225,https://www.instagram.com/p/CH94ADElL23/,2020-11-24T08:28:15.000Z,again_cha_i_,"#제주 #아들과함깨하는
#감사가 뭐 별건가요~#감사합니다
#감성카페#토끼썸#구좌읍#하도리
#타이밍 이 척척 들어맞는 여상한 요#며칠
#뭐 좋은소식이 있으려나#아님말구
#쑥라떼","['제주', '아들과함깨하는', '감사가', '감사합니다', '감성카페', '토끼썸', '구좌읍', '하도리', '타이밍', '며칠', '뭐', '아님말구', '쑥라떼']",토끼썸,제주특별자치도 제주시 구좌읍 하도리 1,126.89881498224804,33.52192638345875,구좌읍
230,https://www.instagram.com/p/CH97oIdBfPA/,2020-11-24T08:59:56.000Z,younghee_h,"우도

블랑로쉐
바람이.. 🌬

#제주 #우도 #제주카페 #우도카페 #신행 #행복 #여행 #카페투어 #카페 #일상 #바다 #제주도 #블랑로쉐 #cafe","['제주', '우도', '제주카페', '우도카페', '신행', '행복', '여행', '카페투어', '카페', '일상', '바다', '제주도', '블랑로쉐', 'cafe']",블랑로쉐,제주특별자치도 제주시 우도면 연평리 712,126.95788529275667,33.51568360202809,우도면
232,https://www.instagram.com/p/CH97hPvJ3ry/,2020-11-24T08:58:59.000Z,jo_jh414,"제주도착해서 운전기사 🚖
지자투어 gogo 🙋🏻‍♂️
#제주도#제주#jeju#제주여행#그레이그로브#제주카페
이제 돈사돈 뿌시러 🐖🐖🐖🐖🐖🐖","['제주도', '제주', 'jeju', '제주여행', '그레이그로브', '제주카페']",그레이그로브,제주특별자치도 서귀포시 안덕면 사계리 2294-20,126.299823371655,33.2258394271189,안덕면
235,https://www.instagram.com/p/CH97YT5jd34/,2020-11-24T08:57:46.000Z,lillyb_illy,"베리딜리셔스가 최고다.
.
.
#제주 #제주도 #제주여행 #제주살이 #한림 #한림맛집 #한림카페 #제주맛집 #제주카페 #씨리얼","['제주', '제주도', '제주여행', '제주살이', '한림', '한림맛집', '한림카페', '제주맛집', '제주카페', '씨리얼']","Cereal, 씨리얼",제주특별자치도 제주시 한림읍 한림리 1034-1,126.26739782896999,33.41429832362196,한림읍
241,https://www.instagram.com/p/CH97AIgJKVw/,2020-11-24T08:54:28.000Z,cindy_7989,"W E
.
.
지난주 제주도가 꿈 같구나🌴
.
손과 발이 불편한 우리
.
이제부턴
좋은일 한가득~~
.
.
#제주#제주카페#아라파파#구름맛집
#우리#좋은일가득#액땜중#잘될꺼야
#부부#즐거움#동행#이상미인","['제주', '제주카페', '아라파파', '구름맛집', '우리', '좋은일가득', '액땜중', '잘될꺼야', '부부', '즐거움', '동행', '이상미인']",아라파파,제주특별자치도 제주시 연동 1523,126.490900288636,33.4784583869864,연동
242,https://www.instagram.com/p/CH96-U0hfH-/,2020-11-24T08:54:13.000Z,d_ggl_2,"2020년 겨울제주
.
.
.
#제주#제주도#겨울여행#제주여행#여행#전신샷#카페#제주카페#제주동쪽#공백#소통#셀피#셀카#좋아요#좋반#선팔#맞팔#selfie#","['제주', '제주도', '겨울여행', '제주여행', '여행', '전신샷', '카페', '제주카페', '제주동쪽', '공백', '소통', '셀피', '셀카', '좋아요', '좋반', '선팔', '맞팔', 'selfie']",Gongbech.공백,제주특별자치도 제주시 구좌읍 동복리 1568-1,126.715093661443,33.5533924123546,구좌읍
252,https://www.instagram.com/p/CH96dL_AONV/,2020-11-24T08:49:42.000Z,egonschiele_cafe,"그림도구들은 무료이용 가능하세요
데이트하기 정말 좋은 공간
이색적인 카페 찾으신다면 #에곤카페
놀러오세요
영업시간 11:00 ~ 20:00
#제주카페 #제주도카페 #제주 #제주이색카페 #제주이쁜카페 #제주맛집추천 #그림그리는카페 #egonschiele #에곤쉴레카페 #성산카페 #제주성산카페 #제주맛집 #성산맛집 #제주카페추천 #에곤쉴레 #우도 #우도카페 #하도카페 #하도리카페 #세화카페 #종달리카페 #서귀포카페 #성산일출봉카페 #제주여행코스 #빛의벙커 #섭지코지카페 #제주나만아는카페 #제주카페그램 #제주카페가볼만한곳","['에곤카페', '제주카페', '제주도카페', '제주', '제주이색카페', '제주이쁜카페', '제주맛집추천', '그림그리는카페', 'egonschiele', '에곤쉴레카페', '성산카페', '제주성산카페', '제주맛집', '성산맛집', '제주카페추천', '에곤쉴레', '우도', '우도카페', '하도카페', '하도리카페', '세화카페', '종달리카페', '서귀포카페', '성산일출봉카페', '제주여행코스', '빛의벙커', '섭지코지카페', '제주나만아는카페', '제주카페그램', '제주카페가볼만한곳']",에곤카페,제주특별자치도 서귀포시 성산읍 고성리 485-1,126.918199053612,33.4399179214926,성산읍
263,https://www.instagram.com/p/CH99MVflB4o/,2020-11-24T09:13:37.000Z,greenbi_7,"시로코...
.
.
#시로코#시로코카페#자스민티#캐모마일티#민트티#카페#카페스타그램#음료스타그램#금요일#오후#저녁#제주#용담#제주카페#티타임","['시로코', '시로코카페', '자스민티', '캐모마일티', '민트티', '카페', '카페스타그램', '음료스타그램', '금요일', '오후', '저녁', '제주', '용담', '제주카페', '티타임']",제주도 해안도로,제주특별자치도 서귀포시 안덕면 사계리,126.293352563779,33.2167542093081,안덕면
268,https://www.instagram.com/p/CH987zFgOXa/,2020-11-24T09:11:21.000Z,egonschiele_cafe,"그림도구들은 무료이용 가능하세요
데이트하기 정말 좋은 공간
이색적인 카페 찾으신다면 #에곤카페
놀러오세요
영업시간 11:00 ~ 20:00
#제주카페 #제주도카페 #제주 #제주이색카페 #제주이쁜카페 #제주맛집추천 #그림그리는카페 #egonschiele #에곤쉴레카페 #성산카페 #제주성산카페 #제주맛집 #성산맛집 #제주카페추천 #에곤쉴레 #우도 #우도카페 #하도카페 #하도리카페 #세화카페 #종달리카페 #서귀포카페 #성산일출봉카페 #제주여행코스 #빛의벙커 #섭지코지카페 #제주나만아는카페 #제주카페그램 #제주카페가볼만한곳","['에곤카페', '제주카페', '제주도카페', '제주', '제주이색카페', '제주이쁜카페', '제주맛집추천', '그림그리는카페', 'egonschiele', '에곤쉴레카페', '성산카페', '제주성산카페', '제주맛집', '성산맛집', '제주카페추천', '에곤쉴레', '우도', '우도카페', '하도카페', '하도리카페', '세화카페', '종달리카페', '서귀포카페', '성산일출봉카페', '제주여행코스', '빛의벙커', '섭지코지카페', '제주나만아는카페', '제주카페그램', '제주카페가볼만한곳']",에곤카페,제주특별자치도 서귀포시 성산읍 고성리 485-1,126.918199053612,33.4399179214926,성산읍
272,https://www.instagram.com/p/CH9LL5djZ3b/,2020-11-24T01:56:39.000Z,g.bong.2,"오랜만에 재밌었다🤍
내옆에 계속 있을놈들ෆ
.
.
.
.

#좋아요반사 #좋반 #좋아요 #팔로우 #팔로우늘리기 #선팔후맞팔 #선팔 #맞팔 #셀피 #제주 #디엠 #일상 #인친 #데일리룩 #ootd #instagram #카페 #제주카페 #outfit #데일리 #daily #follow #일상스타그램 #likeforfollow #몸스타그램 #ootdfashion #selfie #패션 #motd #like","['좋아요반사', '좋반', '좋아요', '팔로우', '팔로우늘리기', '선팔후맞팔', '선팔', '맞팔', '셀피', '제주', '디엠', '일상', '인친', '데일리룩', 'ootd', 'instagram', '카페', '제주카페', 'outfit', '데일리', 'daily', 'follow', '일상스타그램', 'likeforfollow', '몸스타그램', 'ootdfashion', 'selfie', '패션', 'motd', 'like']",1970새마을포차 제주연동점,제주특별자치도 제주시 연동 273-14,126.490495611803,33.4865692570026,연동
275,https://www.instagram.com/p/CH983efAK1-/,2020-11-24T09:10:46.000Z,egonschiele_cafe,"그림도구들은 무료이용 가능하세요
데이트하기 정말 좋은 공간
이색적인 카페 찾으신다면 #에곤카페
놀러오세요
영업시간 11:00 ~ 20:00
#제주카페 #제주도카페 #제주 #제주이색카페 #제주이쁜카페 #제주맛집추천 #그림그리는카페 #egonschiele #에곤쉴레카페 #성산카페 #제주성산카페 #제주맛집 #성산맛집 #제주카페추천 #에곤쉴레 #우도 #우도카페 #하도카페 #하도리카페 #세화카페 #종달리카페 #서귀포카페 #성산일출봉카페 #제주여행코스 #빛의벙커 #섭지코지카페 #제주나만아는카페 #제주카페그램 #제주카페가볼만한곳","['에곤카페', '제주카페', '제주도카페', '제주', '제주이색카페', '제주이쁜카페', '제주맛집추천', '그림그리는카페', 'egonschiele', '에곤쉴레카페', '성산카페', '제주성산카페', '제주맛집', '성산맛집', '제주카페추천', '에곤쉴레', '우도', '우도카페', '하도카페', '하도리카페', '세화카페', '종달리카페', '서귀포카페', '성산일출봉카페', '제주여행코스', '빛의벙커', '섭지코지카페', '제주나만아는카페', '제주카페그램', '제주카페가볼만한곳']",에곤카페,제주특별자치도 서귀포시 성산읍 고성리 485-1,126.918199053612,33.4399179214926,성산읍
279,https://www.instagram.com/p/CH98kAMjtaq/,2020-11-24T09:08:23.000Z,staywithcoffee,"[NEW CORP.11]

[콜롬비아 라 로마 N]

체리체리하고♥
와인와인하며♥
뱅쇼뱅쇼해요♥

차별화된 톡톡튀는 향미

URL : www.staywithcoffee.com

#콜롬비아 #라로마 #콜롬비아라로마 #COLOMBIA #LALOMA #제주 #로스터리카페 #스테이위드커피 #staywithcoffee #취향존중 #취향에맞는커피 #커피매니아 #커피전문가 #올해의커피 #베스트픽 #원픽 #제주카페 #카페투어 #카페맛집 #카페추천 #제주카페추천 #사계리카페 #서귀포카페 #모슬포카페","['콜롬비아', '라로마', '콜롬비아라로마', 'COLOMBIA', 'LALOMA', '제주', '로스터리카페', '스테이위드커피', 'staywithcoffee', '취향존중', '취향에맞는커피', '커피매니아', '커피전문가', '올해의커피', '베스트픽', '원픽', '제주카페', '카페투어', '카페맛집', '카페추천', '제주카페추천', '사계리카페', '서귀포카페', '모슬포카페']",Stay with Coffee,제주특별자치도 서귀포시 안덕면 사계리 2147-1,126.303287850538,33.2278027640613,안덕면
285,https://www.instagram.com/p/CH9__eBh2mU/,2020-11-24T09:38:04.000Z,younghee_h,"성산 스튜디오
드르쿰다
카페? 🙄

#제주 #우도 #제주카페 #신행 #행복 #여행 #카페투어 #카페 #일상 #바다 #제주도 #드르쿰다 #드르쿰다in성산 #cafe #성산스튜디오","['제주', '우도', '제주카페', '신행', '행복', '여행', '카페투어', '카페', '일상', '바다', '제주도', '드르쿰다', '드르쿰다in성산', 'cafe', '성산스튜디오']",드르쿰다 제주,제주특별자치도 서귀포시 성산읍 고성리 372-1,126.91908094568531,33.444502297886025,성산읍
306,https://www.instagram.com/p/CH9_IT5Bs4W/,2020-11-24T09:30:32.000Z,younghee_h,"우도
해물짬뽕
톳 짜장🍜

#제주 #우도 #신행 #행복 #여행 #카페투어 #카페 #일상 #바다 #제주도 #우도짬뽕 #우도짜장면 #짜장면 #짬뽕맛집 #우도산호반점","['제주', '우도', '신행', '행복', '여행', '카페투어', '카페', '일상', '바다', '제주도', '우도짬뽕', '우도짜장면', '짜장면', '짬뽕맛집', '우도산호반점']",우도 산호반점,제주특별자치도 제주시 우도면 연평리 2516-2,126.94374285460731,33.50261826862432,우도면
307,https://www.instagram.com/p/CH9_IMIBy-0/,2020-11-24T09:30:31.000Z,jandi_visiting,"녹색카페, 식물카페를 지향하는 녹색을 좋아해
녹색메뉴만 연구학고 만드는 🥒🥦🥬🍏🥝

#잔디공장방문자 가 되어 주셔서 감사합니다🌱
#제주도 #성산카페 #잔디공장
.
✅서귀포시 성산읍 일주동로5154번길 5
✅OPEN 11:00 ~ 19:00
✅YES 애견동반가능한집 🐶 YES 키드존 👶🏻
.
🌱메뉴선택 실패1도 없는 맛있는 카페 🌱 #jmt
🤩잔디우유 6.5
😋잔디스무디 8.5
😝새콤하다에이드 6.5
🥰잔디잼토스트 4.5
.
‼️표선에서 성산가는 길 성산에서 표선가는 길
🚗🚕🚙🚌🚎 🚗🏎🛴🚚🚒🚛🚛
.
#제주 #서귀포 #제주도여행 #제주살이 #제주도게스트하우스 #도두해안도로 #한담해변 #협재해수욕장 #제주도핫플 #성산맛집 #서귀포맛집 #애월맛집 #한담맛집 #곽지맛집 #협재맛집 #한림맛집 #대정맛집 #협재카페 #애월카페","['잔디공장방문자', '제주도', '성산카페', '잔디공장', 'jmt', '제주', '서귀포', '제주도여행', '제주살이', '제주도게스트하우스', '도두해안도로', '한담해변', '협재해수욕장', '제주도핫플', '성산맛집', '서귀포맛집', '애월맛집', '한담맛집', '곽지맛집', '협재맛집', '한림맛집', '대정맛집', '협재카페', '애월카페']",잔디공장,제주특별자치도 서귀포시 성산읍 신산리 1073-9,126.873289850307,33.3774305792331,성산읍
308,https://www.instagram.com/p/CH9-36qjdVX/,2020-11-24T09:28:28.000Z,hyeobjaejin,"오늘은 매운거 불닭이닷

협재1번가 불닭♡

#협재#제주도#바다
#제주#협재게스트하우스#감성포차
#협재1번가#제주도술집#협재맛집
#제주술집#제주여행#제주도여행
#jeju#카페#제주카페#제주맛집
#제주도멋집#제주#뷰#중문
#서귀포#성산#제주서쪽
#협재술집#협재술집추천
#협재술집❤ #협재입니다","['협재', '제주도', '바다', '제주', '협재게스트하우스', '감성포차', '협재1번가', '제주도술집', '협재맛집', '제주술집', '제주여행', '제주도여행', 'jeju', '카페', '제주카페', '제주맛집', '제주도멋집', '제주', '뷰', '중문', '서귀포', '성산', '제주서쪽', '협재술집', '협재술집추천', '협재술집', '협재입니다']",협재1번가술집밥집,제주특별자치도 제주시 한림읍 협재리 1728,126.24216053732899,33.395604683838634,한림읍
313,https://www.instagram.com/p/CH9-yUkp_3R/,2020-11-24T09:27:32.000Z,godyaosdy,"오랜만에 몽상드애월을 지나 하이엔드 제주에서 소금커피 한잔~ 노을과 석양은 보너스!!👍

#제주시맛집 #제주살이 #제주라이프 #제주카페 #제주도맛집 #제주가볼만한곳 #제주일상 #제주도 #제주맛집 #제주도가볼만한곳 #제주도한달살기 #제주 #제주도카페 #선팔맞팔 #선팔 #맞팔 #선팔하면맞팔 #안알랴줌 #소통해요 #소통 #소통환영 #소통스타그램 #제주뚜벅이여행 #제주올레길 #애월읍 #하이엔드제주 #몽상드애월","['제주시맛집', '제주살이', '제주라이프', '제주카페', '제주도맛집', '제주가볼만한곳', '제주일상', '제주도', '제주맛집', '제주도가볼만한곳', '제주도한달살기', '제주', '제주도카페', '선팔맞팔', '선팔', '맞팔', '선팔하면맞팔', '안알랴줌', '소통해요', '소통', '소통환영', '소통스타그램', '제주뚜벅이여행', '제주올레길', '애월읍', '하이엔드제주', '몽상드애월']",하이엔드 제주,제주특별자치도 제주시 애월읍 애월리 2550-2,126.30917383944714,33.46359065428745,애월읍
314,https://www.instagram.com/p/CH9-thUpVSM/,2020-11-24T09:26:53.000Z,itsheeyoung,강추 하는 서귀포 브런치 카페! (귤따기 체험도 무료로 가능 ☺️) #제주 #서귀포카페 #jeju,"['제주', '서귀포카페', 'jeju']",카페텐저린,제주특별자치도 서귀포시 법환동 1298-3,126.50870672572,33.2362671146571,법환동
322,https://www.instagram.com/p/CH-CR4wjvVv/,2020-11-24T09:58:04.000Z,woljeongriincafefreegoods,"#제주 #월정리인카페# #증정굿즈
음료 주문시 2개 증정 5개 소장 #엑소 #롯데면세점 #스윙키즈 팜플렛 엽서 #exo 본계정 @woljeongriincafe 수집굿즈는가지고있던 것 증정 소진시 Sold out 표시하겠습니다 a4크기 코팅해 놀았어요 #아이돌굿즈 #제주기념품 증정 #kpop #cafe #kactor #kactress #kstar #collection #kpopstar #kmusic #lottedutyfree #swingkids #movie #도경수 #카이 #오세훈","['제주', '월정리인카페', '증정굿즈', '엑소', '롯데면세점', '스윙키즈', 'exo', '아이돌굿즈', '제주기념품', 'kpop', 'cafe', 'kactor', 'kactress', 'kstar', 'collection', 'kpopstar', 'kmusic', 'lottedutyfree', 'swingkids', 'movie', '도경수', '카이', '오세훈']",월정리인카페,제주특별자치도 제주시 구좌읍 월정리 594,126.79328046831104,33.5561956278273,구좌읍
330,https://www.instagram.com/p/CH-B0AiHgB8/,2020-11-24T09:53:59.000Z,haekyong_,"완전 #취저

경운기 부릉부릉 🤣🤣🤣

#카페더콘테나
#귤

#제주
#제주도
#jeju

#kyong_✈ #소확행 #일상 #일상기록 #소소한일상 #소소한행복 #데일리 #daily #일상스타그램 #추억 #여행 #여행스타그램 #직장인스타그램 #yolo #행복 #신난당 #짱짱 #욜로 #힐링 #ootd #오오티디 #꿀맛 #짱맛 #drive","['취저', '카페더콘테나', '귤', '제주', '제주도', 'jeju', 'kyong_', '소확행', '일상', '일상기록', '소소한일상', '소소한행복', '데일리', 'daily', '일상스타그램', '추억', '여행', '여행스타그램', '직장인스타그램', 'yolo', '행복', '신난당', '짱짱', '욜로', '힐링', 'ootd', '오오티디', '꿀맛', '짱맛', 'drive']",제주 카페더콘테나,제주특별자치도 제주시 조천읍 와산리 851,126.67895539907079,33.49808308071445,조천읍
339,https://www.instagram.com/p/CH-BROyB7At/,2020-11-24T09:49:14.000Z,he_ond,"미영이네 옆집도 맛있었다☺ 츄릅

#제주 #제주여행 #모슬포 #만선식당 #서귀포 #스타벅스 #제주까망라떼 #수희식당 #Jeju #JejuIsland #sashimi #foodie #foodporn #starbucks #cafe #cafetour #travel #travelgram #instatravel","['제주', '제주여행', '모슬포', '만선식당', '서귀포', '스타벅스', '제주까망라떼', '수희식당', 'Jeju', 'JejuIsland', 'sashimi', 'foodie', 'foodporn', 'starbucks', 'cafe', 'cafetour', 'travel', 'travelgram', 'instatravel']",모슬포항 만선식당,제주특별자치도 서귀포시 대정읍 하모리 770-50,126.249810687304,33.2178625441496,대정읍
345,https://www.instagram.com/p/CH-EgDihoQw/,2020-11-24T10:17:28.000Z,jandi_visiting,"녹색카페, 식물카페를 지향하고 녹색을 좋아해
녹색메뉴만 연구학고 만드는 🥒🥦🥬🍏잔디공장

#잔디공장방문자 가 되어 주셔서 감사합니다🌱
#제주도 #성산카페 #잔디공장
.
✅서귀포시 성산읍 일주동로5154번길 5
✅OPEN 11:00 ~ 19:00
✅YES 애견동반가능한집 🐶 YES 키드존 👶🏻
.
🌱메뉴선택 실패1도 없는 맛있는 카페 🌱 #jmt
🤩잔디우유 6.5
😋잔디스무디 8.5
😝새콤하다에이드 6.5
🥰잔디잼토스트 4.5
.
‼️표선에서 성산가는 길 성산에서 표선가는 길
🚗🚕🚙🚌🚎 🚗🏎🛴🚚🚒🚛🚛
.
#제주 #서귀포 #식물카페 #동백꽃 #성산일출봉 #제주카페 #서귀포카페 #제주동쪽카페 #제주카페투어 #제주카페추천 #제주카페탐방 #제주도게스트하우스 #아쿠아플라넷제주 #해비치호텔 #플레이스캠프제주 #빛의벙커 #드르쿰다","['잔디공장방문자', '제주도', '성산카페', '잔디공장', 'jmt', '제주', '서귀포', '식물카페', '동백꽃', '성산일출봉', '제주카페', '서귀포카페', '제주동쪽카페', '제주카페투어', '제주카페추천', '제주카페탐방', '제주도게스트하우스', '아쿠아플라넷제주', '해비치호텔', '플레이스캠프제주', '빛의벙커', '드르쿰다']",잔디공장,제주특별자치도 서귀포시 성산읍 신산리 1073-9,126.873289850307,33.3774305792331,성산읍
351,https://www.instagram.com/p/CH-EFT7jgp7/,2020-11-24T10:13:49.000Z,woljeongriincafefreegoods,"#제주 #월정리인카페# #증정굿즈
음료 주문시 2개 증정 10개 소장 #이연희 #leeyeonhee #sony #northface #sk2 #advertisement 본계정 @woljeongriincafe 수집굿즈는가지고있던 것 증정 소진시 Sold out 표시하겠습니다 a4크기 코팅해 놀았어요
#제주도카페 #월정리카페 #제주아이와가볼만한곳 #바다뷰카페 #월정리맛집 #제주동쪽카페 #증정이벤트 #아이돌굿즈 #제주기념품 증정 #kpop #cafe #제주맛집 #제주카페 #월정리맛집 #제주살이 #kactor #kactress #kstar #collection #kpopstar #kmusic","['제주', '월정리인카페', '증정굿즈', '이연희', 'leeyeonhee', 'sony', 'northface', 'sk2', 'advertisement', '제주도카페', '월정리카페', '제주아이와가볼만한곳', '바다뷰카페', '월정리맛집', '제주동쪽카페', '증정이벤트', '아이돌굿즈', '제주기념품', 'kpop', 'cafe', '제주맛집', '제주카페', '월정리맛집', '제주살이', 'kactor', 'kactress', 'kstar', 'collection', 'kpopstar', 'kmusic']",월정리인카페,제주특별자치도 제주시 구좌읍 월정리 594,126.79328046831104,33.5561956278273,구좌읍
354,https://www.instagram.com/p/CH-D9ofhxdG/,2020-11-24T10:12:46.000Z,youjj10_,"먹구름쓰 바다..맑은날 다시방문하자...😂
.
.
.
.
#스냅사진 #바다 #제주 #협재카페 #오누큐브 #협재해수욕장 #금능해수욕장 #sea #daily #jeju","['스냅사진', '바다', '제주', '협재카페', '오누큐브', '협재해수욕장', '금능해수욕장', 'sea', 'daily', 'jeju']",협재해수욕장,제주특별자치도 제주시 한림읍 협재리 2447,126.239157539085,33.3938660776221,한림읍
369,https://www.instagram.com/p/CH-DdePM6PO/,2020-11-24T10:08:23.000Z,1995_153_,"치통이 있어열
.
#제주 #제주여행 #제주카페 #레이지펌프 #여행 #여행스타그램 #카페스타그램 #jeju #jejutravel #jejucafe #lazypump #travelstagram #cafestagram","['제주', '제주여행', '제주카페', '레이지펌프', '여행', '여행스타그램', '카페스타그램', 'jeju', 'jejutravel', 'jejucafe', 'lazypump', 'travelstagram', 'cafestagram']",레이지펌프,제주특별자치도 제주시 애월읍 애월리 2578-5,126.309539831628,33.4662712983402,애월읍
400,https://www.instagram.com/p/CH-JS-cD8Ps/,2020-11-24T10:59:23.000Z,woljeongriincafe,"[#제주 #월정리 #월정리인카페 #패션오브크라이스 굿즈전시 3층에]

#passionofchrist #dvd #book #ost cd와 가사집

제가 기독문화 좋아해서 기독영화 기독뮤지컬도 많이보고 굿즈도 모았는데 3층에 기독문화 관련 굿즈들 모아서 전시해 놓았어요

세트 1 아메리카노 2잔 초코와플 1.0
세트 2 아메리카노 2잔 케익류1 1.1
세트 3 아메리카노 2잔 스콘 9

제주 귤류로 만든 다양한 수제청 음료
한라봉 제주감귤 황금향 레드향 천혜향

과일 200g씩 넣어 갈아드리는 스무디 요거트스무디

음료주문시 #제주기념품 어린이선물 (스티커 메모지 카드 딱지) 등 2개 증정 or #연예인굿즈 (개봉앨범 엽서 책 카다로그 책갈피 ) 1개 상시 증정

증정굿즈 소진여부는 월정리인카페증정굿즈 인스타 참고해주세요

@woljeongriincafefreegoods
#카페스타그램 #cafe #coffeeshop
#월정리카페 #월정리해변 #월정리바다 #월정리카페거리 #월정리해수욕장 #월정리바다뷰 #월정리맛집 #제주도핫플 #제주가볼만한곳 #제주여행코스 #제주아이와가볼만한곳 #kdrama #koreanwave #제주귤맛집 #제주뷰맛집 #월정리오션뷰카페","['제주', '월정리', '월정리인카페', '패션오브크라이스', 'passionofchrist', 'dvd', 'book', 'ost', '제주기념품', '연예인굿즈', '카페스타그램', 'cafe', 'coffeeshop', '월정리카페', '월정리해변', '월정리바다', '월정리카페거리', '월정리해수욕장', '월정리바다뷰', '월정리맛집', '제주도핫플', '제주가볼만한곳', '제주여행코스', '제주아이와가볼만한곳', 'kdrama', 'koreanwave', '제주귤맛집', '제주뷰맛집', '월정리오션뷰카페']",월정리인카페,제주특별자치도 제주시 구좌읍 월정리 594,126.79328046831104,33.5561956278273,구좌읍
405,https://www.instagram.com/p/CH-I5Suh_7H/,2020-11-24T10:55:52.000Z,jandi_visiting,"따듯한 햇살이 초록벽에 스쳐 다양한 초록다색
따듯한 섬 속 너와 나의 시간 잔디공장에서☘️
#제주도 #식물카페 #잔디공장 #성산카페
.
📍서귀포시 성산읍 일주동로5154번길 5
🟡OPEN 11:00 ~ 19:00
✅YES 애견동반가능한집 🐶 YES 키드존 👶🏻
.
🌱메뉴선택 실패1도 없는 맛있는 #jmt 카페 🌱
🤩잔디우유 6.5
😋잔디스무디 8.5
😝새콤하다에이드 6.5
🥰잔디잼토스트 4.5
.
#제주 #서귀포 #제주도여행 #제주도숲길 #사려니숲길 #비자림 #제주절물자연휴양림 #숫모르숲길 #샤이니숲길 #한라생태숲 #서귀포치유의숲 #머체왓숲길 #동백군락지 #동백수목원","['제주도', '식물카페', '잔디공장', '성산카페', 'jmt', '제주', '서귀포', '제주도여행', '제주도숲길', '사려니숲길', '비자림', '제주절물자연휴양림', '숫모르숲길', '샤이니숲길', '한라생태숲', '서귀포치유의숲', '머체왓숲길', '동백군락지', '동백수목원']",잔디공장,제주특별자치도 서귀포시 성산읍 신산리 1073-9,126.873289850307,33.3774305792331,성산읍
418,https://www.instagram.com/p/CH-IXQeDSuT/,2020-11-24T10:51:13.000Z,woljeongriincafe,"[#제주 #월정리 #월정리인카페
귤비앙코 당근케이크]

창 밖에 보이는 바다가 멋지네요~~^^
세트로 드시면 저렴하게 드실 수 있어요
세트 1 아메리카노 2잔 초코와플 1.0
세트 2 아메리카노 2잔 케익류1 1.1
세트 3 아메리카노 2잔 스콘 9

제주 귤류로 만든 다양한 수제청 음료
한라봉 제주감귤 황금향 레드향 천혜향

과일 200g씩 넣어 갈아드리는 스무디 요거트스무디

음료주문시 #제주기념품 어린이선물 (스티커 메모지 카드 딱지) 등 2개 증정 or #연예인굿즈 (개봉앨범 엽서 책 카다로그 책갈피 ) 1개 상시 증정

증정굿즈 소진여부는 월정리인카페증정굿즈 인스타 참고해주세요

@woljeongriincafefreegoods
#카페스타그램 #cafe #coffeeshop #먹스타그램 #맛스타그램
#월정리카페 #월정리해변 #월정리바다 #월정리카페거리 #월정리해수욕장 #월정리바다뷰 #월정리맛집 #제주여행코스 #제주아이와가볼만한곳 #kpop #kdrama #koreanwave #제주귤맛집 #제주뷰맛집 #월정리오션뷰카페","['제주', '월정리', '월정리인카페', '제주기념품', '연예인굿즈', '카페스타그램', 'cafe', 'coffeeshop', '먹스타그램', '맛스타그램', '월정리카페', '월정리해변', '월정리바다', '월정리카페거리', '월정리해수욕장', '월정리바다뷰', '월정리맛집', '제주여행코스', '제주아이와가볼만한곳', 'kpop', 'kdrama', 'koreanwave', '제주귤맛집', '제주뷰맛집', '월정리오션뷰카페']",월정리인카페,제주특별자치도 제주시 구좌읍 월정리 594,126.79328046831104,33.5561956278273,구좌읍
463,https://www.instagram.com/p/CH-M_milYui/,2020-11-24T11:31:41.000Z,sanga_kidsvideoschool,"#제주 #청수리 #이장님 #청년회 팀장님과 하루만에 친해진 #나란여자
@nodrey_happylife #너란여자

@ddang.kim @kyk.0804 @song32813
@hwi_1106 #귤농사 지으러 갑싀당

#반딧불이마을 #제주다움 #제주가볼만한곳 #제주핫플 #김포맘 #맘카페 #맘스타그램 #제주니아","['제주', '청수리', '이장님', '청년회', '나란여자', '너란여자', '귤농사', '반딧불이마을', '제주다움', '제주가볼만한곳', '제주핫플', '김포맘', '맘카페', '맘스타그램', '제주니아']",제주시 한경면 청수리,제주특별자치도 제주시 한경면 청수리 산 4,126.2619787298259,33.30109976170143,한경면
471,https://www.instagram.com/p/CH-M4_thei3/,2020-11-24T11:30:47.000Z,sunyoung_pd,"정말 무계획으로 갑자기 떠난 #제주
그런데 너무나도 좋았던 #jeju
1.#카페델문도 모카번 인절미빵 적극 추천
얼마나 맛있었으면 셋째날 아침으로 포장하러 두번 방문함
2.#버드나무집 해물이 가득 들어있어 맛이 없을 수 없는 칼국수
3.#털보스협재밀 갈치구이와 김밥을 넘나 좋아하는 1인으로서 이것은 진리
4.#카페모알보알 모발모발 아니죠ㅋ풍경멍때리기 너무 좋은 곳
5.#고집돌우럭 함덕근처 맛집 검색 후 기대없이 갔다가 고추장에 빠진 우럭맛이 남달랐던
.
#써니pd #여행후기
#제주맛집 #제주카페 #맛집스타그램","['제주', 'jeju', '카페델문도', '버드나무집', '털보스협재밀', '카페모알보알', '고집돌우럭', '써니pd', '여행후기', '제주맛집', '제주카페', '맛집스타그램']",푸른섬 제주도,제주특별자치도 서귀포시 표선면 표선리 2919,126.812424476454,33.3079427982969,표선면
472,https://www.instagram.com/p/CH-MvOkD-tg/,2020-11-24T11:29:40.000Z,ocean_brick,"이것이 힐링😘
.
.
.
.
#산방산카페 #산방산맛집 #오션브릭","['산방산카페', '산방산맛집', '오션브릭']",오션브릭,제주특별자치도 서귀포시 안덕면 화순리 2021,126.3249561661,33.2420271360949,안덕면
477,https://www.instagram.com/p/CH-QNK3hfql/,2020-11-24T11:59:45.000Z,jandi_visiting,"담쟁이덩쿨로 덮여진 초록빛 세상🟢
식물들의 온도 22’ 습도60%
#제주도 #식물카페 #성산카페 #잔디공장
.
📍서귀포시 성산읍 일주동로5154번길 5
🟡OPEN 11:00 ~ 19:00
✅YES 애견동반가능한집 🐶 YES 키드존 👶🏻
.
🌱초록은 동색이 될 수 없는 메뉴🌱
-잔디우유
-잔디라떼
-잔디스무디
-새콤하다에이드
-잔디잼토스트
.
#제주 #서귀포 #한라산 #오름투어 #제주오름 #새별오름#용눈이오름 #백약이오름 #안돌오름 #아부오름 #물영아리오름 #지미봉 #윗세오름 #갯깍주상절리 #진곶내 #큰엉해안경승지 #사려니숲길 #금오름 #도두봉 #도두해안도로 #제주동백","['제주도', '식물카페', '성산카페', '잔디공장', '제주', '서귀포', '한라산', '오름투어', '제주오름', '새별오름', '용눈이오름', '백약이오름', '안돌오름', '아부오름', '물영아리오름', '지미봉', '윗세오름', '갯깍주상절리', '진곶내', '큰엉해안경승지', '사려니숲길', '금오름', '도두봉', '도두해안도로', '제주동백']",잔디공장,제주특별자치도 서귀포시 성산읍 신산리 1073-9,126.873289850307,33.3774305792331,성산읍
478,https://www.instagram.com/p/CH-QKAXDKEp/,2020-11-24T11:59:19.000Z,0507o_o,#제주 #20 #01 #insta #instagram #daily #인스타 #데일리 #일상 #소통 #사진 #피드 #좋아요 #좋아요반사 #좋반테러 #팔로우 #선팔하면맞팔 #맞팔 #팔로미 #followme #followfollow #fff #likeforlikeback #첫줄반사 #셀스타 #셀카그램 #럽스타그램 #다렉 #카페,"['제주', '20', '01', 'insta', 'instagram', 'daily', '인스타', '데일리', '일상', '소통', '사진', '피드', '좋아요', '좋아요반사', '좋반테러', '팔로우', '선팔하면맞팔', '맞팔', '팔로미', 'followme', 'followfollow', 'fff', 'likeforlikeback', '첫줄반사', '셀스타', '셀카그램', '럽스타그램', '다렉', '카페']",관심사,제주특별자치도 제주시 이도일동 1413-1,126.524576977046,33.511251441666,이도1동
479,https://www.instagram.com/p/CH-QEE5jJOP/,2020-11-24T11:58:30.000Z,0507o_o,#제주 #20 #01 #insta #instagram #daily #인스타 #데일리 #일상 #소통 #사진 #피드 #좋아요 #좋아요반사 #좋반테러 #팔로우 #선팔하면맞팔 #맞팔 #팔로미 #followme #followfollow #fff #likeforlikeback #첫줄반사 #셀스타 #셀카그램 #럽스타그램 #다렉 #카페,"['제주', '20', '01', 'insta', 'instagram', 'daily', '인스타', '데일리', '일상', '소통', '사진', '피드', '좋아요', '좋아요반사', '좋반테러', '팔로우', '선팔하면맞팔', '맞팔', '팔로미', 'followme', 'followfollow', 'fff', 'likeforlikeback', '첫줄반사', '셀스타', '셀카그램', '럽스타그램', '다렉', '카페']",관심사,제주특별자치도 제주시 이도일동 1413-1,126.524576977046,33.511251441666,이도1동
502,https://www.instagram.com/p/CH-Ou_uBvfB/,2020-11-24T11:46:54.000Z,s_hxx,"곽상희 해녀 13세
.
.
.
.
.
#카페 #갬성 #일상 #제주 #한번도 #안가봄
#일요일 #엄마랑데이트 #다이어트 #다이어터","['카페', '갬성', '일상', '제주', '한번도', '안가봄', '일요일', '엄마랑데이트', '다이어트', '다이어터']",어반제주,제주특별자치도 제주시 애월읍 고성리 902-12,126.422180864889,33.4357768092036,애월읍
507,https://www.instagram.com/p/CH-SSD6jS_9/,2020-11-24T12:18:02.000Z,marevento_jeju,"이래서 노을맛집 노을맛집 하는거죠~~😍😍😍👍👍

#제주#애월파스타#마레벤또#marevento #이태리식당 #제주맛집 #애월맛집 #한담맛집 #곽지맛집 #제주스타그램 #파스타그램 #푸드스타그램 #올레길15b코스 #한담해안산책로 #한담해변 #한담맛집#한담카페거리
#제주해녀돌담파스타
#해녀돌담파스타 #제주돌담파스타 #돌담파스타#노을맛집","['제주', '애월파스타', '마레벤또', 'marevento', '이태리식당', '제주맛집', '애월맛집', '한담맛집', '곽지맛집', '제주스타그램', '파스타그램', '푸드스타그램', '올레길15b코스', '한담해안산책로', '한담해변', '한담맛집', '한담카페거리', '제주해녀돌담파스타', '해녀돌담파스타', '제주돌담파스타', '돌담파스타', '노을맛집']",마레벤또,제주특별자치도 제주시 애월읍 애월리 2501-1,126.311651375914,33.4626081855416,애월읍
531,https://www.instagram.com/p/CH-RU4DjERF/,2020-11-24T12:09:32.000Z,eee.yeon,바람은 차고 볕은 따땃하고 하늘은 깨끗하고 날이 참 좋네 #제주 #Jeju #drive #daily #cafe #카페 #coffee #커피 #티타임 #풀베개 #대화 #수다 #오늘 #날씨 #좋다 #겨울 #시작 #언니 #덕분에 #refresh #기분전환 #건강하게 #살자 #행복하자,"['제주', 'Jeju', 'drive', 'daily', 'cafe', '카페', 'coffee', '커피', '티타임', '풀베개', '대화', '수다', '오늘', '날씨', '좋다', '겨울', '시작', '언니', '덕분에', 'refresh', '기분전환', '건강하게', '살자', '행복하자']",풀베개,제주특별자치도 서귀포시 안덕면 서광리 1756-1,126.303224677035,33.285512856952,안덕면
544,https://www.instagram.com/p/CH-UW0oDtXL/,2020-11-24T12:36:01.000Z,13.12.21,"좋아하지도 않는 여행이 가고싶어짐
코로나 제발꺼져..
.
.
#제주 #제주시 #제주도 #소통 #일상 #코로나 #코로나19물러가라 #여행 #커피 #데일리 #꽃 #해외여행 #가고싶다 #국내라도좋다 #이너프 #제주이너프 #제주카페 #제주카페추천 #좋아요 #맞팔 #선팔 #제주맛집","['제주', '제주시', '제주도', '소통', '일상', '코로나', '코로나19물러가라', '여행', '커피', '데일리', '꽃', '해외여행', '가고싶다', '국내라도좋다', '이너프', '제주이너프', '제주카페', '제주카페추천', '좋아요', '맞팔', '선팔', '제주맛집']","Enough, 이너프",제주특별자치도 서귀포시 안덕면 창천리 844-2,126.364601384824,33.2359138258788,안덕면
558,https://www.instagram.com/p/CH-TpAZFk-9/,2020-11-24T12:29:46.000Z,into_food,"뷰맛집
.
.
#제주카페#여행#커피#제주#카페","['제주카페', '여행', '커피', '제주', '카페']",제주 게우지코지,제주특별자치도 서귀포시 하효동 1371-1,126.618092487237,33.2440696903915,하효동
578,https://www.instagram.com/p/CH-WGH4h35F/,2020-11-24T12:51:13.000Z,seung_hee12,"날씨 좋을때 오고싶었는데..
밖에서 사진 하나 못찍고
다음에 다시와야지👋

#제주#구좌#카페#모알보알#커피맛집#사람바글바글#","['제주', '구좌', '카페', '모알보알', '커피맛집', '사람바글바글']",모알보알,제주특별자치도 제주시 구좌읍 김녕리 6159,126.727953094591,33.5595665887276,구좌읍
585,https://www.instagram.com/p/CH-ZUS_h6Yg/,2020-11-24T13:19:22.000Z,jandi_visiting,"잔디공장에서...
.
.
.

#잔디공장방문자 가 되어주셔서 감사합니다🌱

#제주도 #성산카페 #잔디공장 #cafe
#제주 #서귀포 #보롬왓 #휴애리 #카멜리아힐 #동백포레스트
.
.
.
#서귀포카페 #성산카페 #제주살이 #제주도카페추천 #제주도카페투어 #제주동쪽카페 #제주카페투어 #제주카페추천 #제주카페탐방 #제주도게스트하우스 #제주게하","['잔디공장방문자', '제주도', '성산카페', '잔디공장', 'cafe', '제주', '서귀포', '보롬왓', '휴애리', '카멜리아힐', '동백포레스트', '서귀포카페', '성산카페', '제주살이', '제주도카페추천', '제주도카페투어', '제주동쪽카페', '제주카페투어', '제주카페추천', '제주카페탐방', '제주도게스트하우스', '제주게하']",잔디공장,제주특별자치도 서귀포시 성산읍 신산리 1073-9,126.873289850307,33.3774305792331,성산읍
591,https://www.instagram.com/p/CH-Yv0IJ8r_/,2020-11-24T13:14:23.000Z,tae0__98,"공주랑
.
.
.
.
#제주#제주도 #제주도여행 #제주맛집 #제주카페 #제주여행 #제주살이 #제주도숙소 #럽스타그램 #좋반 #좋아요반사 #팔로우100 #팔로우늘리기 #좋반테러 #좋아요테러 #맞팔 #맞팔해요 #맞팔선팔환영 #맞팔환영 #첫줄반사
#followforfollowback #follow #follow4followback #likeforfollow #following #follow4like #follow_me #likeforlikes #likeforfollow #like4likes","['제주', '제주도', '제주도여행', '제주맛집', '제주카페', '제주여행', '제주살이', '제주도숙소', '럽스타그램', '좋반', '좋아요반사', '팔로우100', '팔로우늘리기', '좋반테러', '좋아요테러', '맞팔', '맞팔해요', '맞팔선팔환영', '맞팔환영', '첫줄반사', 'followforfollowback', 'follow', 'follow4followback', 'likeforfollow', 'following', 'follow4like', 'follow_me', 'likeforlikes', 'likeforfollow', 'like4likes']",제주도 곽지해수욕장,제주특별자치도 제주시 애월읍 곽지리 1565,126.304673157235,33.4506575078278,애월읍
599,https://www.instagram.com/p/CH-YTjkH30l/,2020-11-24T13:10:32.000Z,chaeguri_jeju,"🧸 스누피가든 🧸
.
.
볼거리가 너무너무 많은 스누피가든🧡 기대를 하고갔는데도 너무 좋았다˃ᴗ˂
.
실내 볼거리 하나하나 정원 구석구석 다 공이 들어간게 보였다!
.
입장료가 비싸다는 평이 많은데 난 하나도 아깝지 않았고 이정도 정성이면 이 돈 받아도된다!
.
단점이라면 딱 하나 정원이 정말 넓어서 생각보다 살짝 힘들다ㅎㅎ
.
사진찍는 것 좋아하고 스누피 덕후라면 꼭꼭 가야한다!!·ᴗ·
.
#제주중독자 #제주도 #제주 #제주도여행 #제주여행 #제주핫플 #제주가볼만한곳 #제주카페 #스누피 #만화 #찰리브라운 #인생샷 #여행 #여행스타그램 #여행병 #여행그램 #여행기록 #여행일기 #또가고싶다 #trip #tripstagram
.
#스누피가든","['제주중독자', '제주도', '제주', '제주도여행', '제주여행', '제주핫플', '제주가볼만한곳', '제주카페', '스누피', '만화', '찰리브라운', '인생샷', '여행', '여행스타그램', '여행병', '여행그램', '여행기록', '여행일기', '또가고싶다', 'trip', 'tripstagram', '스누피가든']",스누피가든,제주특별자치도 제주시 구좌읍 송당리 2303-2,126.77844424339503,33.443962924091636,구좌읍
617,https://www.instagram.com/p/CH-a2v7naqf/,2020-11-24T13:32:48.000Z,j.love.s7,"구름이 잘 어울리던 방주교회☁️☁️

#제주도#방주교회#여행#풍경#제주#구름#selfie#셀카#셀피#인친#소통#좋아요반사#좋아요#ootd#fff #팔로우#선팔#일상#먹방 #dailylook#데일리룩#instagood#cafe #선팔하면맞팔","['제주도', '방주교회', '여행', '풍경', '제주', '구름', 'selfie', '셀카', '셀피', '인친', '소통', '좋아요반사', '좋아요', 'ootd', 'fff', '팔로우', '선팔', '일상', '먹방', 'dailylook', '데일리룩', 'instagood', 'cafe', '선팔하면맞팔']",방주교회,제주특별자치도 서귀포시 안덕면 상천리 427,126.387439255121,33.305048981119,안덕면
655,https://www.instagram.com/p/CIFw1yoBaDe/,2020-11-27T09:59:36.000Z,zero_jjuu,"주영 in jeju💓
.
.
.
.
#제주도 #제주도여행 #제주 #제주도감성카페 #제주맛집 #제주카페 #제주여행 #제주가볼만한곳 #제주도카페 #우드노트 #카페스타그램 #카페추천 #여행 #여행스타그램 #여행지추천 #국내여행 #오오티디 #ootd #감성사진 #selfie #소통 #dm #ulzzang #ulzzangkorea #얼스타그램 #얼스타 #얼짱 #셀스타그램 #셀피 #좋아요반사","['제주도', '제주도여행', '제주', '제주도감성카페', '제주맛집', '제주카페', '제주여행', '제주가볼만한곳', '제주도카페', '우드노트', '카페스타그램', '카페추천', '여행', '여행스타그램', '여행지추천', '국내여행', '오오티디', 'ootd', '감성사진', 'selfie', '소통', 'dm', 'ulzzang', 'ulzzangkorea', '얼스타그램', '얼스타', '얼짱', '셀스타그램', '셀피', '좋아요반사']",우드노트,제주특별자치도 서귀포시 남원읍 남원리 2406-3,126.698573243357,33.2726237344419,남원읍
708,https://www.instagram.com/p/CIKzjyOlWrf/,2020-11-29T08:59:34.000Z,heevely0819,"잘있었니?
두달만에 방문한 #바램목장
추운날씨지만 항상 여유로운 이곳
당근 잘 먹는 너희 모습에 내 지갑은 자꾸 열리네......

#제주바램목장 #제주양떼목장 #제주도 #제주 #제주도여행 #제주카페 #제주가볼만한곳 #제주핫플레이스 #제주도여행코스 #서귀포카페 #안덕면맛집 #힐링여행 #여행에미치다_제주 #또올게 🐑","['바램목장', '제주바램목장', '제주양떼목장', '제주도', '제주', '제주도여행', '제주카페', '제주가볼만한곳', '제주핫플레이스', '제주도여행코스', '서귀포카페', '안덕면맛집', '힐링여행', '여행에미치다_제주', '또올게']",바램목장&카페,제주특별자치도 서귀포시 안덕면 동광리 259-3,126.35259355146505,33.31110694796215,안덕면
716,https://www.instagram.com/p/CIKzFStjoUI/,2020-11-29T08:55:24.000Z,ma_rie_0,"PLAYLIST💙

친한언니와 카페투어 ꪔ̤̮

추워도 카페는 아이스인 우리는 역시 아이스로〰️

음료는 헤이즐넛 라떼🤎(🙋🏻‍♀️)와 밀크티🤎(언니)
디저트는 오레오티라미수🖤

인테리어 너무 예쁜데 음료랑 디저트도 맛있어서 또 방문 할 예정이랍니당(◍•ڡ•◍)⭐

@jeju_playlist
#언니랑 #카페
#카페스타그램 #커피 #밀크티 #디저트 #cafe #coffee
#일상 #소통 #선팔 #맞팔 #선팔하면맞팔 #좋반 #셀피 #데일리 #먹스타그램 #맛집 #daily #ootd #motd #foodie #selfie #f4f #사진 #감성 #photo #제주 #jeju #tbt","['언니랑', '카페', '카페스타그램', '커피', '밀크티', '디저트', 'cafe', 'coffee', '일상', '소통', '선팔', '맞팔', '선팔하면맞팔', '좋반', '셀피', '데일리', '먹스타그램', '맛집', 'daily', 'ootd', 'motd', 'foodie', 'selfie', 'f4f', '사진', '감성', 'photo', '제주', 'jeju', 'tbt']",제주플레이리스트,제주특별자치도 제주시 아라이동 3012-18,126.541311860559,33.4931600632963,아라2동
727,https://www.instagram.com/p/CIKyeyiJTTQ/,2020-11-29T08:50:08.000Z,coffeevo23,"〔 Marone Dessert 〕

マカロン2種類と
抹茶チョコレートスコーン☕️

10人くらいが座れるような小さなお店だったけど
デザートの種類も多くて良かった🧁

マカロン目当てで行ったけど
美味しかった💓

📍제주 제주시 고마로5길 9-1

#maronedessert #마로네디저트 #제주도카페 #제주카페 #チェジュ島カフェ #済州島カフェ #제주여행 #제주도여행 #済州島旅行 #チェジュ島旅行 #チェジュ島 #済州島 #제주도 #제주 #済州 #チェジュ #카페추천 #카페스타그램 #韓国カフェ #韓国カフェ巡り #韓国カフェ情報 ##국내여행 #カフェ巡り #カフェスタグラム #カフェ部 #韓国 #한국 #🇰🇷","['maronedessert', '마로네디저트', '제주도카페', '제주카페', 'チェジュ島カフェ', '済州島カフェ', '제주여행', '제주도여행', '済州島旅行', 'チェジュ島旅行', 'チェジュ島', '済州島', '제주도', '제주', '済州', 'チェジュ', '카페추천', '카페스타그램', '韓国カフェ', '韓国カフェ巡り', '韓国カフェ情報', '국내여행', 'カフェ巡り', 'カフェスタグラム', 'カフェ部', '韓国', '한국']",Marone Dessert,제주특별자치도 제주시 일도2동 149-21,126.539523829284,33.5121697319158,일도2동
739,https://www.instagram.com/p/CIK6ACNDIwy/,2020-11-29T09:55:51.000Z,j.hahaha_s,벌써 크리스마스 :) #제주#소인카페#바닐라빈라떼#그린티라떼#시간이너무빨라#12월이다가온다#카페스타그램,"['제주', '소인카페', '바닐라빈라떼', '그린티라떼', '시간이너무빨라', '12월이다가온다', '카페스타그램']",Soin Coffee,제주특별자치도 제주시 노형동 938-6,126.48436568892224,33.48421779580362,노형동
759,https://www.instagram.com/p/CILBK6tnpPj/,2020-11-29T10:58:30.000Z,yuvuvuv_v,"사고뭉치 ., 유디니 #1일1사고 #애들아고맙고미안하고사랑한다
.
.
.
#제주#제주도여행#jeju#애월#서귀포#제주도카페#애월카페","['1일1사고', '애들아고맙고미안하고사랑한다', '제주', '제주도여행', 'jeju', '애월', '서귀포', '제주도카페', '애월카페']",제주 애월읍,제주특별자치도 제주시 애월읍 광령리,126.439341083568,33.4608856490895,애월읍
775,https://www.instagram.com/p/CILINoalEIV/,2020-11-29T12:00:02.000Z,gamgulbat,"돌멩이라떼
.
.
.
.
.
.
.
.
.
.
.
.
.
.
.
.
.
.
.
.
#제주도#제주#제주도여행#제주여행#제주도민#제주도맛집#제주맛집#제주도민맛집#제주맛집추천#제주카페#제주도가볼만한곳#제주가볼만한곳#제주도민#좋아요#좋아요반사#좋아요테러#인친#인친환영#인친해요#맞팔#선팔#맞팔선팔#맞팔환영#맞팔해요#follw#팔로우#돌멩이라떼","['제주도', '제주', '제주도여행', '제주여행', '제주도민', '제주도맛집', '제주맛집', '제주도민맛집', '제주맛집추천', '제주카페', '제주도가볼만한곳', '제주가볼만한곳', '제주도민', '좋아요', '좋아요반사', '좋아요테러', '인친', '인친환영', '인친해요', '맞팔', '선팔', '맞팔선팔', '맞팔환영', '맞팔해요', 'follw', '팔로우', '돌멩이라떼']",그럼외도,제주특별자치도 제주시 외도이동 314-2,126.43399937343,33.4943031648662,외도2동
810,https://www.instagram.com/p/CILO-6wH3jl/,2020-11-29T12:59:12.000Z,ha.rang__,"나도 #핫플 인 #와랑와랑 #카페
방문했다개🐶
#제주#위미리#당근주스 내 최애라개🐶","['핫플', '와랑와랑', '카페', '제주', '위미리', '당근주스']",와랑와랑,제주특별자치도 서귀포시 남원읍 위미리 875-1,126.67655338473118,33.272294301337155,남원읍
812,https://www.instagram.com/p/CILO1O6FRbR/,2020-11-29T12:57:52.000Z,min_story__,☺️❤️ #카페 #카페스타그램 #제주도 #제주 #제주도여행 #제주카페 #인그리드 #여행 #여행스타그램 #데일리 #데일리그램 #일상 #일상스타그램 #일상소통 #일상기록 #일상그램 #daily #cafe #cafestagram #instagood #instagram #instadaily,"['카페', '카페스타그램', '제주도', '제주', '제주도여행', '제주카페', '인그리드', '여행', '여행스타그램', '데일리', '데일리그램', '일상', '일상스타그램', '일상소통', '일상기록', '일상그램', 'daily', 'cafe', 'cafestagram', 'instagood', 'instagram', 'instadaily']",인그리드,제주특별자치도 제주시 이호일동 371-1,126.45668314517829,33.50255325983955,이호1동
816,https://www.instagram.com/p/CILOwZoDCva/,2020-11-29T12:57:13.000Z,0507o_o,#제주 #20 #01 #insta #instagram #daily #인스타 #데일리 #일상 #소통 #사진 #피드 #좋아요 #좋아요반사 #좋반테러 #팔로우 #선팔하면맞팔 #맞팔 #팔로미 #followme #followfollow #fff #likeforlikeback #첫줄반사 #셀스타 #셀카그램 #럽스타그램 #다렉 #카페,"['제주', '20', '01', 'insta', 'instagram', 'daily', '인스타', '데일리', '일상', '소통', '사진', '피드', '좋아요', '좋아요반사', '좋반테러', '팔로우', '선팔하면맞팔', '맞팔', '팔로미', 'followme', 'followfollow', 'fff', 'likeforlikeback', '첫줄반사', '셀스타', '셀카그램', '럽스타그램', '다렉', '카페']",슬로보트,제주특별자치도 제주시 애월읍 하귀1리 330,126.4143678073485,33.49010070168095,애월읍
821,https://www.instagram.com/p/CILOlszB_Oe/,2020-11-29T12:55:45.000Z,jandi_visiting,"#잔디공장방문자 가 되어 주셔서 감사합니다 🌱
.
.
.
#제주도 #성산카페 #잔디공장 #성산
#제주 #서귀포 #서귀포카페
.
.
.
#표선맛집 #성산일출봉맛집 #빛의벙커 #아쿠아플라넷제주 #드르쿰다 #드르쿰다in성산 #신산리 #신산리카페 #제주스냅 #제주동백 #카멜리아힐 #상효원 #휴애리","['잔디공장방문자', '제주도', '성산카페', '잔디공장', '성산', '제주', '서귀포', '서귀포카페', '표선맛집', '성산일출봉맛집', '빛의벙커', '아쿠아플라넷제주', '드르쿰다', '드르쿰다in성산', '신산리', '신산리카페', '제주스냅', '제주동백', '카멜리아힐', '상효원', '휴애리']",잔디공장,제주특별자치도 서귀포시 성산읍 신산리 1073-9,126.873289850307,33.3774305792331,성산읍
842,https://www.instagram.com/p/CILVVBQMZCb/,2020-11-29T13:54:38.000Z,tto__raming,"바다가 아주 멋있는 모습으로 펼쳐질것같은 곳, 그러므로 다음엔 낮에🌞
.
.
.
#일상#데일리#일기#제주라이프#제주#카페#daily#today
#diary#journal#Jeju#cafe#coffee#xoxo#☕️","['일상', '데일리', '일기', '제주라이프', '제주', '카페', 'daily', 'today', 'diary', 'journal', 'Jeju', 'cafe', 'coffee', 'xoxo']",울트라마린,제주특별자치도 제주시 한경면 판포리 1611,126.206069756519,33.3694603786212,한경면
868,https://www.instagram.com/p/CILcabJhen7/,2020-11-29T14:56:33.000Z,jandi_visiting,"녹색카페, 식물카페를 지향하고 녹색을 좋아해
녹색메뉴만 연구학고 만드는 🥒🥦🥬🍏잔디공장

#잔디공장방문자 가 되어 주셔서 감사합니다🌱
#제주도 #성산카페 #잔디공장
.
✅서귀포시 성산읍 일주동로5154번길 5
✅OPEN 11:00 ~ 19:00
✅YES 애견동반가능한집 🐶 YES 키드존 👶🏻
.
🌱메뉴선택 실패1도 없는 맛있는 카페 🌱 #jmt
🤩잔디우유 6.5
😋잔디스무디 8.5
😝새콤하다에이드 6.5
🥰잔디잼토스트 4.5
.
‼️표선에서 성산가는 길 성산에서 표선가는 길
🚗🚕🚙🚌🚎 🚗🏎🛴🚚🚒🚛🚛
.
#제주 #서귀포 #식물카페 #동백꽃 #성산일출봉 #제주카페 #서귀포카페 #제주동쪽카페 #제주카페투어 #제주카페추천 #제주카페탐방 #제주도게스트하우스 #아쿠아플라넷제주 #해비치호텔 #플레이스캠프제주 #빛의벙커 #드르쿰다","['잔디공장방문자', '제주도', '성산카페', '잔디공장', 'jmt', '제주', '서귀포', '식물카페', '동백꽃', '성산일출봉', '제주카페', '서귀포카페', '제주동쪽카페', '제주카페투어', '제주카페추천', '제주카페탐방', '제주도게스트하우스', '아쿠아플라넷제주', '해비치호텔', '플레이스캠프제주', '빛의벙커', '드르쿰다']",잔디공장,제주특별자치도 서귀포시 성산읍 신산리 1073-9,126.873289850307,33.3774305792331,성산읍
874,https://www.instagram.com/p/CILb6FXL7Dc/,2020-11-29T14:52:08.000Z,mozza_rang,"🧚🧚🏻‍♂️
#제주#제주카페#베케","['제주', '제주카페', '베케']",베케,제주특별자치도 서귀포시 신효동 1137-1,126.60492258733058,33.26190881355424,신효동
885,https://www.instagram.com/p/CILbWX8ncxb/,2020-11-29T14:47:15.000Z,suankiki,"텐저린 라떼가 맛있다는데 커피를 못마시니 뭐 맨날 초코라떼만 마시는거지 뭐 ㅠㅠㅠㅠㅠㅠㅠㅠㅠㅠㅠㅠ

#제주 #제주도 #제주여행 #제주도여행 #공백 #제주카페 #제주카페추천 #구좌읍카페 #제주솬 #제주갈만한곳","['제주', '제주도', '제주여행', '제주도여행', '공백', '제주카페', '제주카페추천', '구좌읍카페', '제주솬', '제주갈만한곳']",Gongbech.공백,제주특별자치도 제주시 구좌읍 동복리 1568-1,126.715093661443,33.5533924123546,구좌읍
891,https://www.instagram.com/p/CILbB9vlS-n/,2020-11-29T14:44:28.000Z,awake_u,"네, 폭풍업뎃 시작하겠슴다🤭
.
.
#원앤온리제주 #카페스타그램 #selfie #제주","['원앤온리제주', '카페스타그램', 'selfie', '제주']",One and only - 원앤온리 제주,제주특별자치도 서귀포시 안덕면 사계리 86,126.319192490757,33.2392223486155,안덕면
919,https://www.instagram.com/p/CILp3c7DgeK/,2020-11-29T16:54:06.000Z,seowoo_oddo,"졸리면 자자,,,z

#제주 #제주애견동반카페 #아기푸들","['제주', '제주애견동반카페', '아기푸들']",앤트러사이트 제주 한림점,제주특별자치도 제주시 한림읍 동명리 1715,126.258149647652,33.4077717708008,한림읍
922,https://www.instagram.com/p/CILohYoHbQJ/,2020-11-29T16:42:21.000Z,cafe_tour._.o,"오온
커피를 좋아해 찾아다니던 카페였는데 우연히 발견한 찻집.
다양한 차 종류와 먹어보지 못했던 이색 차들로 가득한 곳이였다.
커피를 많이 마시는 요즘 차한잔은 힐링되는 느낌이였다 .
친절히 설명해주시고 또란 직접 차를 내려주셔서 재방문 하고 싶은곳이다.
.
.
.
.
#오온 #제주카페 #카페 #카페투어 #아라동카페 #차카페 #제주 #커피 #전통차 #제주살이 #제주도여행 #카페추천 #카페인테리어 #카페탐방 #팔로우 #팔로우환영 #팔로우미 #fff #ff #followｍe #선팔환영 #커피맛집 #선팔맞팔 #카페맞팔 #카페맞팔환영 #제주카페추천 #제주살이 #제주대카페 #사진맛집 #향토카페 #이색카페","['오온', '제주카페', '카페', '카페투어', '아라동카페', '차카페', '제주', '커피', '전통차', '제주살이', '제주도여행', '카페추천', '카페인테리어', '카페탐방', '팔로우', '팔로우환영', '팔로우미', 'fff', 'ff', 'followｍe', '선팔환영', '커피맛집', '선팔맞팔', '카페맞팔', '카페맞팔환영', '제주카페추천', '제주살이', '제주대카페', '사진맛집', '향토카페', '이색카페']",오온,제주특별자치도 제주시 이도이동 1965-15,126.54359451631342,33.49289440708202,이도2동
931,https://www.instagram.com/p/CILmbuejxUP/,2020-11-29T16:24:06.000Z,3.15th__s,"대충살자
#헤어라인 #비밀
.
.
.

#제주도#제주여행#셀카#셀피#셀카그램#인스타그램#일상#데일리#오오티디#애월#애월카페#제주맛집#인스타그램#인스타데일리#selca#selfie#selcagram#instagram#instadaily😉","['헤어라인', '비밀', '제주도', '제주여행', '셀카', '셀피', '셀카그램', '인스타그램', '일상', '데일리', '오오티디', '애월', '애월카페', '제주맛집', '인스타그램', '인스타데일리', 'selca', 'selfie', 'selcagram', 'instagram', 'instadaily']",봄날,제주특별자치도 제주시 일도1동 1425-3,126.524677826742,33.513278603906,일도1동
934,https://www.instagram.com/p/CIKjl3hD6I8/,2020-11-29T06:40:02.000Z,___92.12.30,"안녕👋 동백이🌺
.
.
.
#jeju #제주 #제주도민 #일상 #소통 #좋아요 #맞팔 #선팔하면맞팔 #제주여행추천 #제주겨울 #제주서귀포카페 #제주카페추천 #남원리카페 #동백꽃필무렵 #동백꽃 #사진 #셀피 #selfie #daily #dailylook #오오티디 #ootd #fff #l4l #instagood","['jeju', '제주', '제주도민', '일상', '소통', '좋아요', '맞팔', '선팔하면맞팔', '제주여행추천', '제주겨울', '제주서귀포카페', '제주카페추천', '남원리카페', '동백꽃필무렵', '동백꽃', '사진', '셀피', 'selfie', 'daily', 'dailylook', '오오티디', 'ootd', 'fff', 'l4l', 'instagood']",동백포레스트,제주특별자치도 서귀포시 남원읍 신례리 1767,126.63621623625866,33.30034607599768,남원읍
936,https://www.instagram.com/p/CHIBoyEDFrH/,2020-11-03T10:33:28.000Z,___92.12.30,"벌써 11월이라니 가을 인줄 알았는데 오늘은 겨울날씨야;; #그림같은공간 #카페색깔🎨
.
.
.
#jeju #제주 #제주도민 #일상 #소통 #좋아요 #맞팔 #선팔하면맞팔 #제주여행추천 #제주가을 #제주동쪽카페 #제주카페추천 #하도리카페 #분위기좋은카페 #사진 #셀피 #selfie #daily #dailylook #오오티디 #ootd #fff #l4l #instagood","['그림같은공간', '카페색깔', 'jeju', '제주', '제주도민', '일상', '소통', '좋아요', '맞팔', '선팔하면맞팔', '제주여행추천', '제주가을', '제주동쪽카페', '제주카페추천', '하도리카페', '분위기좋은카페', '사진', '셀피', 'selfie', 'daily', 'dailylook', '오오티디', 'ootd', 'fff', 'l4l', 'instagood']",카페색깔,제주특별자치도 제주시 구좌읍 하도리 1462-1,126.886704761855,33.5205184178392,구좌읍
966,https://www.instagram.com/p/CHpW2ZUn-wd/,2020-11-16T09:13:45.000Z,superman_0110,"이호테우해변 하얀말등대에서~ 칭구랑

#이호태우말등대 #환상의섬jejuisland #제주도여행코스 #이호테우해변카페 #국내여행 #감성사진 #대한민국구석구석
#여행지추천 #여행에미치다 #여기가포토존 #맞팔 #선팔 #소통
#소통스타그램 #제주 #제주도 #인팔 #인친","['이호태우말등대', '환상의섬jejuisland', '제주도여행코스', '이호테우해변카페', '국내여행', '감성사진', '대한민국구석구석', '여행지추천', '여행에미치다', '여기가포토존', '맞팔', '선팔', '소통', '소통스타그램', '제주', '제주도', '인팔', '인친']",이호테우해변,제주특별자치도 제주시 이호일동 1665-13,126.452690819027,33.4973768007144,이호1동
972,https://www.instagram.com/p/CILp3c7DgeK/,2020-11-29T16:54:06.000Z,seowoo_oddo,"졸리면 자자,,,z

#제주 #제주애견동반카페 #아기푸들","['제주', '제주애견동반카페', '아기푸들']",앤트러사이트 제주 한림점,제주특별자치도 제주시 한림읍 동명리 1715,126.258149647652,33.4077717708008,한림읍
975,https://www.instagram.com/p/CILohYoHbQJ/,2020-11-29T16:42:21.000Z,cafe_tour._.o,"오온
커피를 좋아해 찾아다니던 카페였는데 우연히 발견한 찻집.
다양한 차 종류와 먹어보지 못했던 이색 차들로 가득한 곳이였다.
커피를 많이 마시는 요즘 차한잔은 힐링되는 느낌이였다 .
친절히 설명해주시고 또란 직접 차를 내려주셔서 재방문 하고 싶은곳이다.
.
.
.
.
#오온 #제주카페 #카페 #카페투어 #아라동카페 #차카페 #제주 #커피 #전통차 #제주살이 #제주도여행 #카페추천 #카페인테리어 #카페탐방 #팔로우 #팔로우환영 #팔로우미 #fff #ff #followｍe #선팔환영 #커피맛집 #선팔맞팔 #카페맞팔 #카페맞팔환영 #제주카페추천 #제주살이 #제주대카페 #사진맛집 #향토카페 #이색카페","['오온', '제주카페', '카페', '카페투어', '아라동카페', '차카페', '제주', '커피', '전통차', '제주살이', '제주도여행', '카페추천', '카페인테리어', '카페탐방', '팔로우', '팔로우환영', '팔로우미', 'fff', 'ff', 'followｍe', '선팔환영', '커피맛집', '선팔맞팔', '카페맞팔', '카페맞팔환영', '제주카페추천', '제주살이', '제주대카페', '사진맛집', '향토카페', '이색카페']",오온,제주특별자치도 제주시 이도이동 1965-15,126.54359451631342,33.49289440708202,이도2동
1000,https://www.instagram.com/p/CHpW2ZUn-wd/,2020-11-16T09:13:45.000Z,superman_0110,"이호테우해변 하얀말등대에서~ 칭구랑

#이호태우말등대 #환상의섬jejuisland #제주도여행코스 #이호테우해변카페 #국내여행 #감성사진 #대한민국구석구석
#여행지추천 #여행에미치다 #여기가포토존 #맞팔 #선팔 #소통
#소통스타그램 #제주 #제주도 #인팔 #인친","['이호태우말등대', '환상의섬jejuisland', '제주도여행코스', '이호테우해변카페', '국내여행', '감성사진', '대한민국구석구석', '여행지추천', '여행에미치다', '여기가포토존', '맞팔', '선팔', '소통', '소통스타그램', '제주', '제주도', '인팔', '인친']",이호테우해변,제주특별자치도 제주시 이호일동 1665-13,126.452690819027,33.4973768007144,이호1동
1025,https://www.instagram.com/p/CHpW2ZUn-wd/,2020-11-16T09:13:45.000Z,superman_0110,"이호테우해변 하얀말등대에서~ 칭구랑

#이호태우말등대 #환상의섬jejuisland #제주도여행코스 #이호테우해변카페 #국내여행 #감성사진 #대한민국구석구석
#여행지추천 #여행에미치다 #여기가포토존 #맞팔 #선팔 #소통
#소통스타그램 #제주 #제주도 #인팔 #인친","['이호태우말등대', '환상의섬jejuisland', '제주도여행코스', '이호테우해변카페', '국내여행', '감성사진', '대한민국구석구석', '여행지추천', '여행에미치다', '여기가포토존', '맞팔', '선팔', '소통', '소통스타그램', '제주', '제주도', '인팔', '인친']",이호테우해변,제주특별자치도 제주시 이호일동 1665-13,126.452690819027,33.4973768007144,이호1동
1065,https://www.instagram.com/p/CHpW2ZUn-wd/,2020-11-16T09:13:45.000Z,superman_0110,"이호테우해변 하얀말등대에서~ 칭구랑

#이호태우말등대 #환상의섬jejuisland #제주도여행코스 #이호테우해변카페 #국내여행 #감성사진 #대한민국구석구석
#여행지추천 #여행에미치다 #여기가포토존 #맞팔 #선팔 #소통
#소통스타그램 #제주 #제주도 #인팔 #인친","['이호태우말등대', '환상의섬jejuisland', '제주도여행코스', '이호테우해변카페', '국내여행', '감성사진', '대한민국구석구석', '여행지추천', '여행에미치다', '여기가포토존', '맞팔', '선팔', '소통', '소통스타그램', '제주', '제주도', '인팔', '인친']",이호테우해변,제주특별자치도 제주시 이호일동 1665-13,126.452690819027,33.4973768007144,이호1동
1093,https://www.instagram.com/p/CIMR64AhPeR/,2020-11-29T22:44:06.000Z,jandi_visiting,"#잔디공장방문자 가 되어 주셔서 감사합니다🌱
#제주도 #성산카페 #잔디공장
.
✅서귀포시 성산읍 일주동로5154번길 5
✅OPEN 11:00 ~ 19:00
✅YES 애견동반가능한집 🐶 YES 키드존 👶🏻
.
🌱메뉴선택 실패1도 없는 맛있는 카페 🌱 #jmt
🤩잔디우유 6.5
😋잔디스무디 8.5
😝새콤하다에이드 6.5
🥰잔디잼토스트 4.5
.
‼️표선에서 성산가는 길 성산에서 표선가는 길
🚗🚕🚙🚌🚎 🚗🏎🛴🚚🚒🚛🚛
.
#제주 #서귀포 #카페 #식물카페 #서귀포카페
#성산일출봉 #섭지코지 #광치기해변 #우도 #제주도 #성산맛집 #표선맛집 #하도리맛집 #중문맛집 #성산일출봉맛집 #빛의벙커 #신산리카페 #신산리 #신산리맛집","['잔디공장방문자', '제주도', '성산카페', '잔디공장', 'jmt', '제주', '서귀포', '카페', '식물카페', '서귀포카페', '성산일출봉', '섭지코지', '광치기해변', '우도', '제주도', '성산맛집', '표선맛집', '하도리맛집', '중문맛집', '성산일출봉맛집', '빛의벙커', '신산리카페', '신산리', '신산리맛집']",잔디공장,제주특별자치도 서귀포시 성산읍 신산리 1073-9,126.873289850307,33.3774305792331,성산읍
1096,https://www.instagram.com/p/CIMQru3DjMe/,2020-11-29T22:33:17.000Z,wimi433,"귤잼넣은 대만샌드위치.

부드러운 식빵사이에 햄치즈계란을 넣어 달달꼬운 대만샌드위치를 만들어봤어요

연유와 버터로 만든 스프레드대신 귤잼을 발라봤는데, 가족들 반응이 참 좋았어요

딸기쨈은 넘 달아서 별로 안좋아하는 신랑도 귤잼은 새콤해서 이게 더 좋대요.

담엔 좀 얇은빵으로 해봐야겠어요. 빵이 넘두꺼우니 입이 찢어질듯 ㅎ

#귤 #귤잼 #귤샌드위치 #귤잼샌드위치
#잼샌드위치 #대만샌드위치 #아침식단
#제주 #서귀포 #위미 #위미감귤 #서귀포감귤
#위미433귤밭 #위미433귤청잼
#홈카페 #카페스타그램 #소확행 #아침메뉴","['귤', '귤잼', '귤샌드위치', '귤잼샌드위치', '잼샌드위치', '대만샌드위치', '아침식단', '제주', '서귀포', '위미', '위미감귤', '서귀포감귤', '위미433귤밭', '위미433귤청잼', '홈카페', '카페스타그램', '소확행', '아침메뉴']",서귀포 위미리,제주특별자치도 서귀포시 남원읍 남원리 91-6,126.66743988738492,33.27078076230098,남원읍
1097,https://www.instagram.com/p/CIMQgNvB4La/,2020-11-29T22:31:43.000Z,jandi_visiting,"#성산카페#잔디공장 #잔디우유
.
✅서귀포시 성산읍 일주동로5154번길 5
✅OPEN 11:00~19:00
✅YES 애견동반가능한집
✅YES 키드존 👶🏻
.
🌱메뉴선택 실패1도 없는 맛있는 카페 🌱 #jmt
-잔디우유
-잔디라떼
-잔디스무디
-새콤하다에이드
-잔디잼토스트
.
‼️표선에서 성산가는 길 성산에서 표선가는 길
.
#제주 #서귀포 #카페 #식물카페 #제주도여행 #제주살이 #제주도게스트하우스 #한담해변 #협재해수욕장 #제주도핫플 #성산맛집 #서귀포맛집 #애월맛집 #한담맛집 #곽지맛집 #협재맛집 #한림맛집 #대정맛집 #협재카페 #애월카페","['성산카페', '잔디공장', '잔디우유', 'jmt', '제주', '서귀포', '카페', '식물카페', '제주도여행', '제주살이', '제주도게스트하우스', '한담해변', '협재해수욕장', '제주도핫플', '성산맛집', '서귀포맛집', '애월맛집', '한담맛집', '곽지맛집', '협재맛집', '한림맛집', '대정맛집', '협재카페', '애월카페']",잔디공장,제주특별자치도 서귀포시 성산읍 신산리 1073-9,126.873289850307,33.3774305792331,성산읍
